{"type": "FeatureCollection", "properties": {"method": "lake-stage exposure", "shuffled_seed": null, "flights": {"2011": "2011-08-17", "2013": "2013-08-22", "2018": "2018-07-20", "2021": "2021-08-16", "2023": "2023-09-01"}, "stage_rank": {"2011": 0.7695, "2013": 0.9297, "2018": 1.0, "2021": 0.0, "2023": 0.174}, "dry_sigma_min": 6.0, "wet_sigma_max": 3.0, "min_flights": 5, "note": "rung is how many of the lowest-water flights the feature stood dry in; depth is a rank, not a distance, until the stage ladder is anchored to elevations", "stats": {"cand_px": 0}}, "features": []}