{"type": "FeatureCollection", "properties": {"method": "lake-stage exposure", "shuffled_seed": 1, "flights": {"2011": "2011-08-17", "2013": "2013-08-22", "2018": "2018-07-20", "2021": "2021-08-16", "2023": "2023-09-01"}, "stage_rank": {"2011": 0.7695, "2013": 0.9297, "2018": 1.0, "2021": 0.0, "2023": 0.174}, "dry_sigma_min": 6.0, "wet_sigma_max": 3.0, "min_flights": 5, "note": "rung is how many of the lowest-water flights the feature stood dry in; depth is a rank, not a distance, until the stage ladder is anchored to elevations", "stats": {"enough_px": 6097446, "monotone_pass": 13452, "dry_pass": 16083, "wet_pass": 6068634, "cand_px": 6686, "tiles_scored": 41, "blob_size_rejected": 785, "blobs": 49}}, "features": [{"type": "Feature", "geometry": {"type": "Point", "coordinates": [-68.8133542, 45.7291566]}, "properties": {"method": "stage_exposure", "area_m2": 12.5, "res_m": 0.3, "dry_sigma": 10.34, "wet_sigma": 0.67, "rho": 0.4, "rung": 1, "dry_in": [2023], "n_dry": 1, "n_obs": 5, "tile_res_reason": "open water the 1954 survey never sounded", "shore_m": 151.3, "reach_m": 344.0}}, {"type": "Feature", "geometry": {"type": "Point", "coordinates": [-68.7897193, 45.7310514]}, "properties": {"method": "stage_exposure", "area_m2": 9.0, "res_m": 0.6, "dry_sigma": 8.81, "wet_sigma": 1.79, "rho": 0.3, "rung": 1, "dry_in": [2023], "n_dry": 1, "n_obs": 5, "tile_res_reason": "far outside the survey's reach", "shore_m": 68.5, "reach_m": 560.0}}, {"type": "Feature", "geometry": {"type": "Point", "coordinates": [-68.7896413, 45.730836]}, "properties": {"method": "stage_exposure", "area_m2": 24.8, "res_m": 0.6, "dry_sigma": 8.11, "wet_sigma": 2.4, "rho": 0.7, "rung": 1, "dry_in": [2023], "n_dry": 1, "n_obs": 5, "tile_res_reason": "far outside the survey's reach", "shore_m": 68.5, "reach_m": 560.0}}, {"type": "Feature", "geometry": {"type": "Point", "coordinates": [-68.7897417, 45.7307868]}, "properties": {"method": "stage_exposure", "area_m2": 13.7, "res_m": 0.6, "dry_sigma": 8.53, "wet_sigma": 2.64, "rho": 0.9, "rung": 1, "dry_in": [2023], "n_dry": 1, "n_obs": 5, "tile_res_reason": "far outside the survey's reach", "shore_m": 68.5, "reach_m": 560.0}}, {"type": "Feature", "geometry": {"type": "Point", "coordinates": [-68.7896546, 45.7307765]}, "properties": {"method": "stage_exposure", "area_m2": 5.4, "res_m": 0.6, "dry_sigma": 7.52, "wet_sigma": 1.87, "rho": 0.7, "rung": 2, "dry_in": [2023, 2011], "n_dry": 2, "n_obs": 5, "tile_res_reason": "far outside the survey's reach", "shore_m": 68.5, "reach_m": 560.0}}, {"type": "Feature", "geometry": {"type": "Point", "coordinates": [-68.7898394, 45.7307642]}, "properties": {"method": "stage_exposure", "area_m2": 6.5, "res_m": 0.6, "dry_sigma": 8.39, "wet_sigma": 2.18, "rho": 0.6, "rung": 1, "dry_in": [2023], "n_dry": 1, "n_obs": 5, "tile_res_reason": "far outside the survey's reach", "shore_m": 68.5, "reach_m": 560.0}}, {"type": "Feature", "geometry": {"type": "Point", "coordinates": [-68.789545, 45.7307639]}, "properties": {"method": "stage_exposure", "area_m2": 14.4, "res_m": 0.6, "dry_sigma": 7.97, "wet_sigma": 1.56, "rho": 0.7, "rung": 2, "dry_in": [2023, 2011], "n_dry": 2, "n_obs": 5, "tile_res_reason": "far outside the survey's reach", "shore_m": 68.5, "reach_m": 560.0}}, {"type": "Feature", "geometry": {"type": "Point", "coordinates": [-68.790139, 45.7306732]}, "properties": {"method": "stage_exposure", "area_m2": 10.1, "res_m": 0.6, "dry_sigma": 8.42, "wet_sigma": 1.94, "rho": 0.7, "rung": 1, "dry_in": [2023], "n_dry": 1, "n_obs": 5, "tile_res_reason": "far outside the survey's reach", "shore_m": 68.5, "reach_m": 560.0}}, {"type": "Feature", "geometry": {"type": "Point", "coordinates": [-68.7892331, 45.7306656]}, "properties": {"method": "stage_exposure", "area_m2": 5.8, "res_m": 0.6, "dry_sigma": 8.1, "wet_sigma": 2.22, "rho": 0.6, "rung": 1, "dry_in": [2023], "n_dry": 1, "n_obs": 5, "tile_res_reason": "far outside the survey's reach", "shore_m": 68.5, "reach_m": 560.0}}, {"type": "Feature", "geometry": {"type": "Point", "coordinates": [-68.7889076, 45.7306694]}, "properties": {"method": "stage_exposure", "area_m2": 15.5, "res_m": 0.6, "dry_sigma": 8.43, "wet_sigma": 1.36, "rho": 0.3, "rung": 1, "dry_in": [2023], "n_dry": 1, "n_obs": 5, "tile_res_reason": "far outside the survey's reach", "shore_m": 68.5, "reach_m": 560.0}}, {"type": "Feature", "geometry": {"type": "Point", "coordinates": [-68.7896029, 45.7306613]}, "properties": {"method": "stage_exposure", "area_m2": 4.3, "res_m": 0.6, "dry_sigma": 7.77, "wet_sigma": 1.51, "rho": 0.7, "rung": 2, "dry_in": [2023, 2011], "n_dry": 2, "n_obs": 5, "tile_res_reason": "far outside the survey's reach", "shore_m": 68.5, "reach_m": 560.0}}, {"type": "Feature", "geometry": {"type": "Point", "coordinates": [-68.7900376, 45.7306394]}, "properties": {"method": "stage_exposure", "area_m2": 5.4, "res_m": 0.6, "dry_sigma": 8.43, "wet_sigma": 2.04, "rho": 0.3, "rung": 1, "dry_in": [2023], "n_dry": 1, "n_obs": 5, "tile_res_reason": "far outside the survey's reach", "shore_m": 68.5, "reach_m": 560.0}}, {"type": "Feature", "geometry": {"type": "Point", "coordinates": [-68.7888885, 45.7306215]}, "properties": {"method": "stage_exposure", "area_m2": 13.0, "res_m": 0.6, "dry_sigma": 8.36, "wet_sigma": 1.87, "rho": 0.4, "rung": 1, "dry_in": [2023], "n_dry": 1, "n_obs": 5, "tile_res_reason": "far outside the survey's reach", "shore_m": 68.5, "reach_m": 560.0}}, {"type": "Feature", "geometry": {"type": "Point", "coordinates": [-68.7902133, 45.730614]}, "properties": {"method": "stage_exposure", "area_m2": 12.2, "res_m": 0.6, "dry_sigma": 7.84, "wet_sigma": 2.18, "rho": 0.7, "rung": 2, "dry_in": [2023, 2011], "n_dry": 2, "n_obs": 5, "tile_res_reason": "far outside the survey's reach", "shore_m": 68.5, "reach_m": 560.0}}, {"type": "Feature", "geometry": {"type": "Point", "coordinates": [-68.7897029, 45.7306812]}, "properties": {"method": "stage_exposure", "area_m2": 145.4, "res_m": 0.6, "dry_sigma": 8.13, "wet_sigma": 1.43, "rho": 0.6, "rung": 2, "dry_in": [2023, 2011], "n_dry": 2, "n_obs": 5, "tile_res_reason": "far outside the survey's reach", "shore_m": 68.5, "reach_m": 560.0}}, {"type": "Feature", "geometry": {"type": "Point", "coordinates": [-68.7901065, 45.7306003]}, "properties": {"method": "stage_exposure", "area_m2": 31.7, "res_m": 0.6, "dry_sigma": 8.47, "wet_sigma": 1.34, "rho": 0.4, "rung": 1, "dry_in": [2023], "n_dry": 1, "n_obs": 5, "tile_res_reason": "far outside the survey's reach", "shore_m": 68.5, "reach_m": 560.0}}, {"type": "Feature", "geometry": {"type": "Point", "coordinates": [-68.7898564, 45.7305793]}, "properties": {"method": "stage_exposure", "area_m2": 79.9, "res_m": 0.6, "dry_sigma": 8.17, "wet_sigma": 1.57, "rho": 0.6, "rung": 2, "dry_in": [2023, 2011], "n_dry": 2, "n_obs": 5, "tile_res_reason": "far outside the survey's reach", "shore_m": 68.5, "reach_m": 560.0}}, {"type": "Feature", "geometry": {"type": "Point", "coordinates": [-68.7890652, 45.7305682]}, "properties": {"method": "stage_exposure", "area_m2": 191.2, "res_m": 0.6, "dry_sigma": 8.23, "wet_sigma": 1.94, "rho": 0.6, "rung": 1, "dry_in": [2023], "n_dry": 1, "n_obs": 5, "tile_res_reason": "far outside the survey's reach", "shore_m": 68.5, "reach_m": 560.0}}, {"type": "Feature", "geometry": {"type": "Point", "coordinates": [-68.7894014, 45.7305909]}, "properties": {"method": "stage_exposure", "area_m2": 305.6, "res_m": 0.6, "dry_sigma": 7.9, "wet_sigma": 1.36, "rho": 0.7, "rung": 2, "dry_in": [2023, 2011], "n_dry": 2, "n_obs": 5, "tile_res_reason": "far outside the survey's reach", "shore_m": 68.5, "reach_m": 560.0}}, {"type": "Feature", "geometry": {"type": "Point", "coordinates": [-68.7889037, 45.7335918]}, "properties": {"method": "stage_exposure", "area_m2": 12.2, "res_m": 0.6, "dry_sigma": 9.18, "wet_sigma": 1.74, "rho": 0.7, "rung": 1, "dry_in": [2023], "n_dry": 1, "n_obs": 5, "tile_res_reason": "far outside the survey's reach", "shore_m": 58.3, "reach_m": 576.0}}, {"type": "Feature", "geometry": {"type": "Point", "coordinates": [-68.7889563, 45.7335615]}, "properties": {"method": "stage_exposure", "area_m2": 9.0, "res_m": 0.6, "dry_sigma": 9.25, "wet_sigma": 1.71, "rho": 0.8, "rung": 1, "dry_in": [2023], "n_dry": 1, "n_obs": 5, "tile_res_reason": "far outside the survey's reach", "shore_m": 58.3, "reach_m": 576.0}}, {"type": "Feature", "geometry": {"type": "Point", "coordinates": [-68.7890284, 45.7335268]}, "properties": {"method": "stage_exposure", "area_m2": 9.4, "res_m": 0.6, "dry_sigma": 9.17, "wet_sigma": 1.92, "rho": 0.5, "rung": 1, "dry_in": [2023], "n_dry": 1, "n_obs": 5, "tile_res_reason": "far outside the survey's reach", "shore_m": 58.3, "reach_m": 576.0}}, {"type": "Feature", "geometry": {"type": "Point", "coordinates": [-68.7891325, 45.7334737]}, "properties": {"method": "stage_exposure", "area_m2": 5.4, "res_m": 0.6, "dry_sigma": 8.9, "wet_sigma": 0.64, "rho": 0.3, "rung": 1, "dry_in": [2023], "n_dry": 1, "n_obs": 5, "tile_res_reason": "far outside the survey's reach", "shore_m": 58.3, "reach_m": 576.0}}, {"type": "Feature", "geometry": {"type": "Point", "coordinates": [-68.7892419, 45.7334389]}, "properties": {"method": "stage_exposure", "area_m2": 9.7, "res_m": 0.6, "dry_sigma": 9.19, "wet_sigma": 0.55, "rho": 0.3, "rung": 1, "dry_in": [2023], "n_dry": 1, "n_obs": 5, "tile_res_reason": "far outside the survey's reach", "shore_m": 58.3, "reach_m": 576.0}}, {"type": "Feature", "geometry": {"type": "Point", "coordinates": [-68.7894567, 45.7333417]}, "properties": {"method": "stage_exposure", "area_m2": 31.0, "res_m": 0.6, "dry_sigma": 9.6, "wet_sigma": 0.36, "rho": 0.3, "rung": 1, "dry_in": [2023], "n_dry": 1, "n_obs": 5, "tile_res_reason": "far outside the survey's reach", "shore_m": 58.3, "reach_m": 576.0}}, {"type": "Feature", "geometry": {"type": "Point", "coordinates": [-68.8269648, 45.7276611]}, "properties": {"method": "stage_exposure", "area_m2": 4.3, "res_m": 0.6, "dry_sigma": 13.95, "wet_sigma": 0.76, "rho": 0.4, "rung": 1, "dry_in": [2023], "n_dry": 1, "n_obs": 5, "tile_res_reason": "far outside the survey's reach", "shore_m": 41.8, "reach_m": 512.0}}, {"type": "Feature", "geometry": {"type": "Point", "coordinates": [-68.746194, 45.7626509]}, "properties": {"method": "stage_exposure", "area_m2": 19.4, "res_m": 0.6, "dry_sigma": 14.66, "wet_sigma": 1.15, "rho": 0.1, "rung": 1, "dry_in": [2023], "n_dry": 1, "n_obs": 5, "tile_res_reason": "far outside the survey's reach", "shore_m": 30.0, "reach_m": 576.0}}, {"type": "Feature", "geometry": {"type": "Point", "coordinates": [-68.7459512, 45.7621831]}, "properties": {"method": "stage_exposure", "area_m2": 9.4, "res_m": 0.6, "dry_sigma": 16.25, "wet_sigma": 1.84, "rho": 0.1, "rung": 1, "dry_in": [2023], "n_dry": 1, "n_obs": 5, "tile_res_reason": "far outside the survey's reach", "shore_m": 30.0, "reach_m": 576.0}}, {"type": "Feature", "geometry": {"type": "Point", "coordinates": [-68.7453394, 45.7615348]}, "properties": {"method": "stage_exposure", "area_m2": 5.4, "res_m": 0.6, "dry_sigma": 13.23, "wet_sigma": 0.84, "rho": 0.4, "rung": 1, "dry_in": [2023], "n_dry": 1, "n_obs": 5, "tile_res_reason": "far outside the survey's reach", "shore_m": 30.0, "reach_m": 576.0}}, {"type": "Feature", "geometry": {"type": "Point", "coordinates": [-68.8137667, 45.7274621]}, "properties": {"method": "stage_exposure", "area_m2": 6.1, "res_m": 0.6, "dry_sigma": 6.09, "wet_sigma": 0.52, "rho": 0.3, "rung": 1, "dry_in": [2023], "n_dry": 1, "n_obs": 5, "tile_res_reason": "far outside the survey's reach", "shore_m": 41.2, "reach_m": 568.0}}, {"type": "Feature", "geometry": {"type": "Point", "coordinates": [-68.8206199, 45.7270171]}, "properties": {"method": "stage_exposure", "area_m2": 13.3, "res_m": 0.6, "dry_sigma": 7.36, "wet_sigma": 1.49, "rho": 0.3, "rung": 1, "dry_in": [2023], "n_dry": 1, "n_obs": 5, "tile_res_reason": "far outside the survey's reach", "shore_m": 22.4, "reach_m": 736.0}}, {"type": "Feature", "geometry": {"type": "Point", "coordinates": [-68.8203875, 45.7267558]}, "properties": {"method": "stage_exposure", "area_m2": 10.4, "res_m": 0.6, "dry_sigma": 7.14, "wet_sigma": 1.71, "rho": 0.5, "rung": 1, "dry_in": [2023], "n_dry": 1, "n_obs": 5, "tile_res_reason": "far outside the survey's reach", "shore_m": 22.4, "reach_m": 736.0}}, {"type": "Feature", "geometry": {"type": "Point", "coordinates": [-68.8201314, 45.7265678]}, "properties": {"method": "stage_exposure", "area_m2": 19.4, "res_m": 0.6, "dry_sigma": 8.01, "wet_sigma": 0.85, "rho": 0.1, "rung": 1, "dry_in": [2023], "n_dry": 1, "n_obs": 5, "tile_res_reason": "far outside the survey's reach", "shore_m": 22.4, "reach_m": 736.0}}, {"type": "Feature", "geometry": {"type": "Point", "coordinates": [-68.8200522, 45.7263927]}, "properties": {"method": "stage_exposure", "area_m2": 13.7, "res_m": 0.6, "dry_sigma": 7.79, "wet_sigma": 1.88, "rho": 0.3, "rung": 1, "dry_in": [2023], "n_dry": 1, "n_obs": 5, "tile_res_reason": "far outside the survey's reach", "shore_m": 22.4, "reach_m": 736.0}}, {"type": "Feature", "geometry": {"type": "Point", "coordinates": [-68.8199452, 45.7261274]}, "properties": {"method": "stage_exposure", "area_m2": 5.8, "res_m": 0.6, "dry_sigma": 7.78, "wet_sigma": 1.71, "rho": 0.3, "rung": 1, "dry_in": [2023], "n_dry": 1, "n_obs": 5, "tile_res_reason": "far outside the survey's reach", "shore_m": 22.4, "reach_m": 736.0}}, {"type": "Feature", "geometry": {"type": "Point", "coordinates": [-68.8172944, 45.7286778]}, "properties": {"method": "stage_exposure", "area_m2": 7.9, "res_m": 0.6, "dry_sigma": 14.09, "wet_sigma": 1.63, "rho": 0.3, "rung": 1, "dry_in": [2023], "n_dry": 1, "n_obs": 5, "tile_res_reason": "far outside the survey's reach", "shore_m": 28.3, "reach_m": 528.0}}, {"type": "Feature", "geometry": {"type": "Point", "coordinates": [-68.817542, 45.7283621]}, "properties": {"method": "stage_exposure", "area_m2": 6.1, "res_m": 0.6, "dry_sigma": 13.92, "wet_sigma": 2.4, "rho": 0.3, "rung": 1, "dry_in": [2023], "n_dry": 1, "n_obs": 5, "tile_res_reason": "far outside the survey's reach", "shore_m": 28.3, "reach_m": 528.0}}, {"type": "Feature", "geometry": {"type": "Point", "coordinates": [-68.7872115, 45.7328685]}, "properties": {"method": "stage_exposure", "area_m2": 10.4, "res_m": 0.6, "dry_sigma": 6.53, "wet_sigma": 2.75, "rho": 1.0, "rung": 2, "dry_in": [2023, 2011], "n_dry": 2, "n_obs": 5, "tile_res_reason": "far outside the survey's reach", "shore_m": 28.3, "reach_m": 696.0}}, {"type": "Feature", "geometry": {"type": "Point", "coordinates": [-68.7871915, 45.7327744]}, "properties": {"method": "stage_exposure", "area_m2": 5.0, "res_m": 0.6, "dry_sigma": 6.63, "wet_sigma": 2.84, "rho": 1.0, "rung": 1, "dry_in": [2023], "n_dry": 1, "n_obs": 5, "tile_res_reason": "far outside the survey's reach", "shore_m": 28.3, "reach_m": 696.0}}, {"type": "Feature", "geometry": {"type": "Point", "coordinates": [-68.7870657, 45.7327381]}, "properties": {"method": "stage_exposure", "area_m2": 4.3, "res_m": 0.6, "dry_sigma": 6.24, "wet_sigma": 2.67, "rho": 1.0, "rung": 2, "dry_in": [2023, 2011], "n_dry": 2, "n_obs": 5, "tile_res_reason": "far outside the survey's reach", "shore_m": 28.3, "reach_m": 696.0}}, {"type": "Feature", "geometry": {"type": "Point", "coordinates": [-68.7870614, 45.7326892]}, "properties": {"method": "stage_exposure", "area_m2": 6.1, "res_m": 0.6, "dry_sigma": 6.16, "wet_sigma": 2.5, "rho": 1.0, "rung": 2, "dry_in": [2023, 2011], "n_dry": 2, "n_obs": 5, "tile_res_reason": "far outside the survey's reach", "shore_m": 28.3, "reach_m": 696.0}}, {"type": "Feature", "geometry": {"type": "Point", "coordinates": [-68.7870474, 45.7326413]}, "properties": {"method": "stage_exposure", "area_m2": 7.2, "res_m": 0.6, "dry_sigma": 6.23, "wet_sigma": 2.73, "rho": 1.0, "rung": 2, "dry_in": [2023, 2011], "n_dry": 2, "n_obs": 5, "tile_res_reason": "far outside the survey's reach", "shore_m": 28.3, "reach_m": 696.0}}, {"type": "Feature", "geometry": {"type": "Point", "coordinates": [-68.7873005, 45.7325748]}, "properties": {"method": "stage_exposure", "area_m2": 4.7, "res_m": 0.6, "dry_sigma": 6.41, "wet_sigma": 1.33, "rho": 0.7, "rung": 1, "dry_in": [2023], "n_dry": 1, "n_obs": 5, "tile_res_reason": "far outside the survey's reach", "shore_m": 28.3, "reach_m": 696.0}}, {"type": "Feature", "geometry": {"type": "Point", "coordinates": [-68.7873407, 45.7325535]}, "properties": {"method": "stage_exposure", "area_m2": 6.8, "res_m": 0.6, "dry_sigma": 6.48, "wet_sigma": 1.42, "rho": 0.9, "rung": 1, "dry_in": [2023], "n_dry": 1, "n_obs": 5, "tile_res_reason": "far outside the survey's reach", "shore_m": 28.3, "reach_m": 696.0}}, {"type": "Feature", "geometry": {"type": "Point", "coordinates": [-68.7872074, 45.732522]}, "properties": {"method": "stage_exposure", "area_m2": 29.2, "res_m": 0.6, "dry_sigma": 6.7, "wet_sigma": 2.17, "rho": 0.9, "rung": 1, "dry_in": [2023], "n_dry": 1, "n_obs": 5, "tile_res_reason": "far outside the survey's reach", "shore_m": 28.3, "reach_m": 696.0}}, {"type": "Feature", "geometry": {"type": "Point", "coordinates": [-68.7871142, 45.7324415]}, "properties": {"method": "stage_exposure", "area_m2": 4.7, "res_m": 0.6, "dry_sigma": 6.13, "wet_sigma": 2.72, "rho": 1.0, "rung": 2, "dry_in": [2023, 2011], "n_dry": 2, "n_obs": 5, "tile_res_reason": "far outside the survey's reach", "shore_m": 28.3, "reach_m": 696.0}}, {"type": "Feature", "geometry": {"type": "Point", "coordinates": [-68.7871595, 45.7323682]}, "properties": {"method": "stage_exposure", "area_m2": 7.2, "res_m": 0.6, "dry_sigma": 6.15, "wet_sigma": 2.67, "rho": 1.0, "rung": 2, "dry_in": [2023, 2011], "n_dry": 2, "n_obs": 5, "tile_res_reason": "far outside the survey's reach", "shore_m": 28.3, "reach_m": 696.0}}, {"type": "Feature", "geometry": {"type": "Point", "coordinates": [-68.8302708, 45.729693]}, "properties": {"method": "stage_exposure", "area_m2": 8.0, "res_m": 1.0, "dry_sigma": 12.48, "wet_sigma": 1.95, "rho": 0.3, "rung": 1, "dry_in": [2023], "n_dry": 1, "n_obs": 5, "tile_res_reason": "near the mainland shore", "shore_m": 40.0, "reach_m": 328.0}}, {"type": "Feature", "geometry": {"type": "Point", "coordinates": [-68.830295, 45.7296548]}, "properties": {"method": "stage_exposure", "area_m2": 4.0, "res_m": 1.0, "dry_sigma": 11.78, "wet_sigma": 2.16, "rho": 0.3, "rung": 1, "dry_in": [2023], "n_dry": 1, "n_obs": 5, "tile_res_reason": "near the mainland shore", "shore_m": 40.0, "reach_m": 328.0}}]}