{"type": "FeatureCollection", "properties": {"method": "lake-stage exposure", "shuffled_seed": null, "flights": {"2011": "2011-08-17", "2013": "2013-08-22", "2018": "2018-07-20", "2021": "2021-08-16", "2023": "2023-09-01"}, "stage_rank": {"2011": 0.7695, "2013": 0.9297, "2018": 1.0, "2021": 0.0, "2023": 0.174}, "dry_sigma_min": 6.0, "wet_sigma_max": 3.0, "min_flights": 5, "note": "rung is how many of the lowest-water flights the feature stood dry in; depth is a rank, not a distance, until the stage ladder is anchored to elevations", "stats": {"enough_px": 6097446, "monotone_pass": 1502, "dry_pass": 16083, "wet_pass": 6068634, "cand_px": 147, "tiles_scored": 41, "blob_size_rejected": 63, "blobs": 1}}, "features": [{"type": "Feature", "geometry": {"type": "Point", "coordinates": [-68.8201291, 45.7265885]}, "properties": {"method": "stage_exposure", "area_m2": 6.8, "res_m": 0.6, "dry_sigma": 6.37, "wet_sigma": 1.75, "rho": 0.3, "rung": 2, "dry_in": [2021, 2023], "n_dry": 2, "n_obs": 5, "tile_res_reason": "far outside the survey's reach", "shore_m": 22.4, "reach_m": 736.0}}]}