{"type": "FeatureCollection", "features": [{"type": "Feature", "properties": {"lon": -68.82616971724138, "lat": 45.7284671862069, "kind": "reef", "seamark": false, "source": "osm"}, "geometry": {"type": "Point", "coordinates": [-68.82616971724138, 45.7284671862069]}}, {"type": "Feature", "properties": {"lon": -68.81586431428572, "lat": 45.73032608214286, "kind": "reef", "seamark": false, "source": "osm"}, "geometry": {"type": "Point", "coordinates": [-68.81586431428572, 45.73032608214286]}}, {"type": "Feature", "properties": {"lon": -68.81613531904762, "lat": 45.73110942380953, "kind": "reef", "seamark": false, "source": "osm"}, "geometry": {"type": "Point", "coordinates": [-68.81613531904762, 45.73110942380953]}}, {"type": "Feature", "properties": {"lon": -68.81440726666666, "lat": 45.73159570833334, "kind": "bare_rock", "seamark": false, "source": "osm"}, "geometry": {"type": "Point", "coordinates": [-68.81440726666666, 45.73159570833334]}}, {"type": "Feature", "properties": {"lon": -68.81807079285714, "lat": 45.72809912857143, "kind": "reef", "seamark": false, "source": "osm"}, "geometry": {"type": "Point", "coordinates": [-68.81807079285714, 45.72809912857143]}}, {"type": "Feature", "properties": {"lon": -68.8136737090909, "lat": 45.72996037272728, "kind": "bare_rock", "seamark": false, "source": "osm"}, "geometry": {"type": "Point", "coordinates": [-68.8136737090909, 45.72996037272728]}}, {"type": "Feature", "properties": {"lon": -68.81358643, "lat": 45.72995772, "kind": "bare_rock", "seamark": false, "source": "osm"}, "geometry": {"type": "Point", "coordinates": [-68.81358643, 45.72995772]}}, {"type": "Feature", "properties": {"lon": -68.81492275833334, "lat": 45.72626436944444, "kind": "bare_rock", "seamark": false, "source": "osm"}, "geometry": {"type": "Point", "coordinates": [-68.81492275833334, 45.72626436944444]}}, {"type": "Feature", "properties": {"lon": -68.81318102499999, "lat": 45.729645516666665, "kind": "bare_rock", "seamark": false, "source": "osm"}, "geometry": {"type": "Point", "coordinates": [-68.81318102499999, 45.729645516666665]}}, {"type": "Feature", "properties": {"lon": -68.8132074, "lat": 45.72952402, "kind": "bare_rock", "seamark": false, "source": "osm"}, "geometry": {"type": "Point", "coordinates": [-68.8132074, 45.72952402]}}, {"type": "Feature", "properties": {"lon": -68.8131594375, "lat": 45.7295869, "kind": "bare_rock", "seamark": false, "source": "osm"}, "geometry": {"type": "Point", "coordinates": [-68.8131594375, 45.7295869]}}, {"type": "Feature", "properties": {"lon": -68.81310147272728, "lat": 45.72953518181818, "kind": "bare_rock", "seamark": false, "source": "osm"}, "geometry": {"type": "Point", "coordinates": [-68.81310147272728, 45.72953518181818]}}, {"type": "Feature", "properties": {"lon": -68.8132700875, "lat": 45.7296107, "kind": "bare_rock", "seamark": false, "source": "osm"}, "geometry": {"type": "Point", "coordinates": [-68.8132700875, 45.7296107]}}, {"type": "Feature", "properties": {"lon": -68.82765837777778, "lat": 45.727677199999995, "kind": "bare_rock", "seamark": false, "source": "osm"}, "geometry": {"type": "Point", "coordinates": [-68.82765837777778, 45.727677199999995]}}, {"type": "Feature", "properties": {"lon": -68.82876660153846, "lat": 45.729073926153845, "kind": "reef", "seamark": false, "source": "osm"}, "geometry": {"type": "Point", "coordinates": [-68.82876660153846, 45.729073926153845]}}, {"type": "Feature", "properties": {"lon": -68.82840483749999, "lat": 45.7297843875, "kind": "bare_rock", "seamark": false, "source": "osm"}, "geometry": {"type": "Point", "coordinates": [-68.82840483749999, 45.7297843875]}}, {"type": "Feature", "properties": {"lon": -68.82972603333333, "lat": 45.7324141, "kind": "bare_rock", "seamark": false, "source": "osm"}, "geometry": {"type": "Point", "coordinates": [-68.82972603333333, 45.7324141]}}, {"type": "Feature", "properties": {"lon": -68.82993754166667, "lat": 45.73245977222222, "kind": "reef", "seamark": false, "source": "osm"}, "geometry": {"type": "Point", "coordinates": [-68.82993754166667, 45.73245977222222]}}, {"type": "Feature", "properties": {"lon": -68.82441475, "lat": 45.731265315625, "kind": "reef", "seamark": false, "source": "osm"}, "geometry": {"type": "Point", "coordinates": [-68.82441475, 45.731265315625]}}, {"type": "Feature", "properties": {"lon": -68.82043781578948, "lat": 45.73228488421052, "kind": "reef", "seamark": false, "source": "osm"}, "geometry": {"type": "Point", "coordinates": [-68.82043781578948, 45.73228488421052]}}, {"type": "Feature", "properties": {"lon": -68.81967224210526, "lat": 45.728410763157896, "kind": "reef", "seamark": false, "source": "osm"}, "geometry": {"type": "Point", "coordinates": [-68.81967224210526, 45.728410763157896]}}, {"type": "Feature", "properties": {"lon": -68.81966955, "lat": 45.72933651428571, "kind": "reef", "seamark": false, "source": "osm"}, "geometry": {"type": "Point", "coordinates": [-68.81966955, 45.72933651428571]}}, {"type": "Feature", "properties": {"lon": -68.78723608367346, "lat": 45.73256121632654, "kind": "reef", "seamark": true, "source": "osm"}, "geometry": {"type": "Point", "coordinates": [-68.78723608367346, 45.73256121632654]}}, {"type": "Feature", "properties": {"lon": -68.78869033703704, "lat": 45.733813966666666, "kind": "reef", "seamark": true, "source": "osm"}, "geometry": {"type": "Point", "coordinates": [-68.78869033703704, 45.733813966666666]}}, {"type": "Feature", "properties": {"lon": -68.82007802307693, "lat": 45.72580187692308, "kind": "bare_rock", "seamark": false, "source": "osm"}, "geometry": {"type": "Point", "coordinates": [-68.82007802307693, 45.72580187692308]}}, {"type": "Feature", "properties": {"lon": -68.74419011, "lat": 45.76093934, "kind": "bare_rock", "seamark": false, "source": "osm"}, "geometry": {"type": "Point", "coordinates": [-68.74419011, 45.76093934]}}, {"type": "Feature", "properties": {"lon": -68.7436665375, "lat": 45.761067425, "kind": "bare_rock", "seamark": false, "source": "osm"}, "geometry": {"type": "Point", "coordinates": [-68.7436665375, 45.761067425]}}, {"type": "Feature", "properties": {"lon": -68.7444088, "lat": 45.760738044444444, "kind": "bare_rock", "seamark": false, "source": "osm"}, "geometry": {"type": "Point", "coordinates": [-68.7444088, 45.760738044444444]}}, {"type": "Feature", "properties": {"lon": -68.74399745555556, "lat": 45.76095358888889, "kind": "bare_rock", "seamark": false, "source": "osm"}, "geometry": {"type": "Point", "coordinates": [-68.74399745555556, 45.76095358888889]}}, {"type": "Feature", "properties": {"lon": -68.74367117, "lat": 45.760372059999995, "kind": "bare_rock", "seamark": false, "source": "osm"}, "geometry": {"type": "Point", "coordinates": [-68.74367117, 45.760372059999995]}}, {"type": "Feature", "properties": {"lon": -68.74307004666666, "lat": 45.76061826666667, "kind": "bare_rock", "seamark": false, "source": "osm"}, "geometry": {"type": "Point", "coordinates": [-68.74307004666666, 45.76061826666667]}}, {"type": "Feature", "properties": {"lon": -68.81783436666666, "lat": 45.750089848888884, "kind": "reef", "seamark": false, "source": "osm"}, "geometry": {"type": "Point", "coordinates": [-68.81783436666666, 45.750089848888884]}}]}