{"type": "FeatureCollection", "features": [{"type": "Feature", "properties": {"depth_ft": 20.0, "surface_elevation_ft": "0", "data_source": "depthmap: meifw"}, "geometry": {"type": "Point", "coordinates": [-68.814202, 45.732614]}}, {"type": "Feature", "properties": {"depth_ft": 10.0, "surface_elevation_ft": "0", "data_source": "depthmap: meifw"}, "geometry": {"type": "Point", "coordinates": [-68.81575, 45.737579]}}, {"type": "Feature", "properties": {"depth_ft": 10.0, "surface_elevation_ft": "0", "data_source": "depthmap: meifw"}, "geometry": {"type": "Point", "coordinates": [-68.795412, 45.737029]}}, {"type": "Feature", "properties": {"depth_ft": 35.0, "surface_elevation_ft": "0", "data_source": "depthmap: meifw"}, "geometry": {"type": "Point", "coordinates": [-68.793079, 45.74566]}}, {"type": "Feature", "properties": {"depth_ft": 18.0, "surface_elevation_ft": "0", "data_source": "depthmap: meifw"}, "geometry": {"type": "Point", "coordinates": [-68.796742, 45.750887]}}, {"type": "Feature", "properties": {"depth_ft": 31.0, "surface_elevation_ft": "0", "data_source": "depthmap: meifw"}, "geometry": {"type": "Point", "coordinates": [-68.787883, 45.756542]}}, {"type": "Feature", "properties": {"depth_ft": 30.0, "surface_elevation_ft": "0", "data_source": "depthmap: meifw"}, "geometry": {"type": "Point", "coordinates": [-68.785029, 45.756473]}}, {"type": "Feature", "properties": {"depth_ft": 32.0, "surface_elevation_ft": "0", "data_source": "depthmap: meifw"}, "geometry": {"type": "Point", "coordinates": [-68.782083, 45.756403]}}, {"type": "Feature", "properties": {"depth_ft": 38.0, "surface_elevation_ft": "0", "data_source": "depthmap: meifw"}, "geometry": {"type": "Point", "coordinates": [-68.769192, 45.756828]}}, {"type": "Feature", "properties": {"depth_ft": 30.0, "surface_elevation_ft": "0", "data_source": "depthmap: meifw"}, "geometry": {"type": "Point", "coordinates": [-68.775621, 45.760901]}}, {"type": "Feature", "properties": {"depth_ft": 34.0, "surface_elevation_ft": "0", "data_source": "depthmap: meifw"}, "geometry": {"type": "Point", "coordinates": [-68.788973, 45.760476]}}, {"type": "Feature", "properties": {"depth_ft": 44.0, "surface_elevation_ft": "0", "data_source": "depthmap: meifw"}, "geometry": {"type": "Point", "coordinates": [-68.799103, 45.760107]}}, {"type": "Feature", "properties": {"depth_ft": 44.0, "surface_elevation_ft": "0", "data_source": "depthmap: meifw"}, "geometry": {"type": "Point", "coordinates": [-68.810797, 45.759869]}}, {"type": "Feature", "properties": {"depth_ft": 36.0, "surface_elevation_ft": "0", "data_source": "depthmap: meifw"}, "geometry": {"type": "Point", "coordinates": [-68.814296, 45.759617]}}, {"type": "Feature", "properties": {"depth_ft": 8.0, "surface_elevation_ft": "0", "data_source": "depthmap: meifw"}, "geometry": {"type": "Point", "coordinates": [-68.824424, 45.759569]}}, {"type": "Feature", "properties": {"depth_ft": 8.0, "surface_elevation_ft": "0", "data_source": "depthmap: meifw"}, "geometry": {"type": "Point", "coordinates": [-68.753678, 45.767462]}}, {"type": "Feature", "properties": {"depth_ft": 34.0, "surface_elevation_ft": "0", "data_source": "depthmap: meifw"}, "geometry": {"type": "Point", "coordinates": [-68.79446, 45.770636]}}, {"type": "Feature", "properties": {"depth_ft": 5.0, "surface_elevation_ft": "0", "data_source": "depthmap: meifw"}, "geometry": {"type": "Point", "coordinates": [-68.838207, 45.769224]}}, {"type": "Feature", "properties": {"depth_ft": 2.0, "surface_elevation_ft": "0", "data_source": "depthmap: meifw"}, "geometry": {"type": "Point", "coordinates": [-68.829162, 45.775849]}}, {"type": "Feature", "properties": {"depth_ft": 24.0, "surface_elevation_ft": "0", "data_source": "depthmap: meifw"}, "geometry": {"type": "Point", "coordinates": [-68.791398, 45.776882]}}, {"type": "Feature", "properties": {"depth_ft": 12.0, "surface_elevation_ft": "0", "data_source": "depthmap: meifw"}, "geometry": {"type": "Point", "coordinates": [-68.756564, 45.781517]}}, {"type": "Feature", "properties": {"depth_ft": 48.0, "surface_elevation_ft": "0", "data_source": "depthmap: meifw"}, "geometry": {"type": "Point", "coordinates": [-68.812198, 45.781236]}}, {"type": "Feature", "properties": {"depth_ft": 62.0, "surface_elevation_ft": "0", "data_source": "depthmap: meifw"}, "geometry": {"type": "Point", "coordinates": [-68.819659, 45.781248]}}, {"type": "Feature", "properties": {"depth_ft": 54.0, "surface_elevation_ft": "0", "data_source": "depthmap: meifw"}, "geometry": {"type": "Point", "coordinates": [-68.818724, 45.785435]}}, {"type": "Feature", "properties": {"depth_ft": 22.0, "surface_elevation_ft": "0", "data_source": "depthmap: meifw"}, "geometry": {"type": "Point", "coordinates": [-68.784963, 45.741825]}}, {"type": "Feature", "properties": {"depth_ft": 8.0, "surface_elevation_ft": "0", "data_source": "depthmap: meifw"}, "geometry": {"type": "Point", "coordinates": [-68.787746, 45.741487]}}, {"type": "Feature", "properties": {"depth_ft": 24.0, "surface_elevation_ft": "0", "data_source": "depthmap: meifw"}, "geometry": {"type": "Point", "coordinates": [-68.804448, 45.732211]}}, {"type": "Feature", "properties": {"depth_ft": 7.0, "surface_elevation_ft": "0", "data_source": "depthmap: meifw"}, "geometry": {"type": "Point", "coordinates": [-68.82043, 45.742033]}}, {"type": "Feature", "properties": {"depth_ft": 7.0, "surface_elevation_ft": "0", "data_source": "depthmap: meifw"}, "geometry": {"type": "Point", "coordinates": [-68.817024, 45.742157]}}, {"type": "Feature", "properties": {"depth_ft": 20.0, "surface_elevation_ft": "0", "data_source": "depthmap: meifw"}, "geometry": {"type": "Point", "coordinates": [-68.807728, 45.741884]}}, {"type": "Feature", "properties": {"depth_ft": 20.0, "surface_elevation_ft": "0", "data_source": "depthmap: meifw"}, "geometry": {"type": "Point", "coordinates": [-68.813974, 45.745825]}}, {"type": "Feature", "properties": {"depth_ft": 21.0, "surface_elevation_ft": "0", "data_source": "depthmap: meifw"}, "geometry": {"type": "Point", "coordinates": [-68.811581, 45.745692]}}, {"type": "Feature", "properties": {"depth_ft": 16.0, "surface_elevation_ft": "0", "data_source": "depthmap: meifw"}, "geometry": {"type": "Point", "coordinates": [-68.806242, 45.745683]}}, {"type": "Feature", "properties": {"depth_ft": 6.0, "surface_elevation_ft": "0", "data_source": "depthmap: meifw"}, "geometry": {"type": "Point", "coordinates": [-68.804033, 45.745744]}}, {"type": "Feature", "properties": {"depth_ft": 20.0, "surface_elevation_ft": "0", "data_source": "depthmap: meifw"}, "geometry": {"type": "Point", "coordinates": [-68.801087, 45.745674]}}, {"type": "Feature", "properties": {"depth_ft": 28.0, "surface_elevation_ft": "0", "data_source": "depthmap: meifw"}, "geometry": {"type": "Point", "coordinates": [-68.80917, 45.750844]}}, {"type": "Feature", "properties": {"depth_ft": 20.0, "surface_elevation_ft": "0", "data_source": "depthmap: meifw"}, "geometry": {"type": "Point", "coordinates": [-68.803831, 45.750899]}}, {"type": "Feature", "properties": {"depth_ft": 35.0, "surface_elevation_ft": "0", "data_source": "depthmap: meifw"}, "geometry": {"type": "Point", "coordinates": [-68.791493, 45.751393]}}, {"type": "Feature", "properties": {"depth_ft": 28.0, "surface_elevation_ft": "0", "data_source": "depthmap: meifw"}, "geometry": {"type": "Point", "coordinates": [-68.78689, 45.751256]}}, {"type": "Feature", "properties": {"depth_ft": 14.0, "surface_elevation_ft": "0", "data_source": "depthmap: meifw"}, "geometry": {"type": "Point", "coordinates": [-68.773632, 45.751746]}}, {"type": "Feature", "properties": {"depth_ft": 3.0, "surface_elevation_ft": "0", "data_source": "depthmap: meifw"}, "geometry": {"type": "Point", "coordinates": [-68.769029, 45.751866]}}, {"type": "Feature", "properties": {"depth_ft": 41.0, "surface_elevation_ft": "0", "data_source": "depthmap: meifw"}, "geometry": {"type": "Point", "coordinates": [-68.812928, 45.755813]}}, {"type": "Feature", "properties": {"depth_ft": 16.0, "surface_elevation_ft": "0", "data_source": "depthmap: meifw"}, "geometry": {"type": "Point", "coordinates": [-68.754736, 45.757185]}}, {"type": "Feature", "properties": {"depth_ft": 6.0, "surface_elevation_ft": "0", "data_source": "depthmap: meifw"}, "geometry": {"type": "Point", "coordinates": [-68.739549, 45.758182]}}, {"type": "Feature", "properties": {"depth_ft": 20.0, "surface_elevation_ft": "0", "data_source": "depthmap: meifw"}, "geometry": {"type": "Point", "coordinates": [-68.763282, 45.761134]}}, {"type": "Feature", "properties": {"depth_ft": 22.0, "surface_elevation_ft": "0", "data_source": "depthmap: meifw"}, "geometry": {"type": "Point", "coordinates": [-68.786487, 45.760407]}}, {"type": "Feature", "properties": {"depth_ft": 8.0, "surface_elevation_ft": "0", "data_source": "depthmap: meifw"}, "geometry": {"type": "Point", "coordinates": [-68.829304, 45.759576]}}, {"type": "Feature", "properties": {"depth_ft": 56.0, "surface_elevation_ft": "0", "data_source": "depthmap: meifw"}, "geometry": {"type": "Point", "coordinates": [-68.80958, 45.765635]}}, {"type": "Feature", "properties": {"depth_ft": 39.0, "surface_elevation_ft": "0", "data_source": "depthmap: meifw"}, "geometry": {"type": "Point", "coordinates": [-68.804238, 45.765884]}}, {"type": "Feature", "properties": {"depth_ft": 12.0, "surface_elevation_ft": "0", "data_source": "depthmap: meifw"}, "geometry": {"type": "Point", "coordinates": [-68.761321, 45.767414]}}, {"type": "Feature", "properties": {"depth_ft": 6.0, "surface_elevation_ft": "0", "data_source": "depthmap: meifw"}, "geometry": {"type": "Point", "coordinates": [-68.758467, 45.767408]}}, {"type": "Feature", "properties": {"depth_ft": 13.0, "surface_elevation_ft": "0", "data_source": "depthmap: meifw"}, "geometry": {"type": "Point", "coordinates": [-68.751651, 45.767586]}}, {"type": "Feature", "properties": {"depth_ft": 10.0, "surface_elevation_ft": "0", "data_source": "depthmap: meifw"}, "geometry": {"type": "Point", "coordinates": [-68.767383, 45.771293]}}, {"type": "Feature", "properties": {"depth_ft": 4.0, "surface_elevation_ft": "0", "data_source": "depthmap: meifw"}, "geometry": {"type": "Point", "coordinates": [-68.777974, 45.771185]}}, {"type": "Feature", "properties": {"depth_ft": 55.0, "surface_elevation_ft": "0", "data_source": "depthmap: meifw"}, "geometry": {"type": "Point", "coordinates": [-68.799526, 45.770516]}}, {"type": "Feature", "properties": {"depth_ft": 12.0, "surface_elevation_ft": "0", "data_source": "depthmap: meifw"}, "geometry": {"type": "Point", "coordinates": [-68.827228, 45.775975]}}, {"type": "Feature", "properties": {"depth_ft": 30.0, "surface_elevation_ft": "0", "data_source": "depthmap: meifw"}, "geometry": {"type": "Point", "coordinates": [-68.801622, 45.776642]}}, {"type": "Feature", "properties": {"depth_ft": 45.0, "surface_elevation_ft": "0", "data_source": "depthmap: meifw"}, "geometry": {"type": "Point", "coordinates": [-68.80925, 45.781553]}}, {"type": "Feature", "properties": {"depth_ft": 66.0, "surface_elevation_ft": "0", "data_source": "depthmap: meifw"}, "geometry": {"type": "Point", "coordinates": [-68.817172, 45.781244]}}, {"type": "Feature", "properties": {"depth_ft": 10.0, "surface_elevation_ft": "0", "data_source": "depthmap: meifw"}, "geometry": {"type": "Point", "coordinates": [-68.808222, 45.785676]}}, {"type": "Feature", "properties": {"depth_ft": 22.0, "surface_elevation_ft": "0", "data_source": "depthmap: meifw"}, "geometry": {"type": "Point", "coordinates": [-68.806011, 45.785866]}}, {"type": "Feature", "properties": {"depth_ft": 6.0, "surface_elevation_ft": "0", "data_source": "depthmap: meifw"}, "geometry": {"type": "Point", "coordinates": [-68.819906, 45.73301]}}, {"type": "Feature", "properties": {"depth_ft": 14.0, "surface_elevation_ft": "0", "data_source": "depthmap: meifw"}, "geometry": {"type": "Point", "coordinates": [-68.799847, 45.732074]}}, {"type": "Feature", "properties": {"depth_ft": 20.0, "surface_elevation_ft": "0", "data_source": "depthmap: meifw"}, "geometry": {"type": "Point", "coordinates": [-68.818327, 45.737583]}}, {"type": "Feature", "properties": {"depth_ft": 22.0, "surface_elevation_ft": "0", "data_source": "depthmap: meifw"}, "geometry": {"type": "Point", "coordinates": [-68.800105, 45.737166]}}, {"type": "Feature", "properties": {"depth_ft": 26.0, "surface_elevation_ft": "0", "data_source": "depthmap: meifw"}, "geometry": {"type": "Point", "coordinates": [-68.799996, 45.741999]}}, {"type": "Feature", "properties": {"depth_ft": 18.0, "surface_elevation_ft": "0", "data_source": "depthmap: meifw"}, "geometry": {"type": "Point", "coordinates": [-68.816552, 45.7457]}}, {"type": "Feature", "properties": {"depth_ft": 8.0, "surface_elevation_ft": "0", "data_source": "depthmap: meifw"}, "geometry": {"type": "Point", "coordinates": [-68.816996, 45.75047]}}, {"type": "Feature", "properties": {"depth_ft": 20.0, "surface_elevation_ft": "0", "data_source": "depthmap: meifw"}, "geometry": {"type": "Point", "coordinates": [-68.814142, 45.75053]}}, {"type": "Feature", "properties": {"depth_ft": 13.0, "surface_elevation_ft": "0", "data_source": "depthmap: meifw"}, "geometry": {"type": "Point", "coordinates": [-68.801529, 45.750895]}}, {"type": "Feature", "properties": {"depth_ft": 32.0, "surface_elevation_ft": "0", "data_source": "depthmap: meifw"}, "geometry": {"type": "Point", "coordinates": [-68.771055, 45.751483]}}, {"type": "Feature", "properties": {"depth_ft": 35.0, "surface_elevation_ft": "0", "data_source": "depthmap: meifw"}, "geometry": {"type": "Point", "coordinates": [-68.815046, 45.755494]}}, {"type": "Feature", "properties": {"depth_ft": 6.0, "surface_elevation_ft": "0", "data_source": "depthmap: meifw"}, "geometry": {"type": "Point", "coordinates": [-68.75713, 45.757061]}}, {"type": "Feature", "properties": {"depth_ft": 12.0, "surface_elevation_ft": "0", "data_source": "depthmap: meifw"}, "geometry": {"type": "Point", "coordinates": [-68.736344, 45.754437]}}, {"type": "Feature", "properties": {"depth_ft": 20.0, "surface_elevation_ft": "0", "data_source": "depthmap: meifw"}, "geometry": {"type": "Point", "coordinates": [-68.827003, 45.759444]}}, {"type": "Feature", "properties": {"depth_ft": 30.0, "surface_elevation_ft": "0", "data_source": "depthmap: meifw"}, "geometry": {"type": "Point", "coordinates": [-68.786741, 45.766368]}}, {"type": "Feature", "properties": {"depth_ft": 8.0, "surface_elevation_ft": "0", "data_source": "depthmap: meifw"}, "geometry": {"type": "Point", "coordinates": [-68.784163, 45.766235]}}, {"type": "Feature", "properties": {"depth_ft": 22.0, "surface_elevation_ft": "0", "data_source": "depthmap: meifw"}, "geometry": {"type": "Point", "coordinates": [-68.766111, 45.767101]}}, {"type": "Feature", "properties": {"depth_ft": 4.0, "surface_elevation_ft": "0", "data_source": "depthmap: meifw"}, "geometry": {"type": "Point", "coordinates": [-68.749348, 45.767839]}}, {"type": "Feature", "properties": {"depth_ft": 70.0, "surface_elevation_ft": "0", "data_source": "depthmap: meifw"}, "geometry": {"type": "Point", "coordinates": [-68.804591, 45.770331]}}, {"type": "Feature", "properties": {"depth_ft": 50.0, "surface_elevation_ft": "0", "data_source": "depthmap: meifw"}, "geometry": {"type": "Point", "coordinates": [-68.812603, 45.770409]}}, {"type": "Feature", "properties": {"depth_ft": 74.0, "surface_elevation_ft": "0", "data_source": "depthmap: meifw"}, "geometry": {"type": "Point", "coordinates": [-68.816728, 45.776281]}}, {"type": "Feature", "properties": {"depth_ft": 66.0, "surface_elevation_ft": "0", "data_source": "depthmap: meifw"}, "geometry": {"type": "Point", "coordinates": [-68.813688, 45.776276]}}, {"type": "Feature", "properties": {"depth_ft": 70.0, "surface_elevation_ft": "0", "data_source": "depthmap: meifw"}, "geometry": {"type": "Point", "coordinates": [-68.808346, 45.776396]}}, {"type": "Feature", "properties": {"depth_ft": 12.0, "surface_elevation_ft": "0", "data_source": "depthmap: meifw"}, "geometry": {"type": "Point", "coordinates": [-68.801235, 45.781797]}}, {"type": "Feature", "properties": {"depth_ft": 58.0, "surface_elevation_ft": "0", "data_source": "depthmap: meifw"}, "geometry": {"type": "Point", "coordinates": [-68.814777, 45.781176]}}, {"type": "Feature", "properties": {"depth_ft": 10.0, "surface_elevation_ft": "0", "data_source": "depthmap: meifw"}, "geometry": {"type": "Point", "coordinates": [-68.825541, 45.785317]}}, {"type": "Feature", "properties": {"depth_ft": 42.0, "surface_elevation_ft": "0", "data_source": "depthmap: meifw"}, "geometry": {"type": "Point", "coordinates": [-68.813565, 45.78562]}}, {"type": "Feature", "properties": {"depth_ft": 20.0, "surface_elevation_ft": "0", "data_source": "depthmap: meifw"}, "geometry": {"type": "Point", "coordinates": [-68.817145, 45.73307]}}, {"type": "Feature", "properties": {"depth_ft": 10.0, "surface_elevation_ft": "0", "data_source": "depthmap: meifw"}, "geometry": {"type": "Point", "coordinates": [-68.809141, 45.732476]}}, {"type": "Feature", "properties": {"depth_ft": 10.0, "surface_elevation_ft": "0", "data_source": "depthmap: meifw"}, "geometry": {"type": "Point", "coordinates": [-68.807117, 45.732344]}}, {"type": "Feature", "properties": {"depth_ft": 20.0, "surface_elevation_ft": "0", "data_source": "depthmap: meifw"}, "geometry": {"type": "Point", "coordinates": [-68.796351, 45.731939]}}, {"type": "Feature", "properties": {"depth_ft": 10.0, "surface_elevation_ft": "0", "data_source": "depthmap: meifw"}, "geometry": {"type": "Point", "coordinates": [-68.820812, 45.737587]}}, {"type": "Feature", "properties": {"depth_ft": 24.0, "surface_elevation_ft": "0", "data_source": "depthmap: meifw"}, "geometry": {"type": "Point", "coordinates": [-68.813633, 45.737511]}}, {"type": "Feature", "properties": {"depth_ft": 12.0, "surface_elevation_ft": "0", "data_source": "depthmap: meifw"}, "geometry": {"type": "Point", "coordinates": [-68.814907, 45.742024]}}, {"type": "Feature", "properties": {"depth_ft": 28.0, "surface_elevation_ft": "0", "data_source": "depthmap: meifw"}, "geometry": {"type": "Point", "coordinates": [-68.802114, 45.741745]}}, {"type": "Feature", "properties": {"depth_ft": 40.0, "surface_elevation_ft": "0", "data_source": "depthmap: meifw"}, "geometry": {"type": "Point", "coordinates": [-68.795748, 45.745858]}}, {"type": "Feature", "properties": {"depth_ft": 34.0, "surface_elevation_ft": "0", "data_source": "depthmap: meifw"}, "geometry": {"type": "Point", "coordinates": [-68.791054, 45.745721]}}, {"type": "Feature", "properties": {"depth_ft": 20.0, "surface_elevation_ft": "0", "data_source": "depthmap: meifw"}, "geometry": {"type": "Point", "coordinates": [-68.786175, 45.745712]}}, {"type": "Feature", "properties": {"depth_ft": 4.0, "surface_elevation_ft": "0", "data_source": "depthmap: meifw"}, "geometry": {"type": "Point", "coordinates": [-68.781295, 45.746089]}}, {"type": "Feature", "properties": {"depth_ft": 46.0, "surface_elevation_ft": "0", "data_source": "depthmap: meifw"}, "geometry": {"type": "Point", "coordinates": [-68.794882, 45.756168]}}, {"type": "Feature", "properties": {"depth_ft": 16.0, "surface_elevation_ft": "0", "data_source": "depthmap: meifw"}, "geometry": {"type": "Point", "coordinates": [-68.740151, 45.747486]}}, {"type": "Feature", "properties": {"depth_ft": 16.0, "surface_elevation_ft": "0", "data_source": "depthmap: meifw"}, "geometry": {"type": "Point", "coordinates": [-68.758125, 45.761252]}}, {"type": "Feature", "properties": {"depth_ft": 41.0, "surface_elevation_ft": "0", "data_source": "depthmap: meifw"}, "geometry": {"type": "Point", "coordinates": [-68.819359, 45.759883]}}, {"type": "Feature", "properties": {"depth_ft": 26.0, "surface_elevation_ft": "0", "data_source": "depthmap: meifw"}, "geometry": {"type": "Point", "coordinates": [-68.827169, 45.765277]}}, {"type": "Feature", "properties": {"depth_ft": 35.0, "surface_elevation_ft": "0", "data_source": "depthmap: meifw"}, "geometry": {"type": "Point", "coordinates": [-68.817407, 45.765584]}}, {"type": "Feature", "properties": {"depth_ft": 50.0, "surface_elevation_ft": "0", "data_source": "depthmap: meifw"}, "geometry": {"type": "Point", "coordinates": [-68.806817, 45.765889]}}, {"type": "Feature", "properties": {"depth_ft": 38.0, "surface_elevation_ft": "0", "data_source": "depthmap: meifw"}, "geometry": {"type": "Point", "coordinates": [-68.793741, 45.76593]}}, {"type": "Feature", "properties": {"depth_ft": 12.0, "surface_elevation_ft": "0", "data_source": "depthmap: meifw"}, "geometry": {"type": "Point", "coordinates": [-68.771544, 45.767048]}}, {"type": "Feature", "properties": {"depth_ft": 10.0, "surface_elevation_ft": "0", "data_source": "depthmap: meifw"}, "geometry": {"type": "Point", "coordinates": [-68.755797, 45.767209]}}, {"type": "Feature", "properties": {"depth_ft": 10.0, "surface_elevation_ft": "0", "data_source": "depthmap: meifw"}, "geometry": {"type": "Point", "coordinates": [-68.762226, 45.771153]}}, {"type": "Feature", "properties": {"depth_ft": 12.0, "surface_elevation_ft": "0", "data_source": "depthmap: meifw"}, "geometry": {"type": "Point", "coordinates": [-68.764989, 45.771224]}}, {"type": "Feature", "properties": {"depth_ft": 62.0, "surface_elevation_ft": "0", "data_source": "depthmap: meifw"}, "geometry": {"type": "Point", "coordinates": [-68.802472, 45.770521]}}, {"type": "Feature", "properties": {"depth_ft": 30.0, "surface_elevation_ft": "0", "data_source": "depthmap: meifw"}, "geometry": {"type": "Point", "coordinates": [-68.820248, 45.769906]}}, {"type": "Feature", "properties": {"depth_ft": 5.0, "surface_elevation_ft": "0", "data_source": "depthmap: meifw"}, "geometry": {"type": "Point", "coordinates": [-68.83618, 45.769672]}}, {"type": "Feature", "properties": {"depth_ft": 72.0, "surface_elevation_ft": "0", "data_source": "depthmap: meifw"}, "geometry": {"type": "Point", "coordinates": [-68.811293, 45.776594]}}, {"type": "Feature", "properties": {"depth_ft": 64.0, "surface_elevation_ft": "0", "data_source": "depthmap: meifw"}, "geometry": {"type": "Point", "coordinates": [-68.806136, 45.776263]}}, {"type": "Feature", "properties": {"depth_ft": 16.0, "surface_elevation_ft": "0", "data_source": "depthmap: meifw"}, "geometry": {"type": "Point", "coordinates": [-68.796465, 45.776504]}}, {"type": "Feature", "properties": {"depth_ft": 18.0, "surface_elevation_ft": "0", "data_source": "depthmap: meifw"}, "geometry": {"type": "Point", "coordinates": [-68.793977, 45.776693]}}, {"type": "Feature", "properties": {"depth_ft": 30.0, "surface_elevation_ft": "0", "data_source": "depthmap: meifw"}, "geometry": {"type": "Point", "coordinates": [-68.789464, 45.776814]}}, {"type": "Feature", "properties": {"depth_ft": 4.0, "surface_elevation_ft": "0", "data_source": "depthmap: meifw"}, "geometry": {"type": "Point", "coordinates": [-68.796721, 45.781983]}}, {"type": "Feature", "properties": {"depth_ft": 40.0, "surface_elevation_ft": "0", "data_source": "depthmap: meifw"}, "geometry": {"type": "Point", "coordinates": [-68.804275, 45.781738]}}, {"type": "Feature", "properties": {"depth_ft": 40.0, "surface_elevation_ft": "0", "data_source": "depthmap: meifw"}, "geometry": {"type": "Point", "coordinates": [-68.820935, 45.785568]}}, {"type": "Feature", "properties": {"depth_ft": 10.0, "surface_elevation_ft": "0", "data_source": "depthmap: meifw"}, "geometry": {"type": "Point", "coordinates": [-68.832053, 45.733221]}}, {"type": "Feature", "properties": {"depth_ft": 12.0, "surface_elevation_ft": "0", "data_source": "depthmap: meifw"}, "geometry": {"type": "Point", "coordinates": [-68.829937, 45.73296]}}, {"type": "Feature", "properties": {"depth_ft": 5.0, "surface_elevation_ft": "0", "data_source": "depthmap: meifw"}, "geometry": {"type": "Point", "coordinates": [-68.828727, 45.737663]}}, {"type": "Feature", "properties": {"depth_ft": 22.0, "surface_elevation_ft": "0", "data_source": "depthmap: meifw"}, "geometry": {"type": "Point", "coordinates": [-68.823481, 45.737462]}}, {"type": "Feature", "properties": {"depth_ft": 28.0, "surface_elevation_ft": "0", "data_source": "depthmap: meifw"}, "geometry": {"type": "Point", "coordinates": [-68.805443, 45.737239]}}, {"type": "Feature", "properties": {"depth_ft": 28.0, "surface_elevation_ft": "0", "data_source": "depthmap: meifw"}, "geometry": {"type": "Point", "coordinates": [-68.802499, 45.737041]}}, {"type": "Feature", "properties": {"depth_ft": 26.0, "surface_elevation_ft": "0", "data_source": "depthmap: meifw"}, "geometry": {"type": "Point", "coordinates": [-68.804783, 45.741814]}}, {"type": "Feature", "properties": {"depth_ft": 28.0, "surface_elevation_ft": "0", "data_source": "depthmap: meifw"}, "geometry": {"type": "Point", "coordinates": [-68.795026, 45.741926]}}, {"type": "Feature", "properties": {"depth_ft": 8.0, "surface_elevation_ft": "0", "data_source": "depthmap: meifw"}, "geometry": {"type": "Point", "coordinates": [-68.821614, 45.745708]}}, {"type": "Feature", "properties": {"depth_ft": 14.0, "surface_elevation_ft": "0", "data_source": "depthmap: meifw"}, "geometry": {"type": "Point", "coordinates": [-68.788384, 45.745781]}}, {"type": "Feature", "properties": {"depth_ft": 32.0, "surface_elevation_ft": "0", "data_source": "depthmap: meifw"}, "geometry": {"type": "Point", "coordinates": [-68.794072, 45.751011]}}, {"type": "Feature", "properties": {"depth_ft": 9.0, "surface_elevation_ft": "0", "data_source": "depthmap: meifw"}, "geometry": {"type": "Point", "coordinates": [-68.789192, 45.75126]}}, {"type": "Feature", "properties": {"depth_ft": 14.0, "surface_elevation_ft": "0", "data_source": "depthmap: meifw"}, "geometry": {"type": "Point", "coordinates": [-68.779156, 45.751563]}}, {"type": "Feature", "properties": {"depth_ft": 28.0, "surface_elevation_ft": "0", "data_source": "depthmap: meifw"}, "geometry": {"type": "Point", "coordinates": [-68.776026, 45.751557]}}, {"type": "Feature", "properties": {"depth_ft": 20.0, "surface_elevation_ft": "0", "data_source": "depthmap: meifw"}, "geometry": {"type": "Point", "coordinates": [-68.767187, 45.751926]}}, {"type": "Feature", "properties": {"depth_ft": 22.0, "surface_elevation_ft": "0", "data_source": "depthmap: meifw"}, "geometry": {"type": "Point", "coordinates": [-68.778953, 45.756461]}}, {"type": "Feature", "properties": {"depth_ft": 33.0, "surface_elevation_ft": "0", "data_source": "depthmap: meifw"}, "geometry": {"type": "Point", "coordinates": [-68.762287, 45.756943]}}, {"type": "Feature", "properties": {"depth_ft": 30.0, "surface_elevation_ft": "0", "data_source": "depthmap: meifw"}, "geometry": {"type": "Point", "coordinates": [-68.770925, 45.760956]}}, {"type": "Feature", "properties": {"depth_ft": 30.0, "surface_elevation_ft": "0", "data_source": "depthmap: meifw"}, "geometry": {"type": "Point", "coordinates": [-68.773595, 45.760962]}}, {"type": "Feature", "properties": {"depth_ft": 18.0, "surface_elevation_ft": "0", "data_source": "depthmap: meifw"}, "geometry": {"type": "Point", "coordinates": [-68.784185, 45.760467]}}, {"type": "Feature", "properties": {"depth_ft": 36.0, "surface_elevation_ft": "0", "data_source": "depthmap: meifw"}, "geometry": {"type": "Point", "coordinates": [-68.79367, 45.760226]}}, {"type": "Feature", "properties": {"depth_ft": 20.0, "surface_elevation_ft": "0", "data_source": "depthmap: meifw"}, "geometry": {"type": "Point", "coordinates": [-68.816966, 45.759751]}}, {"type": "Feature", "properties": {"depth_ft": 28.0, "surface_elevation_ft": "0", "data_source": "depthmap: meifw"}, "geometry": {"type": "Point", "coordinates": [-68.824682, 45.765466]}}, {"type": "Feature", "properties": {"depth_ft": 34.0, "surface_elevation_ft": "0", "data_source": "depthmap: meifw"}, "geometry": {"type": "Point", "coordinates": [-68.796134, 45.766128]}}, {"type": "Feature", "properties": {"depth_ft": 26.0, "surface_elevation_ft": "0", "data_source": "depthmap: meifw"}, "geometry": {"type": "Point", "coordinates": [-68.78186, 45.766488]}}, {"type": "Feature", "properties": {"depth_ft": 10.0, "surface_elevation_ft": "0", "data_source": "depthmap: meifw"}, "geometry": {"type": "Point", "coordinates": [-68.778913, 45.766547]}}, {"type": "Feature", "properties": {"depth_ft": 14.0, "surface_elevation_ft": "0", "data_source": "depthmap: meifw"}, "geometry": {"type": "Point", "coordinates": [-68.771895, 45.771431]}}, {"type": "Feature", "properties": {"depth_ft": 40.0, "surface_elevation_ft": "0", "data_source": "depthmap: meifw"}, "geometry": {"type": "Point", "coordinates": [-68.789855, 45.770821]}}, {"type": "Feature", "properties": {"depth_ft": 28.0, "surface_elevation_ft": "0", "data_source": "depthmap: meifw"}, "geometry": {"type": "Point", "coordinates": [-68.825037, 45.769849]}}, {"type": "Feature", "properties": {"depth_ft": 22.0, "surface_elevation_ft": "0", "data_source": "depthmap: meifw"}, "geometry": {"type": "Point", "coordinates": [-68.82826, 45.76979]}}, {"type": "Feature", "properties": {"depth_ft": 15.0, "surface_elevation_ft": "0", "data_source": "depthmap: meifw"}, "geometry": {"type": "Point", "coordinates": [-68.833325, 45.769668]}}, {"type": "Feature", "properties": {"depth_ft": 43.0, "surface_elevation_ft": "0", "data_source": "depthmap: meifw"}, "geometry": {"type": "Point", "coordinates": [-68.806947, 45.781549]}}, {"type": "Feature", "properties": {"depth_ft": 56.0, "surface_elevation_ft": "0", "data_source": "depthmap: meifw"}, "geometry": {"type": "Point", "coordinates": [-68.822422, 45.781188]}}, {"type": "Feature", "properties": {"depth_ft": 36.0, "surface_elevation_ft": "0", "data_source": "depthmap: meifw"}, "geometry": {"type": "Point", "coordinates": [-68.816144, 45.785625]}}, {"type": "Feature", "properties": {"depth_ft": 14.0, "surface_elevation_ft": "0", "data_source": "depthmap: meifw"}, "geometry": {"type": "Point", "coordinates": [-68.8223, 45.73282]}}, {"type": "Feature", "properties": {"depth_ft": 10.0, "surface_elevation_ft": "0", "data_source": "depthmap: meifw"}, "geometry": {"type": "Point", "coordinates": [-68.82615, 45.737724]}}, {"type": "Feature", "properties": {"depth_ft": 18.0, "surface_elevation_ft": "0", "data_source": "depthmap: meifw"}, "geometry": {"type": "Point", "coordinates": [-68.809753, 45.741887]}}, {"type": "Feature", "properties": {"depth_ft": 30.0, "surface_elevation_ft": "0", "data_source": "depthmap: meifw"}, "geometry": {"type": "Point", "coordinates": [-68.797695, 45.741866]}}, {"type": "Feature", "properties": {"depth_ft": 28.0, "surface_elevation_ft": "0", "data_source": "depthmap: meifw"}, "geometry": {"type": "Point", "coordinates": [-68.792725, 45.741857]}}, {"type": "Feature", "properties": {"depth_ft": 14.0, "surface_elevation_ft": "0", "data_source": "depthmap: meifw"}, "geometry": {"type": "Point", "coordinates": [-68.798325, 45.745863]}}, {"type": "Feature", "properties": {"depth_ft": 26.0, "surface_elevation_ft": "0", "data_source": "depthmap: meifw"}, "geometry": {"type": "Point", "coordinates": [-68.811749, 45.750591]}}, {"type": "Feature", "properties": {"depth_ft": 28.0, "surface_elevation_ft": "0", "data_source": "depthmap: meifw"}, "geometry": {"type": "Point", "coordinates": [-68.798951, 45.75102]}}, {"type": "Feature", "properties": {"depth_ft": 10.0, "surface_elevation_ft": "0", "data_source": "depthmap: meifw"}, "geometry": {"type": "Point", "coordinates": [-68.78422, 45.75138]}}, {"type": "Feature", "properties": {"depth_ft": 14.0, "surface_elevation_ft": "0", "data_source": "depthmap: meifw"}, "geometry": {"type": "Point", "coordinates": [-68.820202, 45.755502]}}, {"type": "Feature", "properties": {"depth_ft": 30.0, "surface_elevation_ft": "0", "data_source": "depthmap: meifw"}, "geometry": {"type": "Point", "coordinates": [-68.817532, 45.755691]}}, {"type": "Feature", "properties": {"depth_ft": 32.0, "surface_elevation_ft": "0", "data_source": "depthmap: meifw"}, "geometry": {"type": "Point", "coordinates": [-68.81035, 45.755873]}}, {"type": "Feature", "properties": {"depth_ft": 37.0, "surface_elevation_ft": "0", "data_source": "depthmap: meifw"}, "geometry": {"type": "Point", "coordinates": [-68.80234, 45.755859]}}, {"type": "Feature", "properties": {"depth_ft": 32.0, "surface_elevation_ft": "0", "data_source": "depthmap: meifw"}, "geometry": {"type": "Point", "coordinates": [-68.790093, 45.756417]}}, {"type": "Feature", "properties": {"depth_ft": 34.0, "surface_elevation_ft": "0", "data_source": "depthmap: meifw"}, "geometry": {"type": "Point", "coordinates": [-68.776191, 45.75652]}}, {"type": "Feature", "properties": {"depth_ft": 38.0, "surface_elevation_ft": "0", "data_source": "depthmap: meifw"}, "geometry": {"type": "Point", "coordinates": [-68.766614, 45.756823]}}, {"type": "Feature", "properties": {"depth_ft": 3.0, "surface_elevation_ft": "0", "data_source": "depthmap: meifw"}, "geometry": {"type": "Point", "coordinates": [-68.760168, 45.757261]}}, {"type": "Feature", "properties": {"depth_ft": 20.0, "surface_elevation_ft": "0", "data_source": "depthmap: meifw"}, "geometry": {"type": "Point", "coordinates": [-68.750316, 45.757304]}}, {"type": "Feature", "properties": {"depth_ft": 2.0, "surface_elevation_ft": "0", "data_source": "depthmap: meifw"}, "geometry": {"type": "Point", "coordinates": [-68.766136, 45.761076]}}, {"type": "Feature", "properties": {"depth_ft": 56.0, "surface_elevation_ft": "0", "data_source": "depthmap: meifw"}, "geometry": {"type": "Point", "coordinates": [-68.801772, 45.760241]}}, {"type": "Feature", "properties": {"depth_ft": 58.0, "surface_elevation_ft": "0", "data_source": "depthmap: meifw"}, "geometry": {"type": "Point", "coordinates": [-68.806193, 45.759926]}}, {"type": "Feature", "properties": {"depth_ft": 34.0, "surface_elevation_ft": "0", "data_source": "depthmap: meifw"}, "geometry": {"type": "Point", "coordinates": [-68.821754, 45.759565]}}, {"type": "Feature", "properties": {"depth_ft": 32.0, "surface_elevation_ft": "0", "data_source": "depthmap: meifw"}, "geometry": {"type": "Point", "coordinates": [-68.819986, 45.765588]}}, {"type": "Feature", "properties": {"depth_ft": 36.0, "surface_elevation_ft": "0", "data_source": "depthmap: meifw"}, "geometry": {"type": "Point", "coordinates": [-68.814185, 45.76545]}}, {"type": "Feature", "properties": {"depth_ft": 34.0, "surface_elevation_ft": "0", "data_source": "depthmap: meifw"}, "geometry": {"type": "Point", "coordinates": [-68.798714, 45.765875]}}, {"type": "Feature", "properties": {"depth_ft": 38.0, "surface_elevation_ft": "0", "data_source": "depthmap: meifw"}, "geometry": {"type": "Point", "coordinates": [-68.789043, 45.766244]}}, {"type": "Feature", "properties": {"depth_ft": 14.0, "surface_elevation_ft": "0", "data_source": "depthmap: meifw"}, "geometry": {"type": "Point", "coordinates": [-68.773845, 45.767439]}}, {"type": "Feature", "properties": {"depth_ft": 8.0, "surface_elevation_ft": "0", "data_source": "depthmap: meifw"}, "geometry": {"type": "Point", "coordinates": [-68.769149, 45.767172]}}, {"type": "Feature", "properties": {"depth_ft": 3.0, "surface_elevation_ft": "0", "data_source": "depthmap: meifw"}, "geometry": {"type": "Point", "coordinates": [-68.770145, 45.771363]}}, {"type": "Feature", "properties": {"depth_ft": 68.0, "surface_elevation_ft": "0", "data_source": "depthmap: meifw"}, "geometry": {"type": "Point", "coordinates": [-68.810024, 45.770341]}}, {"type": "Feature", "properties": {"depth_ft": 10.0, "surface_elevation_ft": "0", "data_source": "depthmap: meifw"}, "geometry": {"type": "Point", "coordinates": [-68.822643, 45.769845]}}, {"type": "Feature", "properties": {"depth_ft": 42.0, "surface_elevation_ft": "0", "data_source": "depthmap: meifw"}, "geometry": {"type": "Point", "coordinates": [-68.824281, 45.775777]}}, {"type": "Feature", "properties": {"depth_ft": 63.0, "surface_elevation_ft": "0", "data_source": "depthmap: meifw"}, "geometry": {"type": "Point", "coordinates": [-68.821517, 45.776095]}}, {"type": "Feature", "properties": {"depth_ft": 37.0, "surface_elevation_ft": "0", "data_source": "depthmap: meifw"}, "geometry": {"type": "Point", "coordinates": [-68.798767, 45.776508]}}, {"type": "Feature", "properties": {"depth_ft": 30.0, "surface_elevation_ft": "0", "data_source": "depthmap: meifw"}, "geometry": {"type": "Point", "coordinates": [-68.786057, 45.776614]}}, {"type": "Feature", "properties": {"depth_ft": 10.0, "surface_elevation_ft": "0", "data_source": "depthmap: meifw"}, "geometry": {"type": "Point", "coordinates": [-68.757875, 45.776558]}}, {"type": "Feature", "properties": {"depth_ft": 10.0, "surface_elevation_ft": "0", "data_source": "depthmap: meifw"}, "geometry": {"type": "Point", "coordinates": [-68.747699, 45.786332]}}, {"type": "Feature", "properties": {"depth_ft": 26.0, "surface_elevation_ft": "0", "data_source": "depthmap: meifw"}, "geometry": {"type": "Point", "coordinates": [-68.825001, 45.781127]}}, {"type": "Feature", "properties": {"depth_ft": 18.0, "surface_elevation_ft": "0", "data_source": "depthmap: meifw"}, "geometry": {"type": "Point", "coordinates": [-68.829607, 45.78107]}}, {"type": "Feature", "properties": {"depth_ft": 40.0, "surface_elevation_ft": "0", "data_source": "depthmap: meifw"}, "geometry": {"type": "Point", "coordinates": [-68.823515, 45.785249]}}, {"type": "Feature", "properties": {"depth_ft": 33.0, "surface_elevation_ft": "0", "data_source": "depthmap: meifw"}, "geometry": {"type": "Point", "coordinates": [-68.811722, 45.78594]}}, {"type": "Feature", "properties": {"depth_ft": 20.0, "surface_elevation_ft": "0", "data_source": "depthmap: meifw"}, "geometry": {"type": "Point", "coordinates": [-68.827453, 45.732828]}}, {"type": "Feature", "properties": {"depth_ft": 18.0, "surface_elevation_ft": "0", "data_source": "depthmap: meifw"}, "geometry": {"type": "Point", "coordinates": [-68.824508, 45.732888]}}, {"type": "Feature", "properties": {"depth_ft": 26.0, "surface_elevation_ft": "0", "data_source": "depthmap: meifw"}, "geometry": {"type": "Point", "coordinates": [-68.808296, 45.737309]}}, {"type": "Feature", "properties": {"depth_ft": 18.0, "surface_elevation_ft": "0", "data_source": "depthmap: meifw"}, "geometry": {"type": "Point", "coordinates": [-68.812421, 45.742213]}}, {"type": "Feature", "properties": {"depth_ft": 12.0, "surface_elevation_ft": "0", "data_source": "depthmap: meifw"}, "geometry": {"type": "Point", "coordinates": [-68.819038, 45.745511]}}, {"type": "Feature", "properties": {"depth_ft": 19.0, "surface_elevation_ft": "0", "data_source": "depthmap: meifw"}, "geometry": {"type": "Point", "coordinates": [-68.808451, 45.74588]}}, {"type": "Feature", "properties": {"depth_ft": 10.0, "surface_elevation_ft": "0", "data_source": "depthmap: meifw"}, "geometry": {"type": "Point", "coordinates": [-68.78332, 45.746093]}}, {"type": "Feature", "properties": {"depth_ft": 9.0, "surface_elevation_ft": "0", "data_source": "depthmap: meifw"}, "geometry": {"type": "Point", "coordinates": [-68.764055, 45.752307]}}, {"type": "Feature", "properties": {"depth_ft": 38.0, "surface_elevation_ft": "0", "data_source": "depthmap: meifw"}, "geometry": {"type": "Point", "coordinates": [-68.79792, 45.756109]}}, {"type": "Feature", "properties": {"depth_ft": 34.0, "surface_elevation_ft": "0", "data_source": "depthmap: meifw"}, "geometry": {"type": "Point", "coordinates": [-68.771494, 45.756768]}}, {"type": "Feature", "properties": {"depth_ft": 22.0, "surface_elevation_ft": "0", "data_source": "depthmap: meifw"}, "geometry": {"type": "Point", "coordinates": [-68.764865, 45.756819]}}, {"type": "Feature", "properties": {"depth_ft": 14.0, "surface_elevation_ft": "0", "data_source": "depthmap: meifw"}, "geometry": {"type": "Point", "coordinates": [-68.753613, 45.761307]}}, {"type": "Feature", "properties": {"depth_ft": 2.0, "surface_elevation_ft": "0", "data_source": "depthmap: meifw"}, "geometry": {"type": "Point", "coordinates": [-68.760611, 45.761257]}}, {"type": "Feature", "properties": {"depth_ft": 30.0, "surface_elevation_ft": "0", "data_source": "depthmap: meifw"}, "geometry": {"type": "Point", "coordinates": [-68.768438, 45.761016]}}, {"type": "Feature", "properties": {"depth_ft": 30.0, "surface_elevation_ft": "0", "data_source": "depthmap: meifw"}, "geometry": {"type": "Point", "coordinates": [-68.781422, 45.760655]}}, {"type": "Feature", "properties": {"depth_ft": 34.0, "surface_elevation_ft": "0", "data_source": "depthmap: meifw"}, "geometry": {"type": "Point", "coordinates": [-68.791275, 45.760415]}}, {"type": "Feature", "properties": {"depth_ft": 39.0, "surface_elevation_ft": "0", "data_source": "depthmap: meifw"}, "geometry": {"type": "Point", "coordinates": [-68.796339, 45.760489]}}, {"type": "Feature", "properties": {"depth_ft": 50.0, "surface_elevation_ft": "0", "data_source": "depthmap: meifw"}, "geometry": {"type": "Point", "coordinates": [-68.804811, 45.759988]}}, {"type": "Feature", "properties": {"depth_ft": 50.0, "surface_elevation_ft": "0", "data_source": "depthmap: meifw"}, "geometry": {"type": "Point", "coordinates": [-68.808403, 45.759801]}}, {"type": "Feature", "properties": {"depth_ft": 31.0, "surface_elevation_ft": "0", "data_source": "depthmap: meifw"}, "geometry": {"type": "Point", "coordinates": [-68.822749, 45.765399]}}, {"type": "Feature", "properties": {"depth_ft": 34.0, "surface_elevation_ft": "0", "data_source": "depthmap: meifw"}, "geometry": {"type": "Point", "coordinates": [-68.801568, 45.765879]}}, {"type": "Feature", "properties": {"depth_ft": 38.0, "surface_elevation_ft": "0", "data_source": "depthmap: meifw"}, "geometry": {"type": "Point", "coordinates": [-68.791162, 45.766119]}}, {"type": "Feature", "properties": {"depth_ft": 2.0, "surface_elevation_ft": "0", "data_source": "depthmap: meifw"}, "geometry": {"type": "Point", "coordinates": [-68.785066, 45.770941]}}, {"type": "Feature", "properties": {"depth_ft": 42.0, "surface_elevation_ft": "0", "data_source": "depthmap: meifw"}, "geometry": {"type": "Point", "coordinates": [-68.787277, 45.770752]}}, {"type": "Feature", "properties": {"depth_ft": 40.0, "surface_elevation_ft": "0", "data_source": "depthmap: meifw"}, "geometry": {"type": "Point", "coordinates": [-68.791882, 45.770502]}}, {"type": "Feature", "properties": {"depth_ft": 78.0, "surface_elevation_ft": "0", "data_source": "depthmap: meifw"}, "geometry": {"type": "Point", "coordinates": [-68.806893, 45.7704]}}, {"type": "Feature", "properties": {"depth_ft": 56.0, "surface_elevation_ft": "0", "data_source": "depthmap: meifw"}, "geometry": {"type": "Point", "coordinates": [-68.814814, 45.770155]}}, {"type": "Feature", "properties": {"depth_ft": 10.0, "surface_elevation_ft": "0", "data_source": "depthmap: meifw"}, "geometry": {"type": "Point", "coordinates": [-68.784396, 45.777449]}}, {"type": "Feature", "properties": {"depth_ft": 3.0, "surface_elevation_ft": "0", "data_source": "depthmap: meifw"}, "geometry": {"type": "Point", "coordinates": [-68.794603, 45.781786]}}, {"type": "Feature", "properties": {"depth_ft": 20.0, "surface_elevation_ft": "0", "data_source": "depthmap: meifw"}, "geometry": {"type": "Point", "coordinates": [-68.82712, 45.781259]}}, {"type": "Feature", "properties": {"depth_ft": 12.0, "surface_elevation_ft": "0", "data_source": "depthmap: meifw"}, "geometry": {"type": "Point", "coordinates": [-68.832187, 45.780945]}}, {"type": "Feature", "properties": {"depth_ft": 5.0, "surface_elevation_ft": "0", "data_source": "depthmap: meifw"}, "geometry": {"type": "Point", "coordinates": [-68.790037, 45.741376]}}, {"type": "Feature", "properties": {"depth_ft": 20.0, "surface_elevation_ft": "0", "data_source": "depthmap: meifw"}, "geometry": {"type": "Point", "coordinates": [-68.811808, 45.732803]}}, {"type": "Feature", "properties": {"depth_ft": 20.0, "surface_elevation_ft": "0", "data_source": "depthmap: meifw"}, "geometry": {"type": "Point", "coordinates": [-68.802055, 45.732207]}}, {"type": "Feature", "properties": {"depth_ft": 26.0, "surface_elevation_ft": "0", "data_source": "depthmap: meifw"}, "geometry": {"type": "Point", "coordinates": [-68.811149, 45.737378]}}, {"type": "Feature", "properties": {"depth_ft": 10.0, "surface_elevation_ft": "0", "data_source": "depthmap: meifw"}, "geometry": {"type": "Point", "coordinates": [-68.798541, 45.737163]}}, {"type": "Feature", "properties": {"depth_ft": 6.0, "surface_elevation_ft": "0", "data_source": "depthmap: meifw"}, "geometry": {"type": "Point", "coordinates": [-68.8241, 45.745583]}}, {"type": "Feature", "properties": {"depth_ft": 12.0, "surface_elevation_ft": "0", "data_source": "depthmap: meifw"}, "geometry": {"type": "Point", "coordinates": [-68.806593, 45.750711]}}, {"type": "Feature", "properties": {"depth_ft": 28.0, "surface_elevation_ft": "0", "data_source": "depthmap: meifw"}, "geometry": {"type": "Point", "coordinates": [-68.781367, 45.751374]}}, {"type": "Feature", "properties": {"depth_ft": 32.0, "surface_elevation_ft": "0", "data_source": "depthmap: meifw"}, "geometry": {"type": "Point", "coordinates": [-68.807864, 45.755933]}}, {"type": "Feature", "properties": {"depth_ft": 32.0, "surface_elevation_ft": "0", "data_source": "depthmap: meifw"}, "geometry": {"type": "Point", "coordinates": [-68.804918, 45.755928]}}, {"type": "Feature", "properties": {"depth_ft": 30.0, "surface_elevation_ft": "0", "data_source": "depthmap: meifw"}, "geometry": {"type": "Point", "coordinates": [-68.79967, 45.755855]}}, {"type": "Feature", "properties": {"depth_ft": 34.0, "surface_elevation_ft": "0", "data_source": "depthmap: meifw"}, "geometry": {"type": "Point", "coordinates": [-68.792765, 45.756036]}}, {"type": "Feature", "properties": {"depth_ft": 34.0, "surface_elevation_ft": "0", "data_source": "depthmap: meifw"}, "geometry": {"type": "Point", "coordinates": [-68.774164, 45.756838]}}, {"type": "Feature", "properties": {"depth_ft": 6.0, "surface_elevation_ft": "0", "data_source": "depthmap: meifw"}, "geometry": {"type": "Point", "coordinates": [-68.734798, 45.750373]}}, {"type": "Feature", "properties": {"depth_ft": 20.0, "surface_elevation_ft": "0", "data_source": "depthmap: meifw"}, "geometry": {"type": "Point", "coordinates": [-68.755731, 45.761312]}}, {"type": "Feature", "properties": {"depth_ft": 20.0, "surface_elevation_ft": "0", "data_source": "depthmap: meifw"}, "geometry": {"type": "Point", "coordinates": [-68.778383, 45.760778]}}, {"type": "Feature", "properties": {"depth_ft": 16.0, "surface_elevation_ft": "0", "data_source": "depthmap: meifw"}, "geometry": {"type": "Point", "coordinates": [-68.829564, 45.765151]}}, {"type": "Feature", "properties": {"depth_ft": 40.0, "surface_elevation_ft": "0", "data_source": "depthmap: meifw"}, "geometry": {"type": "Point", "coordinates": [-68.811789, 45.765832]}}, {"type": "Feature", "properties": {"depth_ft": 22.0, "surface_elevation_ft": "0", "data_source": "depthmap: meifw"}, "geometry": {"type": "Point", "coordinates": [-68.776334, 45.766735]}}, {"type": "Feature", "properties": {"depth_ft": 22.0, "surface_elevation_ft": "0", "data_source": "depthmap: meifw"}, "geometry": {"type": "Point", "coordinates": [-68.763532, 45.767354]}}, {"type": "Feature", "properties": {"depth_ft": 3.0, "surface_elevation_ft": "0", "data_source": "depthmap: meifw"}, "geometry": {"type": "Point", "coordinates": [-68.747674, 45.771573]}}, {"type": "Feature", "properties": {"depth_ft": 12.0, "surface_elevation_ft": "0", "data_source": "depthmap: meifw"}, "geometry": {"type": "Point", "coordinates": [-68.775118, 45.771373]}}, {"type": "Feature", "properties": {"depth_ft": 2.0, "surface_elevation_ft": "0", "data_source": "depthmap: meifw"}, "geometry": {"type": "Point", "coordinates": [-68.783593, 45.770874]}}, {"type": "Feature", "properties": {"depth_ft": 41.0, "surface_elevation_ft": "0", "data_source": "depthmap: meifw"}, "geometry": {"type": "Point", "coordinates": [-68.797039, 45.770641]}}, {"type": "Feature", "properties": {"depth_ft": 22.0, "surface_elevation_ft": "0", "data_source": "depthmap: meifw"}, "geometry": {"type": "Point", "coordinates": [-68.817393, 45.769902]}}, {"type": "Feature", "properties": {"depth_ft": 14.0, "surface_elevation_ft": "0", "data_source": "depthmap: meifw"}, "geometry": {"type": "Point", "coordinates": [-68.830748, 45.769471]}}, {"type": "Feature", "properties": {"depth_ft": 66.0, "surface_elevation_ft": "0", "data_source": "depthmap: meifw"}, "geometry": {"type": "Point", "coordinates": [-68.818663, 45.776026]}}, {"type": "Feature", "properties": {"depth_ft": 51.0, "surface_elevation_ft": "0", "data_source": "depthmap: meifw"}, "geometry": {"type": "Point", "coordinates": [-68.804202, 45.776389]}}, {"type": "Feature", "properties": {"depth_ft": 3.0, "surface_elevation_ft": "0", "data_source": "depthmap: meifw"}, "geometry": {"type": "Point", "coordinates": [-68.79276, 45.782233]}}, {"type": "Feature", "properties": {"depth_ft": 6.0, "surface_elevation_ft": "0", "data_source": "depthmap: meifw"}, "geometry": {"type": "Point", "coordinates": [-68.799578, 45.781666]}}, {"type": "Feature", "properties": {"depth_ft": 12.0, "surface_elevation_ft": "0", "data_source": "depthmap: meifw"}, "geometry": {"type": "Point", "coordinates": [-68.803615, 45.78599]}}]}