{"type": "FeatureCollection", "meta": {"source": "Maine E911 NG addresses (Maine Office of GIS)", "url": "https://services1.arcgis.com/RbMX0mRVOFNTdLzd/arcgis/rest/services/Maine_E911_Addresses_Feature/FeatureServer/0", "note": "address points, not footprints; one per addressable structure or unit"}, "features": [{"type": "Feature", "properties": {"kind": "building", "source": "maine-e911", "in_osm": true, "dist_m": 24, "ADDRESS": "15 Carr Rd", "ST_FULLNAME": "Carr Road", "TOWN": "T1 R8 WELS", "PLACE_TYPE": "", "PLACEMENT": "", "BUILDING": "", "UNIT": "", "LANDMARK": "", "ESITEID": 714261}, "geometry": {"type": "Point", "coordinates": [-68.8240372209559, 45.7272604602265]}}, {"type": "Feature", "properties": {"kind": "building", "source": "maine-e911", "in_osm": true, "dist_m": 23, "ADDRESS": "19 Carr Rd", "ST_FULLNAME": "Carr Road", "TOWN": "T1 R8 WELS", "PLACE_TYPE": "", "PLACEMENT": "", "BUILDING": "", "UNIT": "", "LANDMARK": "", "ESITEID": 714262}, "geometry": {"type": "Point", "coordinates": [-68.824672889031, 45.7274144506765]}}, {"type": "Feature", "properties": {"kind": "building", "source": "maine-e911", "in_osm": true, "dist_m": 93, "ADDRESS": "494 Black Cat Rd", "ST_FULLNAME": "Black Cat Road", "TOWN": "T1 R8 WELS", "PLACE_TYPE": "", "PLACEMENT": "", "BUILDING": "", "UNIT": "", "LANDMARK": "", "ESITEID": 714273}, "geometry": {"type": "Point", "coordinates": [-68.79858908213, 45.727857489041]}}, {"type": "Feature", "properties": {"kind": "building", "source": "maine-e911", "in_osm": true, "dist_m": 366, "ADDRESS": "500 Black Cat Rd", "ST_FULLNAME": "Black Cat Road", "TOWN": "T1 R8 WELS", "PLACE_TYPE": "", "PLACEMENT": "", "BUILDING": "", "UNIT": "", "LANDMARK": "", "ESITEID": 714274}, "geometry": {"type": "Point", "coordinates": [-68.7980325494069, 45.7253767917378]}}, {"type": "Feature", "properties": {"kind": "building", "source": "maine-e911", "in_osm": true, "dist_m": 69, "ADDRESS": "514 Black Cat Rd", "ST_FULLNAME": "Black Cat Road", "TOWN": "T1 R8 WELS", "PLACE_TYPE": "", "PLACEMENT": "", "BUILDING": "", "UNIT": "", "LANDMARK": "", "ESITEID": 714275}, "geometry": {"type": "Point", "coordinates": [-68.7964784842838, 45.7281929252452]}}, {"type": "Feature", "properties": {"kind": "building", "source": "maine-e911", "in_osm": false, "dist_m": 41, "ADDRESS": "178 Evergreen Way", "ST_FULLNAME": "Evergreen Way", "TOWN": "T1 R8 WELS", "PLACE_TYPE": "", "PLACEMENT": "", "BUILDING": "", "UNIT": "", "LANDMARK": "", "ESITEID": 759445}, "geometry": {"type": "Point", "coordinates": [-68.7356464292104, 45.7459242403767]}}, {"type": "Feature", "properties": {"kind": "building", "source": "maine-e911", "in_osm": false, "dist_m": 39, "ADDRESS": "184 Evergreen Way", "ST_FULLNAME": "Evergreen Way", "TOWN": "T1 R8 WELS", "PLACE_TYPE": "", "PLACEMENT": "", "BUILDING": "", "UNIT": "", "LANDMARK": "", "ESITEID": 759446}, "geometry": {"type": "Point", "coordinates": [-68.7357222465271, 45.7462034390257]}}, {"type": "Feature", "properties": {"kind": "building", "source": "maine-e911", "in_osm": false, "dist_m": 34, "ADDRESS": "188 Evergreen Way", "ST_FULLNAME": "Evergreen Way", "TOWN": "T1 R8 WELS", "PLACE_TYPE": "", "PLACEMENT": "", "BUILDING": "", "UNIT": "", "LANDMARK": "", "ESITEID": 759447}, "geometry": {"type": "Point", "coordinates": [-68.7359844946693, 45.7464785681799]}}, {"type": "Feature", "properties": {"kind": "building", "source": "maine-e911", "in_osm": false, "dist_m": 27, "ADDRESS": "173 Evergreen Way", "ST_FULLNAME": "Evergreen Way", "TOWN": "T1 R8 WELS", "PLACE_TYPE": "", "PLACEMENT": "", "BUILDING": "", "UNIT": "", "LANDMARK": "", "ESITEID": 759450}, "geometry": {"type": "Point", "coordinates": [-68.7346052491727, 45.7458948244098]}}, {"type": "Feature", "properties": {"kind": "building", "source": "maine-e911", "in_osm": false, "dist_m": 44, "ADDRESS": "17 Boom Chain Ln", "ST_FULLNAME": "Boom Chain Lane", "TOWN": "T1 R8 WELS", "PLACE_TYPE": "Seasonal", "PLACEMENT": "", "BUILDING": "", "UNIT": "", "LANDMARK": "", "ESITEID": 759461}, "geometry": {"type": "Point", "coordinates": [-68.7398489439938, 45.7448267940195]}}, {"type": "Feature", "properties": {"kind": "building", "source": "maine-e911", "in_osm": false, "dist_m": 41, "ADDRESS": "7 Teaberry Trl", "ST_FULLNAME": "Teaberry Trail", "TOWN": "T1 R8 WELS", "PLACE_TYPE": "", "PLACEMENT": "", "BUILDING": "", "UNIT": "", "LANDMARK": "", "ESITEID": 759463}, "geometry": {"type": "Point", "coordinates": [-68.7428339833351, 45.7456706215774]}}, {"type": "Feature", "properties": {"kind": "building", "source": "maine-e911", "in_osm": false, "dist_m": 37, "ADDRESS": "31 Teaberry Trl", "ST_FULLNAME": "Teaberry Trail", "TOWN": "T1 R8 WELS", "PLACE_TYPE": "", "PLACEMENT": "", "BUILDING": "", "UNIT": "", "LANDMARK": "", "ESITEID": 759464}, "geometry": {"type": "Point", "coordinates": [-68.7429750692733, 45.7471425615928]}}, {"type": "Feature", "properties": {"kind": "building", "source": "maine-e911", "in_osm": false, "dist_m": 18, "ADDRESS": "56 Teaberry Trl", "ST_FULLNAME": "Teaberry Trail", "TOWN": "T1 R8 WELS", "PLACE_TYPE": "", "PLACEMENT": "", "BUILDING": "", "UNIT": "", "LANDMARK": "", "ESITEID": 759465}, "geometry": {"type": "Point", "coordinates": [-68.7430439455182, 45.7489428659015]}}, {"type": "Feature", "properties": {"kind": "building", "source": "maine-e911", "in_osm": true, "dist_m": 54, "ADDRESS": "601 Stream Rd", "ST_FULLNAME": "Stream Road", "TOWN": "T1 R8 WELS", "PLACE_TYPE": "", "PLACEMENT": "", "BUILDING": "", "UNIT": "", "LANDMARK": "", "ESITEID": 759690}, "geometry": {"type": "Point", "coordinates": [-68.7504496507183, 45.7488602726736]}}, {"type": "Feature", "properties": {"kind": "building", "source": "maine-e911", "in_osm": false, "dist_m": 42, "ADDRESS": "597 Stream Rd", "ST_FULLNAME": "Stream Road", "TOWN": "T1 R8 WELS", "PLACE_TYPE": "", "PLACEMENT": "", "BUILDING": "", "UNIT": "", "LANDMARK": "", "ESITEID": 775915}, "geometry": {"type": "Point", "coordinates": [-68.750019344896, 45.7487738249397]}}, {"type": "Feature", "properties": {"kind": "building", "source": "maine-e911", "in_osm": false, "dist_m": 50, "ADDRESS": "603 Stream Rd", "ST_FULLNAME": "Stream Road", "TOWN": "T1 R8 WELS", "PLACE_TYPE": "", "PLACEMENT": "", "BUILDING": "", "UNIT": "", "LANDMARK": "", "ESITEID": 775916}, "geometry": {"type": "Point", "coordinates": [-68.75081541573, 45.7490050828899]}}, {"type": "Feature", "properties": {"kind": "building", "source": "maine-e911", "in_osm": true, "dist_m": 30, "ADDRESS": "605 Stream Rd", "ST_FULLNAME": "Stream Road", "TOWN": "T1 R8 WELS", "PLACE_TYPE": "", "PLACEMENT": "", "BUILDING": "", "UNIT": "", "LANDMARK": "", "ESITEID": 775917}, "geometry": {"type": "Point", "coordinates": [-68.7514892372349, 45.7492630716885]}}, {"type": "Feature", "properties": {"kind": "building", "source": "maine-e911", "in_osm": false, "dist_m": 45, "ADDRESS": "84 Puckerbrush Trl", "ST_FULLNAME": "Puckerbrush Trail", "TOWN": "T1 R8 WELS", "PLACE_TYPE": "", "PLACEMENT": "", "BUILDING": "", "UNIT": "", "LANDMARK": "", "ESITEID": 775918}, "geometry": {"type": "Point", "coordinates": [-68.7546963897169, 45.7523257543461]}}, {"type": "Feature", "properties": {"kind": "building", "source": "maine-e911", "in_osm": false, "dist_m": 28, "ADDRESS": "91 Puckerbrush Trl", "ST_FULLNAME": "Puckerbrush Trail", "TOWN": "T1 R8 WELS", "PLACE_TYPE": "", "PLACEMENT": "", "BUILDING": "", "UNIT": "", "LANDMARK": "", "ESITEID": 775919}, "geometry": {"type": "Point", "coordinates": [-68.7535062917495, 45.7525077082407]}}, {"type": "Feature", "properties": {"kind": "building", "source": "maine-e911", "in_osm": false, "dist_m": 49, "ADDRESS": "89 Puckerbrush Trl", "ST_FULLNAME": "Puckerbrush Trail", "TOWN": "T1 R8 WELS", "PLACE_TYPE": "", "PLACEMENT": "", "BUILDING": "", "UNIT": "", "LANDMARK": "", "ESITEID": 775920}, "geometry": {"type": "Point", "coordinates": [-68.7538409148814, 45.7524319233654]}}, {"type": "Feature", "properties": {"kind": "building", "source": "maine-e911", "in_osm": false, "dist_m": 44, "ADDRESS": "18 Twin Pines Rd", "ST_FULLNAME": "Twin Pines Road", "TOWN": "T1 R8 WELS", "PLACE_TYPE": "", "PLACEMENT": "", "BUILDING": "", "UNIT": "", "LANDMARK": "", "ESITEID": 777145}, "geometry": {"type": "Point", "coordinates": [-68.8192986356325, 45.7261369674613]}}, {"type": "Feature", "properties": {"kind": "building", "source": "maine-e911", "in_osm": false, "dist_m": 81, "ADDRESS": "506 Black Cat Rd", "ST_FULLNAME": "Black Cat Road", "TOWN": "T1 R8 WELS", "PLACE_TYPE": "Seasonal", "PLACEMENT": "", "BUILDING": "", "UNIT": "", "LANDMARK": "", "ESITEID": 846390}, "geometry": {"type": "Point", "coordinates": [-68.7973098466717, 45.7279947388719]}}, {"type": "Feature", "properties": {"kind": "building", "source": "maine-e911", "in_osm": false, "dist_m": 33, "ADDRESS": "4 Carr Rd", "ST_FULLNAME": "Carr Road", "TOWN": "T1 R8 WELS", "PLACE_TYPE": "Seasonal", "PLACEMENT": "", "BUILDING": "", "UNIT": "", "LANDMARK": "", "ESITEID": 846391}, "geometry": {"type": "Point", "coordinates": [-68.8249509530401, 45.7268523283578]}}, {"type": "Feature", "properties": {"kind": "building", "source": "maine-e911", "in_osm": false, "dist_m": 37, "ADDRESS": "13 Carr Rd", "ST_FULLNAME": "Carr Road", "TOWN": "T1 R8 WELS", "PLACE_TYPE": "Seasonal", "PLACEMENT": "", "BUILDING": "", "UNIT": "", "LANDMARK": "", "ESITEID": 846392}, "geometry": {"type": "Point", "coordinates": [-68.8237230257442, 45.7270484576049]}}, {"type": "Feature", "properties": {"kind": "building", "source": "maine-e911", "in_osm": false, "dist_m": 23, "ADDRESS": "23 Hillside Ln", "ST_FULLNAME": "Hillside Lane", "TOWN": "T1 R8 WELS", "PLACE_TYPE": "Seasonal", "PLACEMENT": "", "BUILDING": "", "UNIT": "", "LANDMARK": "", "ESITEID": 846393}, "geometry": {"type": "Point", "coordinates": [-68.7480150141284, 45.7484903989834]}}, {"type": "Feature", "properties": {"kind": "building", "source": "maine-e911", "in_osm": true, "dist_m": 311, "ADDRESS": "25 Muriel Blvd", "ST_FULLNAME": "Muriel Boulevard", "TOWN": "T1 R8 WELS", "PLACE_TYPE": "Single Family", "PLACEMENT": "", "BUILDING": "", "UNIT": "", "LANDMARK": "", "ESITEID": 1408245}, "geometry": {"type": "Point", "coordinates": [-68.7947838005, 45.7264285945254]}}, {"type": "Feature", "properties": {"kind": "building", "source": "maine-e911", "in_osm": false, "dist_m": 302, "ADDRESS": "1848 Golden Rd", "ST_FULLNAME": "Golden Road", "TOWN": "T1 R9 WELS", "PLACE_TYPE": "Seasonal", "PLACEMENT": "", "BUILDING": "", "UNIT": "", "LANDMARK": "", "ESITEID": 1475819}, "geometry": {"type": "Point", "coordinates": [-68.8385615069226, 45.7280514631912]}}, {"type": "Feature", "properties": {"kind": "building", "source": "maine-e911", "in_osm": true, "dist_m": 230, "ADDRESS": "1886 Golden Rd", "ST_FULLNAME": "Golden Road", "TOWN": "T1 R9 WELS", "PLACE_TYPE": "Boat Landing", "PLACEMENT": "Site Placement", "BUILDING": "", "UNIT": "", "LANDMARK": "", "ESITEID": 1487900}, "geometry": {"type": "Point", "coordinates": [-68.8394234971489, 45.7304550298301]}}, {"type": "Feature", "properties": {"kind": "building", "source": "maine-e911", "in_osm": false, "dist_m": 237, "ADDRESS": "1864 Golden Rd", "ST_FULLNAME": "Golden Road", "TOWN": "T1 R9 WELS", "PLACE_TYPE": "Boat Landing", "PLACEMENT": "Parcel - Manual Placement", "BUILDING": "", "UNIT": "", "LANDMARK": "", "ESITEID": 1487963}, "geometry": {"type": "Point", "coordinates": [-68.8385883583083, 45.7290941330632]}}, {"type": "Feature", "properties": {"kind": "building", "source": "maine-e911", "in_osm": false, "dist_m": 35, "ADDRESS": "154 Black Cat Rd", "ST_FULLNAME": "Black Cat Road", "TOWN": "T1 R8 WELS", "PLACE_TYPE": "", "PLACEMENT": "", "BUILDING": "", "UNIT": "", "LANDMARK": "", "ESITEID": 714292}, "geometry": {"type": "Point", "coordinates": [-68.8235501411037, 45.7268546739903]}}, {"type": "Feature", "properties": {"kind": "building", "source": "maine-e911", "in_osm": false, "dist_m": 17, "ADDRESS": "124 Black Cat Rd", "ST_FULLNAME": "Black Cat Road", "TOWN": "T1 R9 WELS", "PLACE_TYPE": "", "PLACEMENT": "", "BUILDING": "", "UNIT": "", "LANDMARK": "", "ESITEID": 732554}, "geometry": {"type": "Point", "coordinates": [-68.8259532330959, 45.7268943630511]}}, {"type": "Feature", "properties": {"kind": "building", "source": "maine-e911", "in_osm": false, "dist_m": 50, "ADDRESS": "90 Muriel Blvd", "ST_FULLNAME": "Muriel Boulevard", "TOWN": "T1 R8 WELS", "PLACE_TYPE": "", "PLACEMENT": "", "BUILDING": "", "UNIT": "", "LANDMARK": "", "ESITEID": 755059}, "geometry": {"type": "Point", "coordinates": [-68.7932073803425, 45.7304896030603]}}, {"type": "Feature", "properties": {"kind": "building", "source": "maine-e911", "in_osm": true, "dist_m": 17, "ADDRESS": "68 Muriel Blvd", "ST_FULLNAME": "Muriel Boulevard", "TOWN": "T1 R8 WELS", "PLACE_TYPE": "", "PLACEMENT": "", "BUILDING": "", "UNIT": "", "LANDMARK": "", "ESITEID": 755060}, "geometry": {"type": "Point", "coordinates": [-68.7947665307703, 45.7293898194548]}}, {"type": "Feature", "properties": {"kind": "building", "source": "maine-e911", "in_osm": false, "dist_m": 33, "ADDRESS": "138 Evergreen Way", "ST_FULLNAME": "Evergreen Way", "TOWN": "T1 R8 WELS", "PLACE_TYPE": "", "PLACEMENT": "", "BUILDING": "", "UNIT": "", "LANDMARK": "", "ESITEID": 759441}, "geometry": {"type": "Point", "coordinates": [-68.7338775965378, 45.743462928743]}}, {"type": "Feature", "properties": {"kind": "building", "source": "maine-e911", "in_osm": false, "dist_m": 55, "ADDRESS": "154 Evergreen Way", "ST_FULLNAME": "Evergreen Way", "TOWN": "T1 R8 WELS", "PLACE_TYPE": "", "PLACEMENT": "", "BUILDING": "", "UNIT": "", "LANDMARK": "", "ESITEID": 759442}, "geometry": {"type": "Point", "coordinates": [-68.7344575958781, 45.7444993648478]}}, {"type": "Feature", "properties": {"kind": "building", "source": "maine-e911", "in_osm": false, "dist_m": 24, "ADDRESS": "162 Evergreen Way", "ST_FULLNAME": "Evergreen Way", "TOWN": "T1 R8 WELS", "PLACE_TYPE": "", "PLACEMENT": "", "BUILDING": "", "UNIT": "", "LANDMARK": "", "ESITEID": 759443}, "geometry": {"type": "Point", "coordinates": [-68.7351564662442, 45.7448700178042]}}, {"type": "Feature", "properties": {"kind": "building", "source": "maine-e911", "in_osm": false, "dist_m": 34, "ADDRESS": "170 Evergreen Way", "ST_FULLNAME": "Evergreen Way", "TOWN": "T1 R8 WELS", "PLACE_TYPE": "", "PLACEMENT": "", "BUILDING": "", "UNIT": "", "LANDMARK": "", "ESITEID": 759444}, "geometry": {"type": "Point", "coordinates": [-68.7354306467456, 45.7453386921107]}}, {"type": "Feature", "properties": {"kind": "building", "source": "maine-e911", "in_osm": false, "dist_m": 29, "ADDRESS": "192 Evergreen Way", "ST_FULLNAME": "Evergreen Way", "TOWN": "T1 R8 WELS", "PLACE_TYPE": "", "PLACEMENT": "", "BUILDING": "", "UNIT": "", "LANDMARK": "", "ESITEID": 759448}, "geometry": {"type": "Point", "coordinates": [-68.7362662410794, 45.7467087379818]}}, {"type": "Feature", "properties": {"kind": "building", "source": "maine-e911", "in_osm": false, "dist_m": 17, "ADDRESS": "196 Evergreen Way", "ST_FULLNAME": "Evergreen Way", "TOWN": "T1 R8 WELS", "PLACE_TYPE": "", "PLACEMENT": "", "BUILDING": "", "UNIT": "", "LANDMARK": "", "ESITEID": 759449}, "geometry": {"type": "Point", "coordinates": [-68.7363294396965, 45.7469384029428]}}, {"type": "Feature", "properties": {"kind": "building", "source": "maine-e911", "in_osm": false, "dist_m": 25, "ADDRESS": "12 Beech Ln", "ST_FULLNAME": "Beech Lane", "TOWN": "T1 R8 WELS", "PLACE_TYPE": "", "PLACEMENT": "", "BUILDING": "", "UNIT": "", "LANDMARK": "", "ESITEID": 759451}, "geometry": {"type": "Point", "coordinates": [-68.7335379950037, 45.7459418445278]}}, {"type": "Feature", "properties": {"kind": "building", "source": "maine-e911", "in_osm": false, "dist_m": 39, "ADDRESS": "8 Red Pine Trl", "ST_FULLNAME": "Red Pine Trail", "TOWN": "T1 R8 WELS", "PLACE_TYPE": "", "PLACEMENT": "", "BUILDING": "", "UNIT": "", "LANDMARK": "", "ESITEID": 759452}, "geometry": {"type": "Point", "coordinates": [-68.7367207291936, 45.7430104770517]}}, {"type": "Feature", "properties": {"kind": "building", "source": "maine-e911", "in_osm": false, "dist_m": 51, "ADDRESS": "4 Red Pine Trl", "ST_FULLNAME": "Red Pine Trail", "TOWN": "T1 R8 WELS", "PLACE_TYPE": "", "PLACEMENT": "", "BUILDING": "", "UNIT": "", "LANDMARK": "", "ESITEID": 759453}, "geometry": {"type": "Point", "coordinates": [-68.7371898940143, 45.7430205579387]}}, {"type": "Feature", "properties": {"kind": "building", "source": "maine-e911", "in_osm": false, "dist_m": 57, "ADDRESS": "7 Frenchmens Cove Ln", "ST_FULLNAME": "Frenchmens Cove Lane", "TOWN": "T1 R8 WELS", "PLACE_TYPE": "", "PLACEMENT": "", "BUILDING": "", "UNIT": "", "LANDMARK": "", "ESITEID": 759454}, "geometry": {"type": "Point", "coordinates": [-68.7375183289449, 45.7428863016036]}}, {"type": "Feature", "properties": {"kind": "building", "source": "maine-e911", "in_osm": false, "dist_m": 48, "ADDRESS": "11 Frenchmens Cove Ln", "ST_FULLNAME": "Frenchmens Cove Lane", "TOWN": "T1 R8 WELS", "PLACE_TYPE": "", "PLACEMENT": "", "BUILDING": "", "UNIT": "", "LANDMARK": "", "ESITEID": 759455}, "geometry": {"type": "Point", "coordinates": [-68.7378529580852, 45.7428015626878]}}, {"type": "Feature", "properties": {"kind": "building", "source": "maine-e911", "in_osm": false, "dist_m": 42, "ADDRESS": "13 Frenchmens Cove Ln", "ST_FULLNAME": "Frenchmens Cove Lane", "TOWN": "T1 R8 WELS", "PLACE_TYPE": "", "PLACEMENT": "", "BUILDING": "", "UNIT": "", "LANDMARK": "", "ESITEID": 759456}, "geometry": {"type": "Point", "coordinates": [-68.7381877124278, 45.7426898208114]}}, {"type": "Feature", "properties": {"kind": "building", "source": "maine-e911", "in_osm": false, "dist_m": 39, "ADDRESS": "59 Wildland Trl", "ST_FULLNAME": "Wildland Trail", "TOWN": "T1 R8 WELS", "PLACE_TYPE": "", "PLACEMENT": "", "BUILDING": "", "UNIT": "", "LANDMARK": "", "ESITEID": 759457}, "geometry": {"type": "Point", "coordinates": [-68.7385414326728, 45.7426456270215]}}, {"type": "Feature", "properties": {"kind": "building", "source": "maine-e911", "in_osm": true, "dist_m": 40, "ADDRESS": "435 Stream Rd", "ST_FULLNAME": "Stream Road", "TOWN": "T1 R8 WELS", "PLACE_TYPE": "", "PLACEMENT": "", "BUILDING": "", "UNIT": "", "LANDMARK": "", "ESITEID": 759458}, "geometry": {"type": "Point", "coordinates": [-68.7393487368396, 45.7431965176348]}}, {"type": "Feature", "properties": {"kind": "building", "source": "maine-e911", "in_osm": true, "dist_m": 76, "ADDRESS": "441 Stream Rd", "ST_FULLNAME": "Stream Road", "TOWN": "T1 R8 WELS", "PLACE_TYPE": "", "PLACEMENT": "", "BUILDING": "", "UNIT": "", "LANDMARK": "", "ESITEID": 759459}, "geometry": {"type": "Point", "coordinates": [-68.7399579928491, 45.743490430422]}}, {"type": "Feature", "properties": {"kind": "building", "source": "maine-e911", "in_osm": true, "dist_m": 58, "ADDRESS": "13 Boom Chain Ln", "ST_FULLNAME": "Boom Chain Lane", "TOWN": "T1 R8 WELS", "PLACE_TYPE": "", "PLACEMENT": "", "BUILDING": "", "UNIT": "", "LANDMARK": "", "ESITEID": 759460}, "geometry": {"type": "Point", "coordinates": [-68.740005235275, 45.7443906132818]}}, {"type": "Feature", "properties": {"kind": "building", "source": "maine-e911", "in_osm": false, "dist_m": 51, "ADDRESS": "22 Boom Chain Ln", "ST_FULLNAME": "Boom Chain Lane", "TOWN": "T1 R8 WELS", "PLACE_TYPE": "Seasonal", "PLACEMENT": "", "BUILDING": "", "UNIT": "", "LANDMARK": "", "ESITEID": 759462}, "geometry": {"type": "Point", "coordinates": [-68.7406773885295, 45.7449861904714]}}, {"type": "Feature", "properties": {"kind": "building", "source": "maine-e911", "in_osm": true, "dist_m": 36, "ADDRESS": "32 Richardson Way", "ST_FULLNAME": "Richardson Way", "TOWN": "T1 R8 WELS", "PLACE_TYPE": "", "PLACEMENT": "", "BUILDING": "", "UNIT": "", "LANDMARK": "", "ESITEID": 759466}, "geometry": {"type": "Point", "coordinates": [-68.8167465075808, 45.728455103498]}}, {"type": "Feature", "properties": {"kind": "building", "source": "maine-e911", "in_osm": true, "dist_m": 53, "ADDRESS": "40 Richardson Way", "ST_FULLNAME": "Richardson Way", "TOWN": "T1 R8 WELS", "PLACE_TYPE": "", "PLACEMENT": "", "BUILDING": "", "UNIT": "", "LANDMARK": "", "ESITEID": 759467}, "geometry": {"type": "Point", "coordinates": [-68.8155577385208, 45.7284486902617]}}, {"type": "Feature", "properties": {"kind": "building", "source": "maine-e911", "in_osm": false, "dist_m": 44, "ADDRESS": "35 Klimas Dr", "ST_FULLNAME": "Klimas Drive", "TOWN": "T1 R8 WELS", "PLACE_TYPE": "", "PLACEMENT": "", "BUILDING": "", "UNIT": "", "LANDMARK": "", "ESITEID": 759686}, "geometry": {"type": "Point", "coordinates": [-68.7466377659461, 45.7488473830918]}}, {"type": "Feature", "properties": {"kind": "building", "source": "maine-e911", "in_osm": false, "dist_m": 49, "ADDRESS": "30 Klimas Dr", "ST_FULLNAME": "Klimas Drive", "TOWN": "T1 R8 WELS", "PLACE_TYPE": "", "PLACEMENT": "", "BUILDING": "", "UNIT": "", "LANDMARK": "", "ESITEID": 759687}, "geometry": {"type": "Point", "coordinates": [-68.7472043589794, 45.7486461213188]}}, {"type": "Feature", "properties": {"kind": "building", "source": "maine-e911", "in_osm": false, "dist_m": 57, "ADDRESS": "28 Klimas Dr", "ST_FULLNAME": "Klimas Drive", "TOWN": "T1 R8 WELS", "PLACE_TYPE": "", "PLACEMENT": "", "BUILDING": "", "UNIT": "", "LANDMARK": "", "ESITEID": 759688}, "geometry": {"type": "Point", "coordinates": [-68.7474623980526, 45.748444175159]}}, {"type": "Feature", "properties": {"kind": "building", "source": "maine-e911", "in_osm": false, "dist_m": 25, "ADDRESS": "27 Hillside Ln", "ST_FULLNAME": "Hillside Lane", "TOWN": "T1 R8 WELS", "PLACE_TYPE": "", "PLACEMENT": "", "BUILDING": "", "UNIT": "", "LANDMARK": "", "ESITEID": 759689}, "geometry": {"type": "Point", "coordinates": [-68.748888876392, 45.7485733295997]}}, {"type": "Feature", "properties": {"kind": "building", "source": "maine-e911", "in_osm": false, "dist_m": 31, "ADDRESS": "46 Richardson Way", "ST_FULLNAME": "Richardson Way", "TOWN": "T1 R8 WELS", "PLACE_TYPE": "", "PLACEMENT": "", "BUILDING": "", "UNIT": "", "LANDMARK": "", "ESITEID": 775975}, "geometry": {"type": "Point", "coordinates": [-68.8146642466377, 45.7285372521701]}}, {"type": "Feature", "properties": {"kind": "building", "source": "maine-e911", "in_osm": false, "dist_m": 40, "ADDRESS": "160 Black Cat Rd", "ST_FULLNAME": "Black Cat Road", "TOWN": "T1 R8 WELS", "PLACE_TYPE": "", "PLACEMENT": "", "BUILDING": "", "UNIT": "", "LANDMARK": "", "ESITEID": 777138}, "geometry": {"type": "Point", "coordinates": [-68.8231145301675, 45.7264309637821]}}, {"type": "Feature", "properties": {"kind": "building", "source": "maine-e911", "in_osm": false, "dist_m": 42, "ADDRESS": "172 Black Cat Rd", "ST_FULLNAME": "Black Cat Road", "TOWN": "T1 R8 WELS", "PLACE_TYPE": "", "PLACEMENT": "", "BUILDING": "", "UNIT": "", "LANDMARK": "", "ESITEID": 777139}, "geometry": {"type": "Point", "coordinates": [-68.8221002807423, 45.7261143617486]}}, {"type": "Feature", "properties": {"kind": "building", "source": "maine-e911", "in_osm": false, "dist_m": 51, "ADDRESS": "178 Black Cat Rd", "ST_FULLNAME": "Black Cat Road", "TOWN": "T1 R8 WELS", "PLACE_TYPE": "", "PLACEMENT": "", "BUILDING": "", "UNIT": "", "LANDMARK": "", "ESITEID": 777140}, "geometry": {"type": "Point", "coordinates": [-68.8215740125563, 45.7259155239414]}}, {"type": "Feature", "properties": {"kind": "building", "source": "maine-e911", "in_osm": true, "dist_m": 12, "ADDRESS": "188 Black Cat Rd", "ST_FULLNAME": "Black Cat Road", "TOWN": "T1 R8 WELS", "PLACE_TYPE": "", "PLACEMENT": "", "BUILDING": "", "UNIT": "", "LANDMARK": "", "ESITEID": 777141}, "geometry": {"type": "Point", "coordinates": [-68.8204764799071, 45.7255267711226]}}, {"type": "Feature", "properties": {"kind": "building", "source": "maine-e911", "in_osm": true, "dist_m": 36, "ADDRESS": "196 Black Cat Rd", "ST_FULLNAME": "Black Cat Road", "TOWN": "T1 R8 WELS", "PLACE_TYPE": "", "PLACEMENT": "", "BUILDING": "", "UNIT": "", "LANDMARK": "", "ESITEID": 777142}, "geometry": {"type": "Point", "coordinates": [-68.8200597455129, 45.7252380905541]}}, {"type": "Feature", "properties": {"kind": "building", "source": "maine-e911", "in_osm": true, "dist_m": 57, "ADDRESS": "10 Twin Pines Rd", "ST_FULLNAME": "Twin Pines Road", "TOWN": "T1 R8 WELS", "PLACE_TYPE": "", "PLACEMENT": "", "BUILDING": "", "UNIT": "", "LANDMARK": "", "ESITEID": 777143}, "geometry": {"type": "Point", "coordinates": [-68.8193840972552, 45.7255385506607]}}, {"type": "Feature", "properties": {"kind": "building", "source": "maine-e911", "in_osm": true, "dist_m": 45, "ADDRESS": "14 Twin Pines Rd", "ST_FULLNAME": "Twin Pines Road", "TOWN": "T1 R8 WELS", "PLACE_TYPE": "", "PLACEMENT": "", "BUILDING": "", "UNIT": "", "LANDMARK": "", "ESITEID": 777144}, "geometry": {"type": "Point", "coordinates": [-68.8193961072004, 45.7257995923002]}}, {"type": "Feature", "properties": {"kind": "building", "source": "maine-e911", "in_osm": false, "dist_m": 64, "ADDRESS": "28 Twin Pines Rd", "ST_FULLNAME": "Twin Pines Road", "TOWN": "T1 R8 WELS", "PLACE_TYPE": "", "PLACEMENT": "", "BUILDING": "", "UNIT": "", "LANDMARK": "", "ESITEID": 777146}, "geometry": {"type": "Point", "coordinates": [-68.8192844494214, 45.7265509809099]}}, {"type": "Feature", "properties": {"kind": "building", "source": "maine-e911", "in_osm": true, "dist_m": 116, "ADDRESS": "10 Chanterelle Ln", "ST_FULLNAME": "Chanterelle Lane", "TOWN": "T1 R8 WELS", "PLACE_TYPE": "", "PLACEMENT": "", "BUILDING": "", "UNIT": "", "LANDMARK": "", "ESITEID": 777147}, "geometry": {"type": "Point", "coordinates": [-68.818199523315, 45.7262387328333]}}, {"type": "Feature", "properties": {"kind": "building", "source": "maine-e911", "in_osm": false, "dist_m": 17, "ADDRESS": "26 Boom Chain Ln", "ST_FULLNAME": "Boom Chain Lane", "TOWN": "T1 R8 WELS", "PLACE_TYPE": "Seasonal", "PLACEMENT": "", "BUILDING": "", "UNIT": "", "LANDMARK": "", "ESITEID": 846387}, "geometry": {"type": "Point", "coordinates": [-68.7389974714996, 45.7449974955409]}}, {"type": "Feature", "properties": {"kind": "building", "source": "maine-e911", "in_osm": false, "dist_m": 0, "ADDRESS": "28 Boom Chain Ln", "ST_FULLNAME": "Boom Chain Lane", "TOWN": "T1 R8 WELS", "PLACE_TYPE": "Seasonal", "PLACEMENT": "", "BUILDING": "", "UNIT": "", "LANDMARK": "", "ESITEID": 846388}, "geometry": {"type": "Point", "coordinates": [-68.7389233124465, 45.7454294521892]}}, {"type": "Feature", "properties": {"kind": "building", "source": "maine-e911", "in_osm": false, "dist_m": 32, "ADDRESS": "8 Beech Ln", "ST_FULLNAME": "Beech Lane", "TOWN": "T1 R8 WELS", "PLACE_TYPE": "Seasonal", "PLACEMENT": "", "BUILDING": "", "UNIT": "", "LANDMARK": "", "ESITEID": 846389}, "geometry": {"type": "Point", "coordinates": [-68.7341103495015, 45.7458846730313]}}, {"type": "Feature", "properties": {"kind": "building", "source": "maine-e911", "in_osm": true, "dist_m": 48, "ADDRESS": "76 Muriel Blvd", "ST_FULLNAME": "Muriel Boulevard", "TOWN": "T1 R8 WELS", "PLACE_TYPE": "Residential", "PLACEMENT": "Structure - Rooftop", "BUILDING": "", "UNIT": "", "LANDMARK": "", "ESITEID": 846394}, "geometry": {"type": "Point", "coordinates": [-68.7938793373177, 45.7302268245693]}}, {"type": "Feature", "properties": {"kind": "building", "source": "maine-e911", "in_osm": false, "dist_m": 31, "ADDRESS": "16 Richardson Way", "ST_FULLNAME": "Richardson Way", "TOWN": "T1 R8 WELS", "PLACE_TYPE": "Seasonal", "PLACEMENT": "", "BUILDING": "", "UNIT": "", "LANDMARK": "", "ESITEID": 846395}, "geometry": {"type": "Point", "coordinates": [-68.8178083263069, 45.7273627300841]}}, {"type": "Feature", "properties": {"kind": "building", "source": "maine-e911", "in_osm": false, "dist_m": 41, "ADDRESS": "50 Rolands Way", "ST_FULLNAME": "Rolands Way", "TOWN": "T1 R8 WELS", "PLACE_TYPE": "Seasonal", "PLACEMENT": "", "BUILDING": "", "UNIT": "", "LANDMARK": "", "ESITEID": 1409621}, "geometry": {"type": "Point", "coordinates": [-68.7609055852037, 45.7525279319581]}}, {"type": "Feature", "properties": {"kind": "building", "source": "maine-e911", "in_osm": false, "dist_m": 11, "ADDRESS": "32 Rolands Way", "ST_FULLNAME": "Rolands Way", "TOWN": "T1 R8 WELS", "PLACE_TYPE": "Seasonal", "PLACEMENT": "", "BUILDING": "", "UNIT": "", "LANDMARK": "", "ESITEID": 1409622}, "geometry": {"type": "Point", "coordinates": [-68.7617836845853, 45.7516341924383]}}, {"type": "Feature", "properties": {"kind": "building", "source": "maine-e911", "in_osm": true, "dist_m": 45, "ADDRESS": "482 Hawk Hvn", "ST_FULLNAME": "Hawk Haven", "TOWN": "T2 R8 WELS", "PLACE_TYPE": "Single Family", "PLACEMENT": "", "BUILDING": "", "UNIT": "", "LANDMARK": "", "ESITEID": 1412988}, "geometry": {"type": "Point", "coordinates": [-68.7476143808164, 45.7632147164098]}}, {"type": "Feature", "properties": {"kind": "building", "source": "maine-e911", "in_osm": true, "dist_m": 64, "ADDRESS": "270 Honeysuckle Ln", "ST_FULLNAME": "Honeysuckle Lane", "TOWN": "T2 R8 WELS", "PLACE_TYPE": "Single Family", "PLACEMENT": "", "BUILDING": "", "UNIT": "", "LANDMARK": "", "ESITEID": 1415313}, "geometry": {"type": "Point", "coordinates": [-68.7890649002706, 45.7793470226864]}}, {"type": "Feature", "properties": {"kind": "building", "source": "maine-e911", "in_osm": true, "dist_m": 28, "ADDRESS": "174 White Cap Way", "ST_FULLNAME": "White Cap Way", "TOWN": "T2 R8 WELS", "PLACE_TYPE": "Single Family", "PLACEMENT": "", "BUILDING": "", "UNIT": "", "LANDMARK": "", "ESITEID": 1415314}, "geometry": {"type": "Point", "coordinates": [-68.8031731856269, 45.7874953195657]}}, {"type": "Feature", "properties": {"kind": "building", "source": "maine-e911", "in_osm": true, "dist_m": 17, "ADDRESS": "158 White Cap Way", "ST_FULLNAME": "White Cap Way", "TOWN": "T2 R8 WELS", "PLACE_TYPE": "Single Family", "PLACEMENT": "", "BUILDING": "", "UNIT": "", "LANDMARK": "", "ESITEID": 1415315}, "geometry": {"type": "Point", "coordinates": [-68.8013694995225, 45.7863986151375]}}, {"type": "Feature", "properties": {"kind": "building", "source": "maine-e911", "in_osm": true, "dist_m": 35, "ADDRESS": "340 N Shore Rd", "ST_FULLNAME": "North Shore Road", "TOWN": "T2 R8 WELS", "PLACE_TYPE": "Single Family", "PLACEMENT": "", "BUILDING": "", "UNIT": "", "LANDMARK": "", "ESITEID": 1415318}, "geometry": {"type": "Point", "coordinates": [-68.8183463186535, 45.7879704833854]}}, {"type": "Feature", "properties": {"kind": "building", "source": "maine-e911", "in_osm": true, "dist_m": 65, "ADDRESS": "357 N Shore Rd", "ST_FULLNAME": "North Shore Road", "TOWN": "T2 R8 WELS", "PLACE_TYPE": "Single Family", "PLACEMENT": "", "BUILDING": "", "UNIT": "", "LANDMARK": "", "ESITEID": 1415323}, "geometry": {"type": "Point", "coordinates": [-68.821400282465, 45.7884658349366]}}, {"type": "Feature", "properties": {"kind": "building", "source": "maine-e911", "in_osm": true, "dist_m": 50, "ADDRESS": "354 N Shore Rd", "ST_FULLNAME": "North Shore Road", "TOWN": "T2 R8 WELS", "PLACE_TYPE": "Single Family", "PLACEMENT": "", "BUILDING": "", "UNIT": "", "LANDMARK": "", "ESITEID": 1415324}, "geometry": {"type": "Point", "coordinates": [-68.8211175148533, 45.7883798861232]}}, {"type": "Feature", "properties": {"kind": "building", "source": "maine-e911", "in_osm": true, "dist_m": 32, "ADDRESS": "358 N Shore Rd", "ST_FULLNAME": "North Shore Road", "TOWN": "T2 R8 WELS", "PLACE_TYPE": "Single Family", "PLACEMENT": "", "BUILDING": "", "UNIT": "", "LANDMARK": "", "ESITEID": 1415325}, "geometry": {"type": "Point", "coordinates": [-68.8214849569332, 45.7881374423584]}}, {"type": "Feature", "properties": {"kind": "building", "source": "maine-e911", "in_osm": false, "dist_m": 47, "ADDRESS": "74 Muriel Blvd", "ST_FULLNAME": "Muriel Boulevard", "TOWN": "T1 R8 WELS", "PLACE_TYPE": "Residential", "PLACEMENT": "Parcel - Manual Placement", "BUILDING": "", "UNIT": "", "LANDMARK": "", "ESITEID": 1489634}, "geometry": {"type": "Point", "coordinates": [-68.7941215410846, 45.7299738084487]}}, {"type": "Feature", "properties": {"kind": "building", "source": "maine-e911", "in_osm": true, "dist_m": 118, "ADDRESS": "8 Frederickas Way", "ST_FULLNAME": "Frederickas Way", "TOWN": "T1 R9 WELS", "PLACE_TYPE": "", "PLACEMENT": "", "BUILDING": "", "UNIT": "", "LANDMARK": "", "ESITEID": 738349}, "geometry": {"type": "Point", "coordinates": [-68.8376338508686, 45.729571288832]}}, {"type": "Feature", "properties": {"kind": "building", "source": "maine-e911", "in_osm": true, "dist_m": 61, "ADDRESS": "26 Black Cat Rd", "ST_FULLNAME": "Black Cat Road", "TOWN": "T1 R9 WELS", "PLACE_TYPE": "", "PLACEMENT": "", "BUILDING": "", "UNIT": "", "LANDMARK": "", "ESITEID": 738352}, "geometry": {"type": "Point", "coordinates": [-68.8354079038987, 45.7282494902358]}}, {"type": "Feature", "properties": {"kind": "building", "source": "maine-e911", "in_osm": true, "dist_m": 151, "ADDRESS": "4 Frederickas Way", "ST_FULLNAME": "Frederickas Way", "TOWN": "T1 R9 WELS", "PLACE_TYPE": "", "PLACEMENT": "", "BUILDING": "", "UNIT": "", "LANDMARK": "", "ESITEID": 745791}, "geometry": {"type": "Point", "coordinates": [-68.8378721464757, 45.7293871113334]}}, {"type": "Feature", "properties": {"kind": "building", "source": "maine-e911", "in_osm": true, "dist_m": 14, "ADDRESS": "26 Pine Dr", "ST_FULLNAME": "Pine Drive", "TOWN": "T1 R9 WELS", "PLACE_TYPE": "", "PLACEMENT": "", "BUILDING": "", "UNIT": "", "LANDMARK": "", "ESITEID": 699109}, "geometry": {"type": "Point", "coordinates": [-68.833431438631, 45.7295022341654]}}, {"type": "Feature", "properties": {"kind": "building", "source": "maine-e911", "in_osm": true, "dist_m": 175, "ADDRESS": "6 Old Park Rd", "ST_FULLNAME": "Old Park Road", "TOWN": "T1 R9 WELS", "PLACE_TYPE": "", "PLACEMENT": "", "BUILDING": "", "UNIT": "", "LANDMARK": "", "ESITEID": 714240}, "geometry": {"type": "Point", "coordinates": [-68.8392415726592, 45.7313872180515]}}, {"type": "Feature", "properties": {"kind": "building", "source": "maine-e911", "in_osm": false, "dist_m": 23, "ADDRESS": "5 Clear Water Ln", "ST_FULLNAME": "Clear Water Lane", "TOWN": "T1 R9 WELS", "PLACE_TYPE": "", "PLACEMENT": "", "BUILDING": "", "UNIT": "", "LANDMARK": "", "ESITEID": 714235}, "geometry": {"type": "Point", "coordinates": [-68.828938731154, 45.7276999411922]}}, {"type": "Feature", "properties": {"kind": "building", "source": "maine-e911", "in_osm": true, "dist_m": 53, "ADDRESS": "25 Pine Dr", "ST_FULLNAME": "Pine Drive", "TOWN": "T1 R9 WELS", "PLACE_TYPE": "", "PLACEMENT": "", "BUILDING": "", "UNIT": "", "LANDMARK": "", "ESITEID": 699108}, "geometry": {"type": "Point", "coordinates": [-68.8324210383071, 45.7300093004395]}}, {"type": "Feature", "properties": {"kind": "building", "source": "maine-e911", "in_osm": false, "dist_m": 17, "ADDRESS": "27 Sunrise Shores", "ST_FULLNAME": "Sunrise Shores", "TOWN": "T1 R9 WELS", "PLACE_TYPE": "", "PLACEMENT": "", "BUILDING": "", "UNIT": "", "LANDMARK": "", "ESITEID": 699110}, "geometry": {"type": "Point", "coordinates": [-68.8304825789645, 45.7292773780938]}}, {"type": "Feature", "properties": {"kind": "building", "source": "maine-e911", "in_osm": true, "dist_m": 142, "ADDRESS": "12 Old Park Rd", "ST_FULLNAME": "Old Park Road", "TOWN": "T1 R9 WELS", "PLACE_TYPE": "", "PLACEMENT": "", "BUILDING": "", "UNIT": "", "LANDMARK": "", "ESITEID": 714249}, "geometry": {"type": "Point", "coordinates": [-68.8389450101575, 45.7317198289539]}}, {"type": "Feature", "properties": {"kind": "building", "source": "maine-e911", "in_osm": false, "dist_m": 18, "ADDRESS": "8 Skips Way", "ST_FULLNAME": "Skips Way", "TOWN": "T1 R9 WELS", "PLACE_TYPE": "", "PLACEMENT": "", "BUILDING": "", "UNIT": "", "LANDMARK": "", "ESITEID": 714233}, "geometry": {"type": "Point", "coordinates": [-68.8346869750272, 45.7286669855305]}}, {"type": "Feature", "properties": {"kind": "building", "source": "maine-e911", "in_osm": true, "dist_m": 129, "ADDRESS": "1605 Millinocket Lake Rd", "ST_FULLNAME": "Millinocket Lake Road", "TOWN": "T1 R9 WELS", "PLACE_TYPE": "", "PLACEMENT": "", "BUILDING": "", "UNIT": "", "LANDMARK": "", "ESITEID": 737903}, "geometry": {"type": "Point", "coordinates": [-68.8377239190427, 45.729535413691]}}, {"type": "Feature", "properties": {"kind": "building", "source": "maine-e911", "in_osm": false, "dist_m": 71, "ADDRESS": "4 Clear Water Ln", "ST_FULLNAME": "Clear Water Lane", "TOWN": "T1 R9 WELS", "PLACE_TYPE": "", "PLACEMENT": "", "BUILDING": "", "UNIT": "", "LANDMARK": "", "ESITEID": 745790}, "geometry": {"type": "Point", "coordinates": [-68.8292993696966, 45.7274394580015]}}, {"type": "Feature", "properties": {"kind": "building", "source": "maine-e911", "in_osm": false, "dist_m": 33, "ADDRESS": "118 Black Cat Rd", "ST_FULLNAME": "Black Cat Road", "TOWN": "T1 R9 WELS", "PLACE_TYPE": "Seasonal", "PLACEMENT": "", "BUILDING": "", "UNIT": "", "LANDMARK": "", "ESITEID": 714236}, "geometry": {"type": "Point", "coordinates": [-68.8274558593652, 45.7272161697977]}}, {"type": "Feature", "properties": {"kind": "building", "source": "maine-e911", "in_osm": false, "dist_m": 49, "ADDRESS": "29 Pine Dr", "ST_FULLNAME": "Pine Drive", "TOWN": "T1 R9 WELS", "PLACE_TYPE": "", "PLACEMENT": "", "BUILDING": "", "UNIT": "", "LANDMARK": "", "ESITEID": 709016}, "geometry": {"type": "Point", "coordinates": [-68.8332121782784, 45.7297629367725]}}, {"type": "Feature", "properties": {"kind": "building", "source": "maine-e911", "in_osm": true, "dist_m": 19, "ADDRESS": "5 Boulder Way", "ST_FULLNAME": "Boulder Way", "TOWN": "T1 R9 WELS", "PLACE_TYPE": "", "PLACEMENT": "", "BUILDING": "", "UNIT": "", "LANDMARK": "", "ESITEID": 699107}, "geometry": {"type": "Point", "coordinates": [-68.831431495457, 45.7299853428535]}}, {"type": "Feature", "properties": {"kind": "building", "source": "maine-e911", "in_osm": true, "dist_m": 37, "ADDRESS": "11 Skips Way", "ST_FULLNAME": "Skips Way", "TOWN": "T1 R9 WELS", "PLACE_TYPE": "", "PLACEMENT": "", "BUILDING": "", "UNIT": "", "LANDMARK": "", "ESITEID": 714231}, "geometry": {"type": "Point", "coordinates": [-68.8340381601152, 45.7285985391135]}}, {"type": "Feature", "properties": {"kind": "building", "source": "maine-e911", "in_osm": true, "dist_m": 31, "ADDRESS": "11 Clear Water Ln", "ST_FULLNAME": "Clear Water Lane", "TOWN": "T1 R9 WELS", "PLACE_TYPE": "", "PLACEMENT": "", "BUILDING": "", "UNIT": "", "LANDMARK": "", "ESITEID": 714244}, "geometry": {"type": "Point", "coordinates": [-68.8293233594798, 45.7280020424552]}}, {"type": "Feature", "properties": {"kind": "building", "source": "maine-e911", "in_osm": false, "dist_m": 166, "ADDRESS": "1587 Millinocket Lake Rd", "ST_FULLNAME": "Millinocket Lake Road", "TOWN": "T1 R9 WELS", "PLACE_TYPE": "", "PLACEMENT": "", "BUILDING": "", "UNIT": "", "LANDMARK": "", "ESITEID": 738358}, "geometry": {"type": "Point", "coordinates": [-68.837507745092, 45.7287385378244]}}, {"type": "Feature", "properties": {"kind": "building", "source": "maine-e911", "in_osm": true, "dist_m": 31, "ADDRESS": "25 Frog Hollow Ln", "ST_FULLNAME": "Frog Hollow Lane", "TOWN": "T1 R9 WELS", "PLACE_TYPE": "Residential", "PLACEMENT": "", "BUILDING": "", "UNIT": "", "LANDMARK": "", "ESITEID": 699144}, "geometry": {"type": "Point", "coordinates": [-68.8364486340101, 45.7327423706437]}}, {"type": "Feature", "properties": {"kind": "building", "source": "maine-e911", "in_osm": true, "dist_m": 59, "ADDRESS": "28 Black Cat Rd", "ST_FULLNAME": "Black Cat Road", "TOWN": "T1 R9 WELS", "PLACE_TYPE": "", "PLACEMENT": "", "BUILDING": "", "UNIT": "", "LANDMARK": "", "ESITEID": 738351}, "geometry": {"type": "Point", "coordinates": [-68.8349386848999, 45.7282938172174]}}, {"type": "Feature", "properties": {"kind": "building", "source": "maine-e911", "in_osm": true, "dist_m": 1, "ADDRESS": "20 Frederickas Way", "ST_FULLNAME": "Frederickas Way", "TOWN": "T1 R9 WELS", "PLACE_TYPE": "", "PLACEMENT": "", "BUILDING": "", "UNIT": "", "LANDMARK": "", "ESITEID": 738361}, "geometry": {"type": "Point", "coordinates": [-68.8363027367702, 45.7298889169584]}}, {"type": "Feature", "properties": {"kind": "building", "source": "maine-e911", "in_osm": true, "dist_m": 27, "ADDRESS": "17 Sunrise Shores", "ST_FULLNAME": "Sunrise Shores", "TOWN": "T1 R9 WELS", "PLACE_TYPE": "", "PLACEMENT": "", "BUILDING": "", "UNIT": "", "LANDMARK": "", "ESITEID": 699111}, "geometry": {"type": "Point", "coordinates": [-68.8301233801389, 45.7290608259837]}}, {"type": "Feature", "properties": {"kind": "building", "source": "maine-e911", "in_osm": false, "dist_m": 146, "ADDRESS": "89 Black Cat Rd", "ST_FULLNAME": "Black Cat Road", "TOWN": "T1 R9 WELS", "PLACE_TYPE": "", "PLACEMENT": "", "BUILDING": "", "UNIT": "", "LANDMARK": "", "ESITEID": 699112}, "geometry": {"type": "Point", "coordinates": [-68.8297250824486, 45.7269090472927]}}, {"type": "Feature", "properties": {"kind": "building", "source": "maine-e911", "in_osm": false, "dist_m": 40, "ADDRESS": "120 Black Cat Rd", "ST_FULLNAME": "Black Cat Road", "TOWN": "T1 R9 WELS", "PLACE_TYPE": "Seasonal", "PLACEMENT": "", "BUILDING": "", "UNIT": "", "LANDMARK": "", "ESITEID": 714237}, "geometry": {"type": "Point", "coordinates": [-68.8268136488866, 45.7270981880252]}}, {"type": "Feature", "properties": {"kind": "building", "source": "maine-e911", "in_osm": true, "dist_m": 19, "ADDRESS": "45 Loon Ln", "ST_FULLNAME": "Loon Lane", "TOWN": "T1 R9 WELS", "PLACE_TYPE": "", "PLACEMENT": "", "BUILDING": "", "UNIT": "", "LANDMARK": "", "ESITEID": 714260}, "geometry": {"type": "Point", "coordinates": [-68.8349553092603, 45.7313766064754]}}, {"type": "Feature", "properties": {"kind": "building", "source": "maine-e911", "in_osm": true, "dist_m": 19, "ADDRESS": "41 Loon Ln", "ST_FULLNAME": "Loon Lane", "TOWN": "T1 R9 WELS", "PLACE_TYPE": "", "PLACEMENT": "", "BUILDING": "", "UNIT": "", "LANDMARK": "", "ESITEID": 714251}, "geometry": {"type": "Point", "coordinates": [-68.8353667976407, 45.731305193961]}}, {"type": "Feature", "properties": {"kind": "building", "source": "maine-e911", "in_osm": true, "dist_m": 25, "ADDRESS": "98 Black Cat Rd", "ST_FULLNAME": "Black Cat Road", "TOWN": "T1 R9 WELS", "PLACE_TYPE": "", "PLACEMENT": "", "BUILDING": "", "UNIT": "", "LANDMARK": "", "ESITEID": 699082}, "geometry": {"type": "Point", "coordinates": [-68.8285405257624, 45.7276363388655]}}, {"type": "Feature", "properties": {"kind": "building", "source": "maine-e911", "in_osm": false, "dist_m": 237, "ADDRESS": "6 Black Cat Rd", "ST_FULLNAME": "Black Cat Road", "TOWN": "T1 R9 WELS", "PLACE_TYPE": "", "PLACEMENT": "", "BUILDING": "", "UNIT": "", "LANDMARK": "", "ESITEID": 745801}, "geometry": {"type": "Point", "coordinates": [-68.8372864711472, 45.7274871148971]}}, {"type": "Feature", "properties": {"kind": "building", "source": "maine-e911", "in_osm": true, "dist_m": 24, "ADDRESS": "1 Boulder Way", "ST_FULLNAME": "Boulder Way", "TOWN": "T1 R9 WELS", "PLACE_TYPE": "", "PLACEMENT": "", "BUILDING": "", "UNIT": "", "LANDMARK": "", "ESITEID": 723792}, "geometry": {"type": "Point", "coordinates": [-68.8307901281046, 45.7295748595605]}}, {"type": "Feature", "properties": {"kind": "building", "source": "maine-e911", "in_osm": false, "dist_m": 74, "ADDRESS": "2 Clear Water Ln", "ST_FULLNAME": "Clear Water Lane", "TOWN": "T1 R9 WELS", "PLACE_TYPE": "", "PLACEMENT": "", "BUILDING": "", "UNIT": "", "LANDMARK": "", "ESITEID": 745785}, "geometry": {"type": "Point", "coordinates": [-68.829145618244, 45.7272862149561]}}, {"type": "Feature", "properties": {"kind": "building", "source": "maine-e911", "in_osm": true, "dist_m": 156, "ADDRESS": "1573 Millinocket Lake Rd", "ST_FULLNAME": "Millinocket Lake Road", "TOWN": "T1 R9 WELS", "PLACE_TYPE": "", "PLACEMENT": "", "BUILDING": "", "UNIT": "", "LANDMARK": "", "ESITEID": 738359}, "geometry": {"type": "Point", "coordinates": [-68.8370655618589, 45.7283238723856]}}, {"type": "Feature", "properties": {"kind": "building", "source": "maine-e911", "in_osm": true, "dist_m": 41, "ADDRESS": "9 Skips Way", "ST_FULLNAME": "Skips Way", "TOWN": "T1 R9 WELS", "PLACE_TYPE": "", "PLACEMENT": "", "BUILDING": "", "UNIT": "", "LANDMARK": "", "ESITEID": 714232}, "geometry": {"type": "Point", "coordinates": [-68.8337873104831, 45.7286791814533]}}, {"type": "Feature", "properties": {"kind": "building", "source": "maine-e911", "in_osm": true, "dist_m": 127, "ADDRESS": "5 Frederickas Way", "ST_FULLNAME": "Frederickas Way", "TOWN": "T1 R9 WELS", "PLACE_TYPE": "", "PLACEMENT": "", "BUILDING": "", "UNIT": "", "LANDMARK": "", "ESITEID": 738350}, "geometry": {"type": "Point", "coordinates": [-68.8375127617434, 45.7292245868495]}}, {"type": "Feature", "properties": {"kind": "building", "source": "maine-e911", "in_osm": true, "dist_m": 49, "ADDRESS": "13 Sunrise Shores", "ST_FULLNAME": "Sunrise Shores", "TOWN": "T1 R9 WELS", "PLACE_TYPE": "Seasonal", "PLACEMENT": "", "BUILDING": "", "UNIT": "", "LANDMARK": "", "ESITEID": 749772}, "geometry": {"type": "Point", "coordinates": [-68.8295858871881, 45.7283084607452]}}, {"type": "Feature", "properties": {"kind": "building", "source": "maine-e911", "in_osm": true, "dist_m": 243, "ADDRESS": "1900 Golden Rd", "ST_FULLNAME": "Golden Road", "TOWN": "T1 R9 WELS", "PLACE_TYPE": "", "PLACEMENT": "", "BUILDING": "", "UNIT": "", "LANDMARK": "", "ESITEID": 763239}, "geometry": {"type": "Point", "coordinates": [-68.839833182104, 45.7312485369501]}}, {"type": "Feature", "properties": {"kind": "building", "source": "maine-e911", "in_osm": false, "dist_m": 161, "ADDRESS": "15 Black Cat Rd", "ST_FULLNAME": "Black Cat Road", "TOWN": "T1 R9 WELS", "PLACE_TYPE": "", "PLACEMENT": "", "BUILDING": "", "UNIT": "", "LANDMARK": "", "ESITEID": 752196}, "geometry": {"type": "Point", "coordinates": [-68.8362131465052, 45.7275620879244]}}, {"type": "Feature", "properties": {"kind": "building", "source": "maine-e911", "in_osm": false, "dist_m": 24, "ADDRESS": "32 Pine Dr", "ST_FULLNAME": "Pine Drive", "TOWN": "T1 R9 WELS", "PLACE_TYPE": "", "PLACEMENT": "", "BUILDING": "", "UNIT": "", "LANDMARK": "", "ESITEID": 763230}, "geometry": {"type": "Point", "coordinates": [-68.8341174737248, 45.7300252771729]}}, {"type": "Feature", "properties": {"kind": "building", "source": "maine-e911", "in_osm": false, "dist_m": 118, "ADDRESS": "23 Black Cat Rd", "ST_FULLNAME": "Black Cat Road", "TOWN": "T1 R9 WELS", "PLACE_TYPE": "", "PLACEMENT": "", "BUILDING": "", "UNIT": "", "LANDMARK": "", "ESITEID": 752200}, "geometry": {"type": "Point", "coordinates": [-68.8355121967669, 45.7277455968981]}}, {"type": "Feature", "properties": {"kind": "building", "source": "maine-e911", "in_osm": true, "dist_m": 267, "ADDRESS": "1902 Golden Rd", "ST_FULLNAME": "Golden Road", "TOWN": "T1 R9 WELS", "PLACE_TYPE": "", "PLACEMENT": "", "BUILDING": "", "UNIT": "", "LANDMARK": "", "ESITEID": 763240}, "geometry": {"type": "Point", "coordinates": [-68.8400642294153, 45.7313523694833]}}, {"type": "Feature", "properties": {"kind": "building", "source": "maine-e911", "in_osm": false, "dist_m": 42, "ADDRESS": "3 Boulder Way", "ST_FULLNAME": "Boulder Way", "TOWN": "T1 R9 WELS", "PLACE_TYPE": "", "PLACEMENT": "", "BUILDING": "", "UNIT": "", "LANDMARK": "", "ESITEID": 746192}, "geometry": {"type": "Point", "coordinates": [-68.8310593821273, 45.7297867762083]}}, {"type": "Feature", "properties": {"kind": "building", "source": "maine-e911", "in_osm": false, "dist_m": 186, "ADDRESS": "81 Black Cat Rd", "ST_FULLNAME": "Black Cat Road", "TOWN": "T1 R9 WELS", "PLACE_TYPE": "", "PLACEMENT": "", "BUILDING": "", "UNIT": "", "LANDMARK": "", "ESITEID": 749897}, "geometry": {"type": "Point", "coordinates": [-68.8304568619217, 45.727157656943]}}, {"type": "Feature", "properties": {"kind": "building", "source": "maine-e911", "in_osm": true, "dist_m": 23, "ADDRESS": "53 Loon Ln", "ST_FULLNAME": "Loon Lane", "TOWN": "T1 R9 WELS", "PLACE_TYPE": "", "PLACEMENT": "", "BUILDING": "", "UNIT": "", "LANDMARK": "", "ESITEID": 763233}, "geometry": {"type": "Point", "coordinates": [-68.8339780068354, 45.7315507056146]}}, {"type": "Feature", "properties": {"kind": "building", "source": "maine-e911", "in_osm": true, "dist_m": 60, "ADDRESS": "7 Skips Way", "ST_FULLNAME": "Skips Way", "TOWN": "T1 R9 WELS", "PLACE_TYPE": "", "PLACEMENT": "", "BUILDING": "", "UNIT": "", "LANDMARK": "", "ESITEID": 762843}, "geometry": {"type": "Point", "coordinates": [-68.8335882682393, 45.728624887066]}}, {"type": "Feature", "properties": {"kind": "building", "source": "maine-e911", "in_osm": false, "dist_m": 156, "ADDRESS": "11 Pine Dr", "ST_FULLNAME": "Pine Drive", "TOWN": "T1 R9 WELS", "PLACE_TYPE": "", "PLACEMENT": "", "BUILDING": "", "UNIT": "", "LANDMARK": "", "ESITEID": 752204}, "geometry": {"type": "Point", "coordinates": [-68.832431703307, 45.7285916939711]}}, {"type": "Feature", "properties": {"kind": "building", "source": "maine-e911", "in_osm": false, "dist_m": 13, "ADDRESS": "25 Loon Ln", "ST_FULLNAME": "Loon Lane", "TOWN": "T1 R9 WELS", "PLACE_TYPE": "", "PLACEMENT": "", "BUILDING": "", "UNIT": "", "LANDMARK": "", "ESITEID": 763238}, "geometry": {"type": "Point", "coordinates": [-68.8360939709848, 45.730959709708]}}, {"type": "Feature", "properties": {"kind": "building", "source": "maine-e911", "in_osm": false, "dist_m": 24, "ADDRESS": "57 Loon Ln", "ST_FULLNAME": "Loon Lane", "TOWN": "T1 R9 WELS", "PLACE_TYPE": "", "PLACEMENT": "", "BUILDING": "", "UNIT": "", "LANDMARK": "", "ESITEID": 763232}, "geometry": {"type": "Point", "coordinates": [-68.8334956926625, 45.7316670137901]}}, {"type": "Feature", "properties": {"kind": "building", "source": "maine-e911", "in_osm": true, "dist_m": 29, "ADDRESS": "39 Loon Ln", "ST_FULLNAME": "Loon Lane", "TOWN": "T1 R9 WELS", "PLACE_TYPE": "Seasonal", "PLACEMENT": "", "BUILDING": "", "UNIT": "", "LANDMARK": "", "ESITEID": 1295194}, "geometry": {"type": "Point", "coordinates": [-68.8357588613276, 45.7312832562897]}}, {"type": "Feature", "properties": {"kind": "building", "source": "maine-e911", "in_osm": false, "dist_m": 387, "ADDRESS": "7 Black Bear Ln", "ST_FULLNAME": "Black Bear Lane", "TOWN": "T1 R9 WELS", "PLACE_TYPE": "", "PLACEMENT": "", "BUILDING": "", "UNIT": "", "LANDMARK": "", "ESITEID": 772358}, "geometry": {"type": "Point", "coordinates": [-68.8386373958171, 45.7269624852481]}}, {"type": "Feature", "properties": {"kind": "building", "source": "maine-e911", "in_osm": false, "dist_m": 24, "ADDRESS": "106 Black Cat Rd", "ST_FULLNAME": "Black Cat Road", "TOWN": "T1 R9 WELS", "PLACE_TYPE": "", "PLACEMENT": "", "BUILDING": "", "UNIT": "", "LANDMARK": "", "ESITEID": 772352}, "geometry": {"type": "Point", "coordinates": [-68.8280650602627, 45.727622123192]}}, {"type": "Feature", "properties": {"kind": "building", "source": "maine-e911", "in_osm": true, "dist_m": 244, "ADDRESS": "1852 Golden Rd", "ST_FULLNAME": "Golden Road", "TOWN": "T1 R9 WELS", "PLACE_TYPE": "Residential", "PLACEMENT": "", "BUILDING": "", "UNIT": "", "LANDMARK": "", "ESITEID": 854726}, "geometry": {"type": "Point", "coordinates": [-68.8380744595038, 45.7283118055083]}}, {"type": "Feature", "properties": {"kind": "building", "source": "maine-e911", "in_osm": true, "dist_m": 34, "ADDRESS": "49 Loon Ln", "ST_FULLNAME": "Loon Lane", "TOWN": "T1 R9 WELS", "PLACE_TYPE": "", "PLACEMENT": "", "BUILDING": "", "UNIT": "", "LANDMARK": "", "ESITEID": 778660}, "geometry": {"type": "Point", "coordinates": [-68.8344857845665, 45.7315154392373]}}, {"type": "Feature", "properties": {"kind": "building", "source": "maine-e911", "in_osm": true, "dist_m": 286, "ADDRESS": "1906 Golden Rd", "ST_FULLNAME": "Golden Road", "TOWN": "T1 R9 WELS", "PLACE_TYPE": "", "PLACEMENT": "", "BUILDING": "", "UNIT": "", "LANDMARK": "", "ESITEID": 772378}, "geometry": {"type": "Point", "coordinates": [-68.8402366461593, 45.7317351434989]}}, {"type": "Feature", "properties": {"kind": "building", "source": "maine-e911", "in_osm": false, "dist_m": 342, "ADDRESS": "1836 Golden Rd", "ST_FULLNAME": "Golden Road", "TOWN": "T1 R9 WELS", "PLACE_TYPE": "", "PLACEMENT": "", "BUILDING": "", "UNIT": "", "LANDMARK": "", "ESITEID": 772359}, "geometry": {"type": "Point", "coordinates": [-68.8382961847265, 45.7271870223157]}}, {"type": "Feature", "properties": {"kind": "building", "source": "maine-e911", "in_osm": true, "dist_m": 239, "ADDRESS": "1896 Golden Rd", "ST_FULLNAME": "Golden Road", "TOWN": "T1 R9 WELS", "PLACE_TYPE": "", "PLACEMENT": "", "BUILDING": "", "UNIT": "", "LANDMARK": "", "ESITEID": 772379}, "geometry": {"type": "Point", "coordinates": [-68.8397694221004, 45.7310729324924]}}, {"type": "Feature", "properties": {"kind": "building", "source": "maine-e911", "in_osm": false, "dist_m": 59, "ADDRESS": "122 Black Cat Rd", "ST_FULLNAME": "Black Cat Road", "TOWN": "T1 R9 WELS", "PLACE_TYPE": "Seasonal", "PLACEMENT": "", "BUILDING": "", "UNIT": "", "LANDMARK": "", "ESITEID": 778665}, "geometry": {"type": "Point", "coordinates": [-68.8264285385447, 45.7269580915573]}}, {"type": "Feature", "properties": {"kind": "building", "source": "maine-e911", "in_osm": true, "dist_m": 369, "ADDRESS": "12 Spencer Cove Rd", "ST_FULLNAME": "Spencer Cove Road", "TOWN": "T1 R9 WELS", "PLACE_TYPE": "", "PLACEMENT": "", "BUILDING": "", "UNIT": "", "LANDMARK": "", "ESITEID": 772371}, "geometry": {"type": "Point", "coordinates": [-68.8409890274528, 45.7315561776418]}}, {"type": "Feature", "properties": {"kind": "building", "source": "maine-e911", "in_osm": true, "dist_m": 232, "ADDRESS": "1888 Golden Rd", "ST_FULLNAME": "Golden Road", "TOWN": "T1 R9 WELS", "PLACE_TYPE": "", "PLACEMENT": "", "BUILDING": "", "UNIT": "", "LANDMARK": "", "ESITEID": 772380}, "geometry": {"type": "Point", "coordinates": [-68.8394946050939, 45.7305460015515]}}, {"type": "Feature", "properties": {"kind": "building", "source": "maine-e911", "in_osm": false, "dist_m": 18, "ADDRESS": "15 Sunrise Shores", "ST_FULLNAME": "Sunrise Shores", "TOWN": "T1 R9 WELS", "PLACE_TYPE": "Seasonal", "PLACEMENT": "", "BUILDING": "", "UNIT": "", "LANDMARK": "", "ESITEID": 1414293}, "geometry": {"type": "Point", "coordinates": [-68.8294810196301, 45.7289833625129]}}, {"type": "Feature", "properties": {"kind": "building", "source": "maine-e911", "in_osm": false, "dist_m": 319, "ADDRESS": "1840 Golden Rd", "ST_FULLNAME": "Golden Road", "TOWN": "T1 R9 WELS", "PLACE_TYPE": "Seasonal", "PLACEMENT": "", "BUILDING": "", "UNIT": "", "LANDMARK": "", "ESITEID": 1476188}, "geometry": {"type": "Point", "coordinates": [-68.8383582367423, 45.7275863126378]}}, {"type": "Feature", "properties": {"kind": "building", "source": "maine-e911", "in_osm": true, "dist_m": 27, "ADDRESS": "31 Pine Dr", "ST_FULLNAME": "Pine Drive", "TOWN": "T1 R9 WELS", "PLACE_TYPE": "Residential", "PLACEMENT": "", "BUILDING": "", "UNIT": "", "LANDMARK": "", "ESITEID": 1470067}, "geometry": {"type": "Point", "coordinates": [-68.8338280214532, 45.7301193646913]}}, {"type": "Feature", "properties": {"kind": "building", "source": "maine-e911", "in_osm": true, "dist_m": 180, "ADDRESS": "1887 Golden Rd", "ST_FULLNAME": "Golden Road", "TOWN": "T1 R9 WELS", "PLACE_TYPE": "Lodging", "PLACEMENT": "Parcel - Manual Placement", "BUILDING": "", "UNIT": "", "LANDMARK": "Maine Cabins", "ESITEID": 1502395}, "geometry": {"type": "Point", "coordinates": [-68.839035093853, 45.7306772254381]}}, {"type": "Feature", "properties": {"kind": "building", "source": "maine-e911", "in_osm": false, "dist_m": 46, "ADDRESS": "60 Rolands Way", "ST_FULLNAME": "Rolands Way", "TOWN": "T1 R8 WELS", "PLACE_TYPE": "Residential", "PLACEMENT": "Structure - Rooftop", "BUILDING": "", "UNIT": "", "LANDMARK": "", "ESITEID": 1557971}, "geometry": {"type": "Point", "coordinates": [-68.7606124362399, 45.7533494726341]}}]}