{"type": "FeatureCollection", "features": [{"type": "Feature", "properties": {"kind": "camp"}, "geometry": {"type": "Point", "coordinates": [-68.808609, 45.752268]}}, {"type": "Feature", "properties": {"kind": "building"}, "geometry": {"type": "Point", "coordinates": [-68.835367, 45.731305]}}, {"type": "Feature", "properties": {"kind": "building", "name": "Katahdin's Rest"}, "geometry": {"type": "Point", "coordinates": [-68.835758, 45.731281]}}, {"type": "Feature", "properties": {"kind": "building"}, "geometry": {"type": "Point", "coordinates": [-68.836201, 45.731474]}}, {"type": "Feature", "properties": {"kind": "building"}, "geometry": {"type": "Point", "coordinates": [-68.834955, 45.731377]}}, {"type": "Feature", "properties": {"kind": "building"}, "geometry": {"type": "Point", "coordinates": [-68.834659, 45.731556]}}, {"type": "Feature", "properties": {"kind": "building"}, "geometry": {"type": "Point", "coordinates": [-68.833934, 45.731471]}}, {"type": "Feature", "properties": {"kind": "building"}, "geometry": {"type": "Point", "coordinates": [-68.833734, 45.7318]}}, {"type": "Feature", "properties": {"kind": "building"}, "geometry": {"type": "Point", "coordinates": [-68.834724, 45.731736]}}, {"type": "Feature", "properties": {"kind": "building"}, "geometry": {"type": "Point", "coordinates": [-68.83542, 45.728088]}}, {"type": "Feature", "properties": {"kind": "building", "name": "raft storage"}, "geometry": {"type": "Point", "coordinates": [-68.83744, 45.729686]}}, {"type": "Feature", "properties": {"kind": "camp"}, "geometry": {"type": "Point", "coordinates": [-68.834933, 45.723385]}}, {"type": "Feature", "properties": {"kind": "camp"}, "geometry": {"type": "Point", "coordinates": [-68.833414, 45.722082]}}, {"type": "Feature", "properties": {"kind": "camp"}, "geometry": {"type": "Point", "coordinates": [-68.834897, 45.723126]}}, {"type": "Feature", "properties": {"kind": "camp"}, "geometry": {"type": "Point", "coordinates": [-68.833663, 45.721846]}}, {"type": "Feature", "properties": {"kind": "camp"}, "geometry": {"type": "Point", "coordinates": [-68.836848, 45.727733]}}, {"type": "Feature", "properties": {"kind": "camp"}, "geometry": {"type": "Point", "coordinates": [-68.835108, 45.723495]}}, {"type": "Feature", "properties": {"kind": "camp"}, "geometry": {"type": "Point", "coordinates": [-68.833611, 45.722284]}}, {"type": "Feature", "properties": {"kind": "camp"}, "geometry": {"type": "Point", "coordinates": [-68.835, 45.722889]}}, {"type": "Feature", "properties": {"kind": "building"}, "geometry": {"type": "Point", "coordinates": [-68.839602, 45.730835]}}, {"type": "Feature", "properties": {"kind": "building"}, "geometry": {"type": "Point", "coordinates": [-68.839068, 45.730874]}}, {"type": "Feature", "properties": {"kind": "building"}, "geometry": {"type": "Point", "coordinates": [-68.841894, 45.731492]}}, {"type": "Feature", "properties": {"kind": "building"}, "geometry": {"type": "Point", "coordinates": [-68.841435, 45.731443]}}, {"type": "Feature", "properties": {"kind": "building"}, "geometry": {"type": "Point", "coordinates": [-68.843975, 45.731017]}}, {"type": "Feature", "properties": {"kind": "building"}, "geometry": {"type": "Point", "coordinates": [-68.839833, 45.731248]}}, {"type": "Feature", "properties": {"kind": "building"}, "geometry": {"type": "Point", "coordinates": [-68.847708, 45.730598]}}, {"type": "Feature", "properties": {"kind": "building"}, "geometry": {"type": "Point", "coordinates": [-68.794784, 45.726429]}}, {"type": "Feature", "properties": {"kind": "building"}, "geometry": {"type": "Point", "coordinates": [-68.798097, 45.718154]}}, {"type": "Feature", "properties": {"kind": "building"}, "geometry": {"type": "Point", "coordinates": [-68.747614, 45.763215]}}, {"type": "Feature", "properties": {"kind": "building"}, "geometry": {"type": "Point", "coordinates": [-68.789065, 45.779347]}}, {"type": "Feature", "properties": {"kind": "building"}, "geometry": {"type": "Point", "coordinates": [-68.803173, 45.787495]}}, {"type": "Feature", "properties": {"kind": "building"}, "geometry": {"type": "Point", "coordinates": [-68.80137, 45.786399]}}, {"type": "Feature", "properties": {"kind": "building"}, "geometry": {"type": "Point", "coordinates": [-68.796876, 45.79806]}}, {"type": "Feature", "properties": {"kind": "building"}, "geometry": {"type": "Point", "coordinates": [-68.818346, 45.787971]}}, {"type": "Feature", "properties": {"kind": "building"}, "geometry": {"type": "Point", "coordinates": [-68.836449, 45.732742]}}, {"type": "Feature", "properties": {"kind": "building"}, "geometry": {"type": "Point", "coordinates": [-68.852484, 45.712625]}}, {"type": "Feature", "properties": {"kind": "building"}, "geometry": {"type": "Point", "coordinates": [-68.838075, 45.728312]}}, {"type": "Feature", "properties": {"kind": "building"}, "geometry": {"type": "Point", "coordinates": [-68.843086, 45.730965]}}, {"type": "Feature", "properties": {"kind": "building"}, "geometry": {"type": "Point", "coordinates": [-68.850897, 45.724896]}}, {"type": "Feature", "properties": {"kind": "building"}, "geometry": {"type": "Point", "coordinates": [-68.850594, 45.725161]}}, {"type": "Feature", "properties": {"kind": "building"}, "geometry": {"type": "Point", "coordinates": [-68.849963, 45.725659]}}, {"type": "Feature", "properties": {"kind": "building"}, "geometry": {"type": "Point", "coordinates": [-68.869237, 45.729414]}}, {"type": "Feature", "properties": {"kind": "building"}, "geometry": {"type": "Point", "coordinates": [-68.839347, 45.725847]}}, {"type": "Feature", "properties": {"kind": "building"}, "geometry": {"type": "Point", "coordinates": [-68.838332, 45.726013]}}, {"type": "Feature", "properties": {"kind": "building"}, "geometry": {"type": "Point", "coordinates": [-68.850399, 45.716195]}}, {"type": "Feature", "properties": {"kind": "building"}, "geometry": {"type": "Point", "coordinates": [-68.855052, 45.723204]}}, {"type": "Feature", "properties": {"kind": "building"}, "geometry": {"type": "Point", "coordinates": [-68.83832, 45.725715]}}, {"type": "Feature", "properties": {"kind": "building"}, "geometry": {"type": "Point", "coordinates": [-68.833828, 45.730119]}}, {"type": "Feature", "properties": {"kind": "building", "name": "North Woods Trading Company"}, "geometry": {"type": "Polygon", "coordinates": [[[-68.837982, 45.729589], [-68.837827, 45.729631], [-68.837737, 45.729471], [-68.837892, 45.729429], [-68.837982, 45.729589]]]}}, {"type": "Feature", "properties": {"kind": "building", "name": "Pumping Station"}, "geometry": {"type": "Polygon", "coordinates": [[[-68.836842, 45.730019], [-68.836697, 45.730055], [-68.83663, 45.729924], [-68.836775, 45.729888], [-68.836842, 45.730019]]]}}, {"type": "Feature", "properties": {"kind": "building", "name": "North Country Rivers"}, "geometry": {"type": "Polygon", "coordinates": [[[-68.83776, 45.729645], [-68.837658, 45.729675], [-68.837564, 45.729521], [-68.837666, 45.729491], [-68.83776, 45.729645]]]}}, {"type": "Feature", "properties": {"kind": "building"}, "geometry": {"type": "Polygon", "coordinates": [[[-68.837747, 45.729244], [-68.837704, 45.729259], [-68.837641, 45.729282], [-68.837647, 45.729303], [-68.837619, 45.729313], [-68.837596, 45.729298], [-68.837592, 45.729303], [-68.837602, 45.729314], [-68.837612, 45.729342], [-68.837572, 45.729361], [-68.837525, 45.729349], [-68.837513, 45.729327], [-68.837395, 45.729166], [-68.837452, 45.729145], [-68.837505, 45.729218], [-68.837539, 45.729206], [-68.837462, 45.729102], [-68.837606, 45.729051], [-68.837714, 45.729198], [-68.837747, 45.729244]]]}}, {"type": "Feature", "properties": {"kind": "building", "name": "West Branch Aviation"}, "geometry": {"type": "Polygon", "coordinates": [[[-68.83956, 45.730446], [-68.839476, 45.730508], [-68.839568, 45.730568], [-68.839652, 45.730506], [-68.83956, 45.730446]]]}}, {"type": "Feature", "properties": {"kind": "building", "name": "Baxter House"}, "geometry": {"type": "Polygon", "coordinates": [[[-68.836488, 45.728782], [-68.836358, 45.728687], [-68.836269, 45.728744], [-68.836394, 45.728839], [-68.836488, 45.728782]]]}}, {"type": "Feature", "properties": {"kind": "pier"}, "geometry": {"type": "LineString", "coordinates": [[-68.836296, 45.729741], [-68.836191, 45.729717]]}}, {"type": "Feature", "properties": {"kind": "pier"}, "geometry": {"type": "LineString", "coordinates": [[-68.839024, 45.728918], [-68.838855, 45.728919]]}}, {"type": "Feature", "properties": {"kind": "building", "name": "Boathouse"}, "geometry": {"type": "Polygon", "coordinates": [[[-68.836932, 45.729726], [-68.83689, 45.729726], [-68.83689, 45.729705], [-68.836932, 45.729705], [-68.836932, 45.729726]]]}}, {"type": "Feature", "properties": {"kind": "building", "name": "Icehouse"}, "geometry": {"type": "Polygon", "coordinates": [[[-68.837181, 45.728993], [-68.83713, 45.729003], [-68.837117, 45.728972], [-68.837168, 45.728962], [-68.837181, 45.728993]]]}}, {"type": "Feature", "properties": {"kind": "building"}, "geometry": {"type": "Polygon", "coordinates": [[[-68.837474, 45.729638], [-68.837404, 45.729663], [-68.83738, 45.72963], [-68.83745, 45.729605], [-68.837474, 45.729638]]]}}, {"type": "Feature", "properties": {"kind": "building", "name": "Pamola House"}, "geometry": {"type": "Polygon", "coordinates": [[[-68.836008, 45.728782], [-68.835914, 45.728764], [-68.835949, 45.728676], [-68.836043, 45.728694], [-68.836008, 45.728782]]]}}, {"type": "Feature", "properties": {"kind": "building"}, "geometry": {"type": "Polygon", "coordinates": [[[-68.840097, 45.731429], [-68.839984, 45.731339], [-68.840106, 45.731264], [-68.84022, 45.731355], [-68.840097, 45.731429]]]}}, {"type": "Feature", "properties": {"kind": "building"}, "geometry": {"type": "Polygon", "coordinates": [[[-68.840261, 45.731805], [-68.840175, 45.731758], [-68.840236, 45.731704], [-68.840241, 45.731706], [-68.840261, 45.731688], [-68.840257, 45.731685], [-68.840285, 45.73166], [-68.840298, 45.731667], [-68.840353, 45.731617], [-68.840426, 45.731657], [-68.840344, 45.731731], [-68.840311, 45.731713], [-68.840288, 45.731733], [-68.840321, 45.731751], [-68.840261, 45.731805]]]}}, {"type": "Feature", "properties": {"kind": "building"}, "geometry": {"type": "Polygon", "coordinates": [[[-68.819565, 45.725635], [-68.819498, 45.725543], [-68.8196, 45.725507], [-68.819667, 45.725599], [-68.819565, 45.725635]]]}}, {"type": "Feature", "properties": {"kind": "building"}, "geometry": {"type": "Polygon", "coordinates": [[[-68.820316, 45.725356], [-68.820153, 45.725371], [-68.820131, 45.72526], [-68.820295, 45.725245], [-68.820316, 45.725356]]]}}, {"type": "Feature", "properties": {"kind": "building"}, "geometry": {"type": "Polygon", "coordinates": [[[-68.819969, 45.725278], [-68.819913, 45.725291], [-68.819882, 45.725226], [-68.819938, 45.725213], [-68.819969, 45.725278]]]}}, {"type": "Feature", "properties": {"kind": "building"}, "geometry": {"type": "Polygon", "coordinates": [[[-68.838724, 45.72312], [-68.838569, 45.723147], [-68.838529, 45.723033], [-68.838684, 45.723006], [-68.838724, 45.72312]]]}}, {"type": "Feature", "properties": {"kind": "building"}, "geometry": {"type": "Polygon", "coordinates": [[[-68.819313, 45.725788], [-68.819257, 45.725857], [-68.819159, 45.725818], [-68.819215, 45.725749], [-68.819313, 45.725788]]]}}, {"type": "Feature", "properties": {"kind": "building"}, "geometry": {"type": "Polygon", "coordinates": [[[-68.820788, 45.725482], [-68.820723, 45.725456], [-68.820756, 45.725415], [-68.820822, 45.725442], [-68.820788, 45.725482]]]}}, {"type": "Feature", "properties": {"kind": "building"}, "geometry": {"type": "Polygon", "coordinates": [[[-68.83955, 45.722867], [-68.839468, 45.722901], [-68.83939, 45.72281], [-68.839472, 45.722776], [-68.83955, 45.722867]]]}}, {"type": "Feature", "properties": {"kind": "building"}, "geometry": {"type": "Polygon", "coordinates": [[[-68.820296, 45.725198], [-68.82024, 45.725198], [-68.82024, 45.725155], [-68.820296, 45.725155], [-68.820296, 45.725198]]]}}, {"type": "Feature", "properties": {"kind": "building"}, "geometry": {"type": "Polygon", "coordinates": [[[-68.819565, 45.725945], [-68.819461, 45.72591], [-68.819545, 45.725789], [-68.819648, 45.725823], [-68.819565, 45.725945]]]}}, {"type": "Feature", "properties": {"kind": "building"}, "geometry": {"type": "Polygon", "coordinates": [[[-68.839851, 45.726199], [-68.839588, 45.726307], [-68.839508, 45.726214], [-68.839771, 45.726105], [-68.839851, 45.726199]]]}}, {"type": "Feature", "properties": {"kind": "building"}, "geometry": {"type": "Polygon", "coordinates": [[[-68.836757, 45.732753], [-68.836679, 45.732793], [-68.83662, 45.732737], [-68.836698, 45.732697], [-68.836757, 45.732753]]]}}, {"type": "Feature", "properties": {"kind": "building"}, "geometry": {"type": "Polygon", "coordinates": [[[-68.83738, 45.723351], [-68.837265, 45.723345], [-68.837276, 45.723242], [-68.837391, 45.723248], [-68.83738, 45.723351]]]}}, {"type": "Feature", "properties": {"kind": "building"}, "geometry": {"type": "Polygon", "coordinates": [[[-68.837461, 45.723487], [-68.837367, 45.723485], [-68.837369, 45.723418], [-68.837463, 45.72342], [-68.837461, 45.723487]]]}}, {"type": "Feature", "properties": {"kind": "building"}, "geometry": {"type": "Polygon", "coordinates": [[[-68.84076, 45.72271], [-68.840644, 45.72273], [-68.840614, 45.722646], [-68.840731, 45.722626], [-68.84076, 45.72271]]]}}, {"type": "Feature", "properties": {"kind": "building"}, "geometry": {"type": "Polygon", "coordinates": [[[-68.83657, 45.732715], [-68.836504, 45.732742], [-68.836474, 45.732706], [-68.836541, 45.732679], [-68.83657, 45.732715]]]}}, {"type": "Feature", "properties": {"kind": "building"}, "geometry": {"type": "Polygon", "coordinates": [[[-68.840502, 45.722845], [-68.840361, 45.722877], [-68.84031, 45.722769], [-68.840452, 45.722736], [-68.840502, 45.722845]]]}}, {"type": "Feature", "properties": {"kind": "building"}, "geometry": {"type": "Polygon", "coordinates": [[[-68.840688, 45.722388], [-68.840594, 45.722415], [-68.840553, 45.722348], [-68.840647, 45.722321], [-68.840688, 45.722388]]]}}, {"type": "Feature", "properties": {"kind": "building"}, "geometry": {"type": "Polygon", "coordinates": [[[-68.835111, 45.728423], [-68.83494, 45.728453], [-68.83491, 45.728371], [-68.834856, 45.72838], [-68.834829, 45.728305], [-68.834897, 45.728293], [-68.834894, 45.728284], [-68.835051, 45.728256], [-68.835111, 45.728423]]]}}, {"type": "Feature", "properties": {"kind": "building"}, "geometry": {"type": "Polygon", "coordinates": [[[-68.820527, 45.725535], [-68.820613, 45.725451], [-68.820678, 45.725483], [-68.820698, 45.725462], [-68.820752, 45.725489], [-68.820664, 45.725576], [-68.820624, 45.725556], [-68.820605, 45.725574], [-68.820527, 45.725535]]]}}, {"type": "Feature", "properties": {"kind": "building", "name": "Antique"}, "geometry": {"type": "Polygon", "coordinates": [[[-68.837424, 45.729362], [-68.837371, 45.729381], [-68.837343, 45.729345], [-68.837331, 45.729349], [-68.837304, 45.729314], [-68.83729, 45.729319], [-68.83727, 45.729292], [-68.83735, 45.729263], [-68.837424, 45.729362]]]}}, {"type": "Feature", "properties": {"kind": "building", "name": "Black Bear"}, "geometry": {"type": "Polygon", "coordinates": [[[-68.837011, 45.729515], [-68.83693, 45.729402], [-68.837016, 45.729372], [-68.837097, 45.729485], [-68.837011, 45.729515]]]}}, {"type": "Feature", "properties": {"kind": "building", "name": "Doubletop"}, "geometry": {"type": "Polygon", "coordinates": [[[-68.836468, 45.729387], [-68.836417, 45.7294], [-68.836425, 45.729415], [-68.836375, 45.729428], [-68.83634, 45.729361], [-68.83644, 45.729335], [-68.836468, 45.729387]]]}}, {"type": "Feature", "properties": {"kind": "building", "name": "Fisher House"}, "geometry": {"type": "Polygon", "coordinates": [[[-68.837208, 45.729451], [-68.837159, 45.729388], [-68.837138, 45.729396], [-68.837104, 45.729352], [-68.837207, 45.729313], [-68.83729, 45.729421], [-68.837208, 45.729451]]]}}, {"type": "Feature", "properties": {"kind": "building", "name": "Little Rocky"}, "geometry": {"type": "Polygon", "coordinates": [[[-68.836565, 45.729498], [-68.836464, 45.729524], [-68.836436, 45.729472], [-68.836537, 45.729445], [-68.836565, 45.729498]]]}}, {"type": "Feature", "properties": {"kind": "building", "name": "South Twin"}, "geometry": {"type": "Polygon", "coordinates": [[[-68.836063, 45.728658], [-68.83613, 45.728639], [-68.83615, 45.728674], [-68.836083, 45.728693], [-68.836063, 45.728658]]]}}, {"type": "Feature", "properties": {"kind": "building", "name": "North Twin"}, "geometry": {"type": "Polygon", "coordinates": [[[-68.83628, 45.728679], [-68.836207, 45.728677], [-68.83621, 45.728639], [-68.836282, 45.728642], [-68.83628, 45.728679]]]}}, {"type": "Feature", "properties": {"kind": "building", "name": "The Loon"}, "geometry": {"type": "Polygon", "coordinates": [[[-68.836598, 45.729593], [-68.836498, 45.729619], [-68.83647, 45.729567], [-68.83657, 45.729541], [-68.836598, 45.729593]]]}}, {"type": "Feature", "properties": {"kind": "building", "name": "The Owl"}, "geometry": {"type": "Polygon", "coordinates": [[[-68.83682, 45.729597], [-68.836738, 45.729484], [-68.836824, 45.729454], [-68.836906, 45.729567], [-68.83682, 45.729597]]]}}, {"type": "Feature", "properties": {"kind": "building", "name": "Toque"}, "geometry": {"type": "Polygon", "coordinates": [[[-68.83641, 45.72929], [-68.83631, 45.729316], [-68.836282, 45.729264], [-68.836382, 45.729238], [-68.83641, 45.72929]]]}}, {"type": "Feature", "properties": {"kind": "building", "name": "Northern Outdoors"}, "geometry": {"type": "Polygon", "coordinates": [[[-68.836534, 45.728998], [-68.836656, 45.728982], [-68.836636, 45.728904], [-68.836695, 45.728896], [-68.836675, 45.728818], [-68.836494, 45.72884], [-68.836534, 45.728998]]]}}, {"type": "Feature", "properties": {"kind": "building"}, "geometry": {"type": "Polygon", "coordinates": [[[-68.836556, 45.727981], [-68.83647, 45.728008], [-68.836438, 45.727958], [-68.836523, 45.727931], [-68.836556, 45.727981]]]}}, {"type": "Feature", "properties": {"kind": "building"}, "geometry": {"type": "Polygon", "coordinates": [[[-68.836553, 45.728401], [-68.836502, 45.72842], [-68.836488, 45.728402], [-68.836538, 45.728382], [-68.836553, 45.728401]]]}}, {"type": "Feature", "properties": {"kind": "building"}, "geometry": {"type": "Polygon", "coordinates": [[[-68.836744, 45.729352], [-68.836712, 45.72936], [-68.836673, 45.729288], [-68.836706, 45.72928], [-68.836744, 45.729352]]]}}, {"type": "Feature", "properties": {"kind": "building"}, "geometry": {"type": "Polygon", "coordinates": [[[-68.836662, 45.72811], [-68.83661, 45.728119], [-68.836586, 45.728051], [-68.836637, 45.728043], [-68.836662, 45.72811]]]}}, {"type": "Feature", "properties": {"kind": "building"}, "geometry": {"type": "Polygon", "coordinates": [[[-68.836447, 45.727822], [-68.836379, 45.727847], [-68.836339, 45.727795], [-68.836407, 45.727769], [-68.836447, 45.727822]]]}}, {"type": "Feature", "properties": {"kind": "building"}, "geometry": {"type": "Polygon", "coordinates": [[[-68.837369, 45.729198], [-68.837298, 45.729222], [-68.837242, 45.72914], [-68.837312, 45.729117], [-68.837369, 45.729198]]]}}, {"type": "Feature", "properties": {"kind": "building"}, "geometry": {"type": "Polygon", "coordinates": [[[-68.835449, 45.72834], [-68.835341, 45.728363], [-68.835311, 45.728296], [-68.83542, 45.728273], [-68.835449, 45.72834]]]}}, {"type": "Feature", "properties": {"kind": "pier"}, "geometry": {"type": "LineString", "coordinates": [[-68.839679, 45.730464], [-68.839613, 45.730412], [-68.840064, 45.730098], [-68.840136, 45.730149], [-68.840151, 45.730138], [-68.840055, 45.73007], [-68.83982, 45.730234], [-68.839749, 45.730185], [-68.839724, 45.730203], [-68.839787, 45.730247], [-68.839756, 45.730269], [-68.839695, 45.730226], [-68.839671, 45.730243], [-68.839738, 45.73029], [-68.839546, 45.730424], [-68.839641, 45.73049], [-68.839679, 45.730464]]}}, {"type": "Feature", "properties": {"kind": "pier"}, "geometry": {"type": "LineString", "coordinates": [[-68.834357, 45.728816], [-68.834524, 45.729074]]}}, {"type": "Feature", "properties": {"kind": "pier"}, "geometry": {"type": "LineString", "coordinates": [[-68.835931, 45.729098], [-68.835836, 45.729179]]}}, {"type": "Feature", "properties": {"kind": "pier"}, "geometry": {"type": "LineString", "coordinates": [[-68.833992, 45.728938], [-68.834139, 45.729146]]}}, {"type": "Feature", "properties": {"kind": "pier"}, "geometry": {"type": "LineString", "coordinates": [[-68.83499, 45.728834], [-68.835028, 45.72898]]}}, {"type": "Feature", "properties": {"kind": "pier"}, "geometry": {"type": "LineString", "coordinates": [[-68.835291, 45.728632], [-68.835265, 45.7288], [-68.835272, 45.728856], [-68.835285, 45.728907], [-68.835273, 45.72896]]}}, {"type": "Feature", "properties": {"kind": "building", "name": "Katahdin House"}, "geometry": {"type": "Polygon", "coordinates": [[[-68.837247, 45.728403], [-68.83708, 45.728404], [-68.837078, 45.728238], [-68.837245, 45.728237], [-68.837247, 45.728403]]]}}, {"type": "Feature", "properties": {"kind": "building", "name": "4"}, "geometry": {"type": "Polygon", "coordinates": [[[-68.835852, 45.725963], [-68.83588, 45.725947], [-68.835914, 45.725975], [-68.835886, 45.725991], [-68.835852, 45.725963]]]}}, {"type": "Feature", "properties": {"kind": "building", "name": "5"}, "geometry": {"type": "Polygon", "coordinates": [[[-68.836378, 45.725587], [-68.836405, 45.725571], [-68.836439, 45.7256], [-68.836412, 45.725616], [-68.836378, 45.725587]]]}}, {"type": "Feature", "properties": {"kind": "building", "name": "7"}, "geometry": {"type": "Polygon", "coordinates": [[[-68.836618, 45.725279], [-68.836645, 45.725263], [-68.836679, 45.725292], [-68.836652, 45.725308], [-68.836618, 45.725279]]]}}, {"type": "Feature", "properties": {"kind": "building", "name": "1"}, "geometry": {"type": "Polygon", "coordinates": [[[-68.837418, 45.729], [-68.837419, 45.728975], [-68.837472, 45.728976], [-68.837471, 45.729], [-68.837418, 45.729]]]}}, {"type": "Feature", "properties": {"kind": "building", "name": "2"}, "geometry": {"type": "Polygon", "coordinates": [[[-68.837229, 45.72899], [-68.837226, 45.728966], [-68.837279, 45.728963], [-68.837282, 45.728987], [-68.837229, 45.72899]]]}}, {"type": "Feature", "properties": {"kind": "building", "name": "3"}, "geometry": {"type": "Polygon", "coordinates": [[[-68.836885, 45.729079], [-68.836861, 45.729061], [-68.8369, 45.729035], [-68.836924, 45.729053], [-68.836885, 45.729079]]]}}, {"type": "Feature", "properties": {"kind": "building"}, "geometry": {"type": "Polygon", "coordinates": [[[-68.830097, 45.726977], [-68.82995, 45.726985], [-68.829928, 45.726783], [-68.830076, 45.726775], [-68.830097, 45.726977]]]}}, {"type": "Feature", "properties": {"kind": "building"}, "geometry": {"type": "Polygon", "coordinates": [[[-68.829723, 45.728351], [-68.829605, 45.728402], [-68.829498, 45.728282], [-68.829616, 45.728231], [-68.829723, 45.728351]]]}}, {"type": "Feature", "properties": {"kind": "building"}, "geometry": {"type": "Polygon", "coordinates": [[[-68.830503, 45.728852], [-68.830472, 45.728894], [-68.830373, 45.728858], [-68.830404, 45.728817], [-68.830503, 45.728852]]]}}, {"type": "Feature", "properties": {"kind": "building"}, "geometry": {"type": "Polygon", "coordinates": [[[-68.833852, 45.728628], [-68.833817, 45.728649], [-68.83375, 45.728594], [-68.833785, 45.728573], [-68.833852, 45.728628]]]}}, {"type": "Feature", "properties": {"kind": "building"}, "geometry": {"type": "Polygon", "coordinates": [[[-68.833657, 45.728635], [-68.833596, 45.72866], [-68.833537, 45.728591], [-68.833597, 45.728566], [-68.833657, 45.728635]]]}}, {"type": "Feature", "properties": {"kind": "building"}, "geometry": {"type": "Polygon", "coordinates": [[[-68.834206, 45.728568], [-68.83411, 45.728611], [-68.834062, 45.728558], [-68.834158, 45.728515], [-68.834206, 45.728568]]]}}, {"type": "Feature", "properties": {"kind": "building"}, "geometry": {"type": "Polygon", "coordinates": [[[-68.830243, 45.729142], [-68.83014, 45.729108], [-68.830151, 45.729092], [-68.830081, 45.729069], [-68.830135, 45.728991], [-68.830307, 45.72905], [-68.830243, 45.729142]]]}}, {"type": "Feature", "properties": {"kind": "building", "name": "New England Outdoor Center"}, "geometry": {"type": "Polygon", "coordinates": [[[-68.818414, 45.726352], [-68.81835, 45.726251], [-68.818027, 45.726351], [-68.818091, 45.726452], [-68.818414, 45.726352]]]}}, {"type": "Feature", "properties": {"kind": "building", "name": "Trout Mountain"}, "geometry": {"type": "Polygon", "coordinates": [[[-68.818743, 45.726548], [-68.818665, 45.726581], [-68.818616, 45.726602], [-68.818727, 45.726728], [-68.818735, 45.726737], [-68.818861, 45.726682], [-68.818743, 45.726548]]]}}, {"type": "Feature", "properties": {"kind": "building", "name": "Recreation Hall"}, "geometry": {"type": "Polygon", "coordinates": [[[-68.819664, 45.727001], [-68.819584, 45.726912], [-68.819878, 45.726795], [-68.81995, 45.72688], [-68.819664, 45.727001]]]}}, {"type": "Feature", "properties": {"kind": "building", "name": "Sandy Stream"}, "geometry": {"type": "Polygon", "coordinates": [[[-68.820208, 45.727283], [-68.8201, 45.727327], [-68.820033, 45.727248], [-68.820141, 45.727203], [-68.820208, 45.727283]]]}}, {"type": "Feature", "properties": {"kind": "building", "name": "Guides Cabin"}, "geometry": {"type": "Polygon", "coordinates": [[[-68.819115, 45.726809], [-68.818915, 45.726889], [-68.818883, 45.72685], [-68.818995, 45.726805], [-68.819025, 45.726793], [-68.819083, 45.72677], [-68.819115, 45.726809]]]}}, {"type": "Feature", "properties": {"kind": "building", "name": "Housekeeping"}, "geometry": {"type": "Polygon", "coordinates": [[[-68.819025, 45.726793], [-68.81897, 45.726728], [-68.818873, 45.726767], [-68.818911, 45.726812], [-68.818978, 45.726785], [-68.818995, 45.726805], [-68.819025, 45.726793]]]}}, {"type": "Feature", "properties": {"kind": "building", "name": "Lookout"}, "geometry": {"type": "Polygon", "coordinates": [[[-68.81875, 45.726339], [-68.818662, 45.726369], [-68.818589, 45.726262], [-68.818677, 45.726233], [-68.81875, 45.726339]]]}}, {"type": "Feature", "properties": {"kind": "building", "name": "Big Mud"}, "geometry": {"type": "Polygon", "coordinates": [[[-68.819944, 45.727389], [-68.819861, 45.727292], [-68.819795, 45.72732], [-68.819878, 45.727416], [-68.819944, 45.727389]]]}}, {"type": "Feature", "properties": {"kind": "building", "name": "Bobcat"}, "geometry": {"type": "Polygon", "coordinates": [[[-68.816105, 45.726906], [-68.816091, 45.726852], [-68.816009, 45.726862], [-68.816006, 45.726852], [-68.815869, 45.726869], [-68.815885, 45.726933], [-68.816105, 45.726906]]]}}, {"type": "Feature", "properties": {"kind": "building", "name": "Eagle"}, "geometry": {"type": "Polygon", "coordinates": [[[-68.816075, 45.726661], [-68.816038, 45.726609], [-68.815936, 45.726643], [-68.815928, 45.726632], [-68.815805, 45.726673], [-68.81585, 45.726738], [-68.816075, 45.726661]]]}}, {"type": "Feature", "properties": {"kind": "building", "name": "Loon"}, "geometry": {"type": "Polygon", "coordinates": [[[-68.816038, 45.726414], [-68.81604, 45.726359], [-68.815971, 45.726358], [-68.815972, 45.726339], [-68.81577, 45.726335], [-68.815767, 45.726409], [-68.816038, 45.726414]]]}}, {"type": "Feature", "properties": {"kind": "building", "name": "Moose"}, "geometry": {"type": "Polygon", "coordinates": [[[-68.815995, 45.726089], [-68.815948, 45.726038], [-68.815903, 45.726059], [-68.815885, 45.72604], [-68.81572, 45.726115], [-68.815785, 45.726185], [-68.815995, 45.726089]]]}}, {"type": "Feature", "properties": {"kind": "building", "name": "Otter"}, "geometry": {"type": "Polygon", "coordinates": [[[-68.815714, 45.725794], [-68.815627, 45.725749], [-68.815554, 45.725817], [-68.815525, 45.725802], [-68.815446, 45.725877], [-68.815562, 45.725937], [-68.815714, 45.725794]]]}}, {"type": "Feature", "properties": {"kind": "building", "name": "Partridge"}, "geometry": {"type": "Polygon", "coordinates": [[[-68.815379, 45.72568], [-68.815327, 45.725646], [-68.815258, 45.725697], [-68.815229, 45.725678], [-68.81514, 45.725744], [-68.815221, 45.725797], [-68.815379, 45.72568]]]}}, {"type": "Feature", "properties": {"kind": "building", "name": "Raven"}, "geometry": {"type": "Polygon", "coordinates": [[[-68.815112, 45.72556], [-68.81506, 45.725527], [-68.814991, 45.725578], [-68.814962, 45.725559], [-68.814873, 45.725625], [-68.814954, 45.725678], [-68.815112, 45.72556]]]}}, {"type": "Feature", "properties": {"kind": "building", "name": "Snowy Owl"}, "geometry": {"type": "Polygon", "coordinates": [[[-68.815028, 45.725465], [-68.815013, 45.725416], [-68.814914, 45.725431], [-68.814906, 45.725403], [-68.814779, 45.725422], [-68.814802, 45.725498], [-68.815028, 45.725465]]]}}, {"type": "Feature", "properties": {"kind": "building", "name": "Wax Wing"}, "geometry": {"type": "Polygon", "coordinates": [[[-68.815169, 45.725296], [-68.815193, 45.725249], [-68.815098, 45.725226], [-68.815111, 45.725199], [-68.814989, 45.725169], [-68.814952, 45.725242], [-68.815169, 45.725296]]]}}, {"type": "Feature", "properties": {"kind": "building", "name": "Fox Den"}, "geometry": {"type": "Polygon", "coordinates": [[[-68.816078, 45.725299], [-68.816008, 45.725329], [-68.815951, 45.725265], [-68.816022, 45.725234], [-68.816078, 45.725299]]]}}, {"type": "Feature", "properties": {"kind": "building", "name": "Little Mud"}, "geometry": {"type": "Polygon", "coordinates": [[[-68.81972, 45.727471], [-68.819637, 45.727375], [-68.819571, 45.727402], [-68.819654, 45.727499], [-68.81972, 45.727471]]]}}, {"type": "Feature", "properties": {"kind": "building", "name": "Millinocket Stream"}, "geometry": {"type": "Polygon", "coordinates": [[[-68.819395, 45.727293], [-68.819278, 45.727346], [-68.81937, 45.727446], [-68.819487, 45.727393], [-68.819395, 45.727293]]]}}, {"type": "Feature", "properties": {"kind": "building"}, "geometry": {"type": "Polygon", "coordinates": [[[-68.819471, 45.727181], [-68.819416, 45.72712], [-68.819365, 45.727143], [-68.81942, 45.727204], [-68.819471, 45.727181]]]}}, {"type": "Feature", "properties": {"kind": "building", "name": "Wadleigh Stream"}, "geometry": {"type": "Polygon", "coordinates": [[[-68.820015, 45.726947], [-68.819977, 45.726903], [-68.820119, 45.726844], [-68.820156, 45.726887], [-68.820015, 45.726947]]]}}, {"type": "Feature", "properties": {"kind": "building", "name": "Grant Brook"}, "geometry": {"type": "Polygon", "coordinates": [[[-68.820069, 45.72711], [-68.820032, 45.727066], [-68.820173, 45.727007], [-68.820211, 45.72705], [-68.820069, 45.72711]]]}}, {"type": "Feature", "properties": {"kind": "building", "name": "Hammond Ridge"}, "geometry": {"type": "Polygon", "coordinates": [[[-68.819598, 45.726875], [-68.81955, 45.726821], [-68.819405, 45.726885], [-68.819453, 45.726938], [-68.819598, 45.726875]]]}}, {"type": "Feature", "properties": {"kind": "building"}, "geometry": {"type": "Polygon", "coordinates": [[[-68.8192, 45.727478], [-68.819181, 45.727425], [-68.819177, 45.727414], [-68.819133, 45.727422], [-68.819157, 45.727486], [-68.819189, 45.72748], [-68.8192, 45.727478]]]}}, {"type": "Feature", "properties": {"kind": "building"}, "geometry": {"type": "Polygon", "coordinates": [[[-68.819071, 45.727059], [-68.819006, 45.727005], [-68.819058, 45.726974], [-68.819123, 45.727028], [-68.819071, 45.727059]]]}}, {"type": "Feature", "properties": {"kind": "pier"}, "geometry": {"type": "LineString", "coordinates": [[-68.82027, 45.727984], [-68.820333, 45.728061], [-68.820285, 45.728077], [-68.820227, 45.728002], [-68.82027, 45.727984]]}}, {"type": "Feature", "properties": {"kind": "building"}, "geometry": {"type": "Polygon", "coordinates": [[[-68.798644, 45.727885], [-68.798647, 45.727814], [-68.798486, 45.727811], [-68.798479, 45.727882], [-68.798644, 45.727885]]]}}, {"type": "Feature", "properties": {"kind": "building"}, "geometry": {"type": "Polygon", "coordinates": [[[-68.798486, 45.727811], [-68.798487, 45.727779], [-68.798686, 45.727783], [-68.798681, 45.727897], [-68.798478, 45.727893], [-68.798479, 45.727882], [-68.798644, 45.727885], [-68.798647, 45.727814], [-68.798486, 45.727811]]]}}, {"type": "Feature", "properties": {"kind": "building"}, "geometry": {"type": "Polygon", "coordinates": [[[-68.798495, 45.727742], [-68.798497, 45.727671], [-68.798357, 45.727669], [-68.798355, 45.727739], [-68.798495, 45.727742]]]}}, {"type": "Feature", "properties": {"kind": "building"}, "geometry": {"type": "Polygon", "coordinates": [[[-68.798478, 45.7279], [-68.798477, 45.727919], [-68.798427, 45.727917], [-68.798428, 45.727898], [-68.798478, 45.7279]]]}}, {"type": "Feature", "properties": {"kind": "pier"}, "geometry": {"type": "LineString", "coordinates": [[-68.820662, 45.726923], [-68.820374, 45.72695]]}}, {"type": "Feature", "properties": {"kind": "building"}, "geometry": {"type": "Polygon", "coordinates": [[[-68.821435, 45.725991], [-68.821361, 45.726032], [-68.821296, 45.725975], [-68.821233, 45.726009], [-68.82135, 45.726112], [-68.821486, 45.726037], [-68.821435, 45.725991]]]}}, {"type": "Feature", "properties": {"kind": "building"}, "geometry": {"type": "Polygon", "coordinates": [[[-68.821271, 45.725894], [-68.821236, 45.725929], [-68.821291, 45.725955], [-68.821326, 45.725921], [-68.821271, 45.725894]]]}}, {"type": "Feature", "properties": {"kind": "building"}, "geometry": {"type": "Polygon", "coordinates": [[[-68.824153, 45.727239], [-68.82404, 45.727215], [-68.823998, 45.727311], [-68.824111, 45.727335], [-68.824153, 45.727239]]]}}, {"type": "Feature", "properties": {"kind": "building"}, "geometry": {"type": "Polygon", "coordinates": [[[-68.824243, 45.727175], [-68.824229, 45.727207], [-68.824297, 45.727221], [-68.824311, 45.72719], [-68.824243, 45.727175]]]}}, {"type": "Feature", "properties": {"kind": "building"}, "geometry": {"type": "Polygon", "coordinates": [[[-68.824633, 45.727478], [-68.82464, 45.727381], [-68.824657, 45.727381], [-68.824659, 45.72736], [-68.824729, 45.727362], [-68.824727, 45.727398], [-68.824709, 45.727397], [-68.824703, 45.72748], [-68.824633, 45.727478]]]}}, {"type": "Feature", "properties": {"kind": "building"}, "geometry": {"type": "Polygon", "coordinates": [[[-68.73895, 45.750577], [-68.738862, 45.750581], [-68.738867, 45.750632], [-68.738955, 45.750628], [-68.73895, 45.750577]]]}}, {"type": "Feature", "properties": {"kind": "building"}, "geometry": {"type": "Polygon", "coordinates": [[[-68.8168, 45.728592], [-68.816698, 45.728523], [-68.816571, 45.728614], [-68.816674, 45.728683], [-68.8168, 45.728592]]]}}, {"type": "Feature", "properties": {"kind": "pier"}, "geometry": {"type": "LineString", "coordinates": [[-68.820674, 45.727129], [-68.820709, 45.727187]]}}, {"type": "Feature", "properties": {"kind": "building"}, "geometry": {"type": "Polygon", "coordinates": [[[-68.829813, 45.728389], [-68.829719, 45.728431], [-68.829745, 45.728459], [-68.829839, 45.728417], [-68.829813, 45.728389]]]}}, {"type": "Feature", "properties": {"kind": "pier"}, "geometry": {"type": "LineString", "coordinates": [[-68.829058, 45.728055], [-68.828808, 45.728151]]}}, {"type": "Feature", "properties": {"kind": "building"}, "geometry": {"type": "Polygon", "coordinates": [[[-68.829302, 45.72804], [-68.82939, 45.728], [-68.829314, 45.727917], [-68.829226, 45.727957], [-68.829302, 45.72804]]]}}, {"type": "Feature", "properties": {"kind": "pier"}, "geometry": {"type": "LineString", "coordinates": [[-68.828348, 45.72784], [-68.828308, 45.727989]]}}, {"type": "Feature", "properties": {"kind": "pier"}, "geometry": {"type": "LineString", "coordinates": [[-68.827935, 45.727777], [-68.827862, 45.727885]]}}, {"type": "Feature", "properties": {"kind": "pier"}, "geometry": {"type": "LineString", "coordinates": [[-68.827055, 45.727441], [-68.827063, 45.727615], [-68.827019, 45.727618]]}}, {"type": "Feature", "properties": {"kind": "pier"}, "geometry": {"type": "LineString", "coordinates": [[-68.827714, 45.727641], [-68.827651, 45.72768]]}}, {"type": "Feature", "properties": {"kind": "building"}, "geometry": {"type": "Polygon", "coordinates": [[[-68.83364, 45.729646], [-68.833579, 45.729584], [-68.833455, 45.729644], [-68.833516, 45.729706], [-68.83364, 45.729646]]]}}, {"type": "Feature", "properties": {"kind": "building"}, "geometry": {"type": "Polygon", "coordinates": [[[-68.820533, 45.723951], [-68.820469, 45.723892], [-68.820311, 45.723977], [-68.820376, 45.724035], [-68.820533, 45.723951]]]}}, {"type": "Feature", "properties": {"kind": "building"}, "geometry": {"type": "Polygon", "coordinates": [[[-68.832484, 45.729921], [-68.832583, 45.729988], [-68.832556, 45.730007], [-68.832605, 45.73004], [-68.832559, 45.730073], [-68.832505, 45.730036], [-68.832467, 45.730063], [-68.832374, 45.73], [-68.832484, 45.729921]]]}}, {"type": "Feature", "properties": {"kind": "building"}, "geometry": {"type": "Polygon", "coordinates": [[[-68.832692, 45.729876], [-68.832645, 45.729816], [-68.832735, 45.729782], [-68.832782, 45.729843], [-68.832692, 45.729876]]]}}, {"type": "Feature", "properties": {"kind": "building"}, "geometry": {"type": "Polygon", "coordinates": [[[-68.831584, 45.729702], [-68.831557, 45.729762], [-68.831671, 45.729788], [-68.831699, 45.729727], [-68.831584, 45.729702]]]}}, {"type": "Feature", "properties": {"kind": "building"}, "geometry": {"type": "Polygon", "coordinates": [[[-68.83137, 45.729929], [-68.83134, 45.730009], [-68.831434, 45.730027], [-68.831427, 45.730046], [-68.831518, 45.730063], [-68.831556, 45.729963], [-68.83137, 45.729929]]]}}, {"type": "Feature", "properties": {"kind": "building"}, "geometry": {"type": "Polygon", "coordinates": [[[-68.831589, 45.730038], [-68.83157, 45.730067], [-68.8316, 45.730077], [-68.83162, 45.730048], [-68.831589, 45.730038]]]}}, {"type": "Feature", "properties": {"kind": "building"}, "geometry": {"type": "Polygon", "coordinates": [[[-68.830803, 45.729531], [-68.830721, 45.72958], [-68.830807, 45.729648], [-68.830888, 45.729598], [-68.830803, 45.729531]]]}}, {"type": "Feature", "properties": {"kind": "pier"}, "geometry": {"type": "LineString", "coordinates": [[-68.748895, 45.748778], [-68.748836, 45.748872]]}}, {"type": "Feature", "properties": {"kind": "pier"}, "geometry": {"type": "LineString", "coordinates": [[-68.748946, 45.748802], [-68.748917, 45.748852]]}}, {"type": "Feature", "properties": {"kind": "pier"}, "geometry": {"type": "LineString", "coordinates": [[-68.749759, 45.749064], [-68.749641, 45.749159]]}}, {"type": "Feature", "properties": {"kind": "pier"}, "geometry": {"type": "LineString", "coordinates": [[-68.746866, 45.749207], [-68.746896, 45.749277]]}}, {"type": "Feature", "properties": {"kind": "pier"}, "geometry": {"type": "LineString", "coordinates": [[-68.742616, 45.747132], [-68.742537, 45.74715]]}}, {"type": "Feature", "properties": {"kind": "pier"}, "geometry": {"type": "LineString", "coordinates": [[-68.742488, 45.745896], [-68.742402, 45.746007]]}}, {"type": "Feature", "properties": {"kind": "building"}, "geometry": {"type": "Polygon", "coordinates": [[[-68.797697, 45.716091], [-68.797675, 45.716058], [-68.797704, 45.716049], [-68.797725, 45.716082], [-68.797697, 45.716091]]]}}, {"type": "Feature", "properties": {"kind": "pier"}, "geometry": {"type": "LineString", "coordinates": [[-68.820308, 45.725588], [-68.820345, 45.725737]]}}, {"type": "Feature", "properties": {"kind": "pier"}, "geometry": {"type": "LineString", "coordinates": [[-68.821174, 45.726199], [-68.821093, 45.726266]]}}, {"type": "Feature", "properties": {"kind": "pier"}, "geometry": {"type": "LineString", "coordinates": [[-68.821848, 45.72644], [-68.821791, 45.726552]]}}, {"type": "Feature", "properties": {"kind": "pier"}, "geometry": {"type": "LineString", "coordinates": [[-68.823252, 45.726933], [-68.823205, 45.726983], [-68.823142, 45.726994]]}}, {"type": "Feature", "properties": {"kind": "pier"}, "geometry": {"type": "LineString", "coordinates": [[-68.823652, 45.72736], [-68.823622, 45.727449]]}}, {"type": "Feature", "properties": {"kind": "pier"}, "geometry": {"type": "LineString", "coordinates": [[-68.824975, 45.727308], [-68.825126, 45.727311]]}}, {"type": "Feature", "properties": {"kind": "pier"}, "geometry": {"type": "LineString", "coordinates": [[-68.825103, 45.727], [-68.825207, 45.727079]]}}, {"type": "Feature", "properties": {"kind": "pier"}, "geometry": {"type": "LineString", "coordinates": [[-68.825456, 45.726855], [-68.82547, 45.726938], [-68.825433, 45.726941]]}}, {"type": "Feature", "properties": {"kind": "pier"}, "geometry": {"type": "LineString", "coordinates": [[-68.820805, 45.725765], [-68.820724, 45.725775]]}}, {"type": "Feature", "properties": {"kind": "pier"}, "geometry": {"type": "LineString", "coordinates": [[-68.82065, 45.725676], [-68.820649, 45.725718]]}}, {"type": "Feature", "properties": {"kind": "pier"}, "geometry": {"type": "LineString", "coordinates": [[-68.82017, 45.725578], [-68.820154, 45.725643]]}}, {"type": "Feature", "properties": {"kind": "pier"}, "geometry": {"type": "LineString", "coordinates": [[-68.819774, 45.725954], [-68.819895, 45.725976]]}}, {"type": "Feature", "properties": {"kind": "pier"}, "geometry": {"type": "LineString", "coordinates": [[-68.819824, 45.726387], [-68.820171, 45.726354]]}}, {"type": "Feature", "properties": {"kind": "pier"}, "geometry": {"type": "LineString", "coordinates": [[-68.830682, 45.737658], [-68.830824, 45.737502]]}}, {"type": "Feature", "properties": {"kind": "building"}, "geometry": {"type": "Polygon", "coordinates": [[[-68.819482, 45.725648], [-68.819449, 45.725676], [-68.819377, 45.725636], [-68.81941, 45.725607], [-68.819482, 45.725648]]]}}, {"type": "Feature", "properties": {"kind": "pier"}, "geometry": {"type": "LineString", "coordinates": [[-68.836159, 45.730553], [-68.836014, 45.730553]]}}, {"type": "Feature", "properties": {"kind": "building"}, "geometry": {"type": "Polygon", "coordinates": [[[-68.821457, 45.788412], [-68.821499, 45.788489], [-68.82137, 45.788523], [-68.821327, 45.788446], [-68.821457, 45.788412]]]}}, {"type": "Feature", "properties": {"kind": "building"}, "geometry": {"type": "Polygon", "coordinates": [[[-68.82146, 45.788184], [-68.821426, 45.788123], [-68.821478, 45.788109], [-68.821489, 45.788127], [-68.821548, 45.788111], [-68.821565, 45.78814], [-68.821511, 45.788155], [-68.821518, 45.788168], [-68.82146, 45.788184]]]}}, {"type": "Feature", "properties": {"kind": "pier"}, "geometry": {"type": "LineString", "coordinates": [[-68.821361, 45.787908], [-68.821356, 45.787898], [-68.821301, 45.787781]]}}, {"type": "Feature", "properties": {"kind": "building"}, "geometry": {"type": "Polygon", "coordinates": [[[-68.821218, 45.788373], [-68.821198, 45.788336], [-68.821096, 45.788361], [-68.821116, 45.788399], [-68.821218, 45.788373]]]}}, {"type": "Feature", "properties": {"kind": "building", "name": "Camp Rhodora"}, "geometry": {"type": "Polygon", "coordinates": [[[-68.794844, 45.729347], [-68.794885, 45.729335], [-68.794839, 45.72926], [-68.79479, 45.729275], [-68.794816, 45.729316], [-68.794681, 45.729357], [-68.794727, 45.729431], [-68.79487, 45.729388], [-68.794844, 45.729347]]]}}, {"type": "Feature", "properties": {"kind": "building"}, "geometry": {"type": "Polygon", "coordinates": [[[-68.794659, 45.729223], [-68.794526, 45.729266], [-68.794564, 45.729324], [-68.79466, 45.729293], [-68.794633, 45.729252], [-68.79467, 45.72924], [-68.794659, 45.729223]]]}}, {"type": "Feature", "properties": {"kind": "building", "name": "Little Pine"}, "geometry": {"type": "Polygon", "coordinates": [[[-68.836736, 45.729155], [-68.836677, 45.729177], [-68.836632, 45.729121], [-68.836691, 45.729099], [-68.836736, 45.729155]]]}}, {"type": "Feature", "properties": {"kind": "building", "name": "Knife's Edge"}, "geometry": {"type": "Polygon", "coordinates": [[[-68.838564, 45.728823], [-68.838463, 45.728843], [-68.838432, 45.728768], [-68.838532, 45.728748], [-68.838564, 45.728823]]]}}, {"type": "Feature", "properties": {"kind": "building"}, "geometry": {"type": "Polygon", "coordinates": [[[-68.819092, 45.727114], [-68.819147, 45.727165], [-68.819204, 45.727136], [-68.819148, 45.727084], [-68.819092, 45.727114]]]}}, {"type": "Feature", "properties": {"kind": "building"}, "geometry": {"type": "Polygon", "coordinates": [[[-68.833477, 45.729324], [-68.833437, 45.729297], [-68.833382, 45.729336], [-68.833422, 45.729363], [-68.833477, 45.729324]]]}}, {"type": "Feature", "properties": {"kind": "building"}, "geometry": {"type": "Polygon", "coordinates": [[[-68.818818, 45.726992], [-68.818599, 45.726911], [-68.818558, 45.726965], [-68.818777, 45.727046], [-68.818818, 45.726992]]]}}, {"type": "Feature", "properties": {"kind": "building"}, "geometry": {"type": "Polygon", "coordinates": [[[-68.816562, 45.726027], [-68.816499, 45.725984], [-68.816418, 45.726042], [-68.816482, 45.726085], [-68.816562, 45.726027]]]}}, {"type": "Feature", "properties": {"kind": "building"}, "geometry": {"type": "Polygon", "coordinates": [[[-68.818483, 45.72701], [-68.818443, 45.726984], [-68.81841, 45.727009], [-68.818449, 45.727035], [-68.818483, 45.72701]]]}}, {"type": "Feature", "properties": {"kind": "building"}, "geometry": {"type": "Polygon", "coordinates": [[[-68.828669, 45.727567], [-68.828588, 45.727642], [-68.828675, 45.727688], [-68.828756, 45.727613], [-68.828669, 45.727567]]]}}, {"type": "Feature", "properties": {"kind": "building"}, "geometry": {"type": "Polygon", "coordinates": [[[-68.818688, 45.72679], [-68.818579, 45.726836], [-68.818616, 45.726879], [-68.818724, 45.726833], [-68.818688, 45.72679]]]}}, {"type": "Feature", "properties": {"kind": "building"}, "geometry": {"type": "Polygon", "coordinates": [[[-68.815599, 45.728596], [-68.815599, 45.728656], [-68.815733, 45.728656], [-68.815733, 45.728596], [-68.815599, 45.728596]]]}}, {"type": "Feature", "properties": {"kind": "building"}, "geometry": {"type": "Polygon", "coordinates": [[[-68.739549, 45.743177], [-68.73954, 45.743134], [-68.739601, 45.743128], [-68.739591, 45.743076], [-68.739409, 45.743093], [-68.739419, 45.743146], [-68.739483, 45.74314], [-68.739491, 45.743183], [-68.739549, 45.743177]]]}}, {"type": "Feature", "properties": {"kind": "building"}, "geometry": {"type": "Polygon", "coordinates": [[[-68.740032, 45.744272], [-68.739938, 45.744245], [-68.739872, 45.744357], [-68.739965, 45.744384], [-68.740032, 45.744272]]]}}, {"type": "Feature", "properties": {"kind": "building"}, "geometry": {"type": "Polygon", "coordinates": [[[-68.739765, 45.743488], [-68.739801, 45.743566], [-68.739933, 45.743536], [-68.739897, 45.743458], [-68.739765, 45.743488]]]}}, {"type": "Feature", "properties": {"kind": "building"}, "geometry": {"type": "Polygon", "coordinates": [[[-68.845847, 45.717866], [-68.845801, 45.717837], [-68.845922, 45.717744], [-68.845967, 45.717773], [-68.845847, 45.717866]]]}}, {"type": "Feature", "properties": {"kind": "building"}, "geometry": {"type": "Polygon", "coordinates": [[[-68.834859, 45.731759], [-68.834821, 45.731648], [-68.834726, 45.731664], [-68.834764, 45.731775], [-68.834859, 45.731759]]]}}, {"type": "Feature", "properties": {"kind": "building"}, "geometry": {"type": "Polygon", "coordinates": [[[-68.796497, 45.728253], [-68.796497, 45.728156], [-68.796403, 45.728156], [-68.796403, 45.728253], [-68.796497, 45.728253]]]}}, {"type": "Feature", "properties": {"kind": "building"}, "geometry": {"type": "Polygon", "coordinates": [[[-68.793894, 45.730212], [-68.793831, 45.73015], [-68.793736, 45.730197], [-68.793799, 45.730259], [-68.793894, 45.730212]]]}}, {"type": "Feature", "properties": {"kind": "building"}, "geometry": {"type": "Polygon", "coordinates": [[[-68.838932, 45.731749], [-68.839128, 45.731777], [-68.83915, 45.731701], [-68.838954, 45.731674], [-68.838932, 45.731749]]]}}, {"type": "Feature", "properties": {"kind": "building"}, "geometry": {"type": "Polygon", "coordinates": [[[-68.839387, 45.731403], [-68.839303, 45.731311], [-68.839213, 45.73135], [-68.839296, 45.731443], [-68.839387, 45.731403]]]}}, {"type": "Feature", "properties": {"kind": "building"}, "geometry": {"type": "Polygon", "coordinates": [[[-68.834952, 45.731357], [-68.834982, 45.731413], [-68.835102, 45.731382], [-68.835072, 45.731326], [-68.834952, 45.731357]]]}}, {"type": "Feature", "properties": {"kind": "building"}, "geometry": {"type": "Polygon", "coordinates": [[[-68.834679, 45.731506], [-68.834626, 45.731426], [-68.834449, 45.731483], [-68.834503, 45.731563], [-68.834679, 45.731506]]]}}, {"type": "Feature", "properties": {"kind": "building"}, "geometry": {"type": "Polygon", "coordinates": [[[-68.797993, 45.725373], [-68.798114, 45.725373], [-68.798114, 45.725326], [-68.797993, 45.725326], [-68.797993, 45.725373]]]}}, {"type": "Feature", "properties": {"kind": "building"}, "geometry": {"type": "Polygon", "coordinates": [[[-68.84144, 45.731417], [-68.841365, 45.731417], [-68.841365, 45.731479], [-68.84144, 45.731479], [-68.84144, 45.731417]]]}}, {"type": "Feature", "properties": {"kind": "building"}, "geometry": {"type": "Polygon", "coordinates": [[[-68.85163, 45.72181], [-68.851742, 45.721841], [-68.851772, 45.721786], [-68.85166, 45.721755], [-68.85163, 45.72181]]]}}, {"type": "Feature", "properties": {"kind": "building"}, "geometry": {"type": "Polygon", "coordinates": [[[-68.85438, 45.72377], [-68.854346, 45.723658], [-68.854214, 45.723678], [-68.854248, 45.723789], [-68.85438, 45.72377]]]}}, {"type": "Feature", "properties": {"kind": "building"}, "geometry": {"type": "Polygon", "coordinates": [[[-68.843004, 45.722154], [-68.842869, 45.722154], [-68.842869, 45.722233], [-68.843004, 45.722233], [-68.843004, 45.722154]]]}}, {"type": "Feature", "properties": {"kind": "building"}, "geometry": {"type": "Polygon", "coordinates": [[[-68.852362, 45.716648], [-68.852294, 45.716517], [-68.85219, 45.716544], [-68.852257, 45.716675], [-68.852362, 45.716648]]]}}, {"type": "Feature", "properties": {"kind": "building"}, "geometry": {"type": "Polygon", "coordinates": [[[-68.853872, 45.723502], [-68.853979, 45.723491], [-68.853951, 45.723354], [-68.853843, 45.723364], [-68.853872, 45.723502]]]}}, {"type": "Feature", "properties": {"kind": "building"}, "geometry": {"type": "Polygon", "coordinates": [[[-68.851502, 45.722186], [-68.851614, 45.722199], [-68.85163, 45.72213], [-68.851518, 45.722117], [-68.851502, 45.722186]]]}}, {"type": "Feature", "properties": {"kind": "building"}, "geometry": {"type": "Polygon", "coordinates": [[[-68.843714, 45.722091], [-68.843814, 45.72216], [-68.843899, 45.7221], [-68.8438, 45.722031], [-68.843714, 45.722091]]]}}, {"type": "Feature", "properties": {"kind": "building"}, "geometry": {"type": "Polygon", "coordinates": [[[-68.853283, 45.723607], [-68.853287, 45.723506], [-68.853071, 45.723501], [-68.853067, 45.723604], [-68.85309, 45.723605], [-68.853086, 45.72368], [-68.853209, 45.723682], [-68.853213, 45.723606], [-68.853283, 45.723607]]]}}, {"type": "Feature", "properties": {"kind": "building"}, "geometry": {"type": "Polygon", "coordinates": [[[-68.842863, 45.731129], [-68.842794, 45.731001], [-68.842697, 45.731026], [-68.842767, 45.731154], [-68.842863, 45.731129]]]}}, {"type": "Feature", "properties": {"kind": "building"}, "geometry": {"type": "Polygon", "coordinates": [[[-68.852001, 45.714956], [-68.852103, 45.714957], [-68.852106, 45.71486], [-68.852004, 45.714858], [-68.852001, 45.714956]]]}}, {"type": "Feature", "properties": {"kind": "building"}, "geometry": {"type": "Polygon", "coordinates": [[[-68.853724, 45.723482], [-68.853724, 45.723375], [-68.853647, 45.723375], [-68.853647, 45.723396], [-68.853582, 45.723396], [-68.853582, 45.723482], [-68.853724, 45.723482]]]}}, {"type": "Feature", "properties": {"kind": "building"}, "geometry": {"type": "Polygon", "coordinates": [[[-68.854485, 45.723497], [-68.854358, 45.723512], [-68.854403, 45.7237], [-68.85453, 45.723685], [-68.854485, 45.723497]]]}}, {"type": "Feature", "properties": {"kind": "building"}, "geometry": {"type": "Polygon", "coordinates": [[[-68.845388, 45.716487], [-68.845388, 45.716574], [-68.84545, 45.716574], [-68.84545, 45.716487], [-68.845388, 45.716487]]]}}, {"type": "Feature", "properties": {"kind": "building"}, "geometry": {"type": "Polygon", "coordinates": [[[-68.843948, 45.721285], [-68.844088, 45.721322], [-68.844126, 45.721251], [-68.844069, 45.721236], [-68.8441, 45.721179], [-68.844016, 45.721157], [-68.843948, 45.721285]]]}}, {"type": "Feature", "properties": {"kind": "building"}, "geometry": {"type": "Polygon", "coordinates": [[[-68.850842, 45.72305], [-68.850775, 45.7231], [-68.85083, 45.723136], [-68.850897, 45.723085], [-68.850842, 45.72305]]]}}, {"type": "Feature", "properties": {"kind": "building"}, "geometry": {"type": "Polygon", "coordinates": [[[-68.84556, 45.716439], [-68.845485, 45.716439], [-68.845485, 45.716538], [-68.84556, 45.716538], [-68.84556, 45.716439]]]}}, {"type": "Feature", "properties": {"kind": "building"}, "geometry": {"type": "Polygon", "coordinates": [[[-68.842443, 45.722168], [-68.842624, 45.722158], [-68.842613, 45.722067], [-68.842432, 45.722077], [-68.842443, 45.722168]]]}}, {"type": "Feature", "properties": {"kind": "building"}, "geometry": {"type": "Polygon", "coordinates": [[[-68.844425, 45.720474], [-68.844502, 45.720381], [-68.844377, 45.72033], [-68.844353, 45.720359], [-68.844327, 45.720348], [-68.844293, 45.720389], [-68.844319, 45.720399], [-68.8443, 45.720423], [-68.844425, 45.720474]]]}}, {"type": "Feature", "properties": {"kind": "building"}, "geometry": {"type": "Polygon", "coordinates": [[[-68.850396, 45.716374], [-68.850396, 45.716434], [-68.850527, 45.716434], [-68.850527, 45.716374], [-68.850396, 45.716374]]]}}, {"type": "Feature", "properties": {"kind": "building"}, "geometry": {"type": "Polygon", "coordinates": [[[-68.840177, 45.725019], [-68.840269, 45.724976], [-68.840206, 45.72491], [-68.840113, 45.724953], [-68.840177, 45.725019]]]}}, {"type": "Feature", "properties": {"kind": "building"}, "geometry": {"type": "Polygon", "coordinates": [[[-68.852417, 45.716825], [-68.852321, 45.716924], [-68.852404, 45.716963], [-68.852499, 45.716864], [-68.852417, 45.716825]]]}}, {"type": "Feature", "properties": {"kind": "building"}, "geometry": {"type": "Polygon", "coordinates": [[[-68.850882, 45.724874], [-68.850911, 45.724838], [-68.850873, 45.724823], [-68.850844, 45.724859], [-68.850882, 45.724874]]]}}, {"type": "Feature", "properties": {"kind": "building"}, "geometry": {"type": "Polygon", "coordinates": [[[-68.841137, 45.731481], [-68.841068, 45.731478], [-68.841067, 45.73149], [-68.840986, 45.731487], [-68.84098, 45.731565], [-68.84113, 45.731571], [-68.841137, 45.731481]]]}}, {"type": "Feature", "properties": {"kind": "building"}, "geometry": {"type": "Polygon", "coordinates": [[[-68.85157, 45.716967], [-68.85157, 45.717046], [-68.85168, 45.717046], [-68.85168, 45.716967], [-68.85157, 45.716967]]]}}, {"type": "Feature", "properties": {"kind": "building"}, "geometry": {"type": "Polygon", "coordinates": [[[-68.842016, 45.721989], [-68.841928, 45.721876], [-68.841849, 45.721906], [-68.841937, 45.722019], [-68.842016, 45.721989]]]}}, {"type": "Feature", "properties": {"kind": "building"}, "geometry": {"type": "Polygon", "coordinates": [[[-68.850887, 45.723795], [-68.851077, 45.723726], [-68.851019, 45.723649], [-68.850944, 45.723676], [-68.850885, 45.723597], [-68.85077, 45.723639], [-68.850887, 45.723795]]]}}, {"type": "Feature", "properties": {"kind": "building"}, "geometry": {"type": "Polygon", "coordinates": [[[-68.85285, 45.724153], [-68.853056, 45.724146], [-68.853051, 45.724069], [-68.852845, 45.724075], [-68.85285, 45.724153]]]}}, {"type": "Feature", "properties": {"kind": "building"}, "geometry": {"type": "Polygon", "coordinates": [[[-68.856084, 45.712916], [-68.856046, 45.712854], [-68.855902, 45.712899], [-68.85594, 45.71296], [-68.856084, 45.712916]]]}}, {"type": "Feature", "properties": {"kind": "building"}, "geometry": {"type": "Polygon", "coordinates": [[[-68.847663, 45.714272], [-68.847792, 45.714302], [-68.847816, 45.714251], [-68.847686, 45.714221], [-68.847663, 45.714272]]]}}, {"type": "Feature", "properties": {"kind": "building"}, "geometry": {"type": "Polygon", "coordinates": [[[-68.857635, 45.711673], [-68.857662, 45.711766], [-68.857798, 45.711747], [-68.857772, 45.711654], [-68.857635, 45.711673]]]}}, {"type": "Feature", "properties": {"kind": "building"}, "geometry": {"type": "Polygon", "coordinates": [[[-68.86895, 45.728973], [-68.869033, 45.729076], [-68.869104, 45.729048], [-68.869021, 45.728945], [-68.86895, 45.728973]]]}}, {"type": "Feature", "properties": {"kind": "building"}, "geometry": {"type": "Polygon", "coordinates": [[[-68.860816, 45.726768], [-68.860657, 45.72673], [-68.860622, 45.726803], [-68.860781, 45.72684], [-68.860816, 45.726768]]]}}, {"type": "Feature", "properties": {"kind": "building"}, "geometry": {"type": "Polygon", "coordinates": [[[-68.749243, 45.748591], [-68.749104, 45.748518], [-68.749028, 45.748589], [-68.749167, 45.748662], [-68.749243, 45.748591]]]}}, {"type": "Feature", "properties": {"kind": "building"}, "geometry": {"type": "Polygon", "coordinates": [[[-68.86945, 45.728901], [-68.86945, 45.728978], [-68.869531, 45.728978], [-68.869531, 45.728901], [-68.86945, 45.728901]]]}}, {"type": "Feature", "properties": {"kind": "building"}, "geometry": {"type": "Polygon", "coordinates": [[[-68.865472, 45.727956], [-68.865274, 45.727937], [-68.86526, 45.72801], [-68.865457, 45.728029], [-68.865472, 45.727956]]]}}, {"type": "Feature", "properties": {"kind": "building"}, "geometry": {"type": "Polygon", "coordinates": [[[-68.865791, 45.727262], [-68.865736, 45.72733], [-68.865899, 45.727395], [-68.865954, 45.727327], [-68.865791, 45.727262]]]}}, {"type": "Feature", "properties": {"kind": "building"}, "geometry": {"type": "Polygon", "coordinates": [[[-68.751283, 45.749334], [-68.751457, 45.749334], [-68.751457, 45.749261], [-68.751283, 45.749261], [-68.751283, 45.749334]]]}}, {"type": "Feature", "properties": {"kind": "building"}, "geometry": {"type": "Polygon", "coordinates": [[[-68.862989, 45.726985], [-68.862793, 45.726985], [-68.862793, 45.727064], [-68.862989, 45.727064], [-68.862989, 45.726985]]]}}, {"type": "Feature", "properties": {"kind": "building"}, "geometry": {"type": "Polygon", "coordinates": [[[-68.860307, 45.72664], [-68.860529, 45.726704], [-68.860591, 45.726599], [-68.860368, 45.726536], [-68.860307, 45.72664]]]}}, {"type": "Feature", "properties": {"kind": "building"}, "geometry": {"type": "Polygon", "coordinates": [[[-68.750281, 45.748954], [-68.750353, 45.748884], [-68.750289, 45.748852], [-68.750217, 45.748922], [-68.750281, 45.748954]]]}}, {"type": "Feature", "properties": {"kind": "building"}, "geometry": {"type": "Polygon", "coordinates": [[[-68.864186, 45.726528], [-68.864044, 45.726592], [-68.864104, 45.726657], [-68.864246, 45.726593], [-68.864186, 45.726528]]]}}, {"type": "Feature", "properties": {"kind": "building"}, "geometry": {"type": "Polygon", "coordinates": [[[-68.858738, 45.725891], [-68.858827, 45.72592], [-68.858941, 45.725747], [-68.858853, 45.725719], [-68.858738, 45.725891]]]}}, {"type": "Feature", "properties": {"kind": "building"}, "geometry": {"type": "Polygon", "coordinates": [[[-68.817446, 45.716357], [-68.817321, 45.716344], [-68.817225, 45.716343], [-68.817136, 45.716345], [-68.817055, 45.716352], [-68.817025, 45.716354], [-68.817022, 45.716287], [-68.816951, 45.716287], [-68.816951, 45.716207], [-68.817056, 45.716207], [-68.817055, 45.716154], [-68.817099, 45.716161], [-68.81724, 45.71617], [-68.817294, 45.716172], [-68.817358, 45.716171], [-68.817358, 45.716093], [-68.817532, 45.716093], [-68.817533, 45.716175], [-68.817466, 45.716175], [-68.817466, 45.716206], [-68.817488, 45.716206], [-68.817491, 45.716285], [-68.817443, 45.716287], [-68.817446, 45.716357]]]}}, {"type": "Feature", "properties": {"kind": "camp", "name": "Big Moose Campground"}, "geometry": {"type": "LineString", "coordinates": [[-68.837844, 45.729323], [-68.837131, 45.729519], [-68.837262, 45.729731], [-68.836287, 45.729876], [-68.836235, 45.729758], [-68.836274, 45.72971], [-68.836285, 45.729696], [-68.836287, 45.729668], [-68.836268, 45.729641], [-68.836251, 45.729601], [-68.836242, 45.729545], [-68.836235, 45.729515], [-68.83617, 45.729453], [-68.836141, 45.729399], [-68.835878, 45.729083], [-68.835573, 45.728863], [-68.835848, 45.728082], [-68.83547, 45.72747], [-68.834927, 45.726585], [-68.834607, 45.725898], [-68.83458, 45.725529], [-68.834638, 45.725172], [-68.834611, 45.724805], [-68.83446, 45.724488], [-68.834353, 45.724168], [-68.834331, 45.724001], [-68.834344, 45.723656], [-68.834282, 45.723237], [-68.83418, 45.723044], [-68.833953, 45.722867], [-68.833432, 45.722398], [-68.833183, 45.722181], [-68.833045, 45.722019], [-68.832974, 45.721817], [-68.832987, 45.721687], [-68.833143, 45.721541], [-68.833406, 45.721476], [-68.833632, 45.721528], [-68.833815, 45.721622], [-68.834086, 45.721824], [-68.834331, 45.722007], [-68.834687, 45.722274], [-68.834847, 45.722445], [-68.835034, 45.722647], [-68.835287, 45.722911], [-68.835434, 45.723156], [-68.835528, 45.723597], [-68.835599, 45.723951], [-68.835697, 45.724125], [-68.836053, 45.724594], [-68.836337, 45.724728], [-68.836711, 45.725023], [-68.836809, 45.725305], [-68.836782, 45.725613], [-68.836346, 45.725945], [-68.835937, 45.726249], [-68.835746, 45.726501], [-68.835719, 45.72674], [-68.835857, 45.727051], [-68.836133, 45.727287], [-68.836373, 45.727451], [-68.836791, 45.727576], [-68.836898, 45.727635], [-68.837472, 45.728103], [-68.837699, 45.728448], [-68.837885, 45.729007], [-68.837977, 45.729285], [-68.837844, 45.729323]]}}, {"type": "Feature", "properties": {"kind": "building"}, "geometry": {"type": "Polygon", "coordinates": [[[-68.841116, 45.731598], [-68.841115, 45.731676], [-68.841206, 45.731676], [-68.841207, 45.731599], [-68.841116, 45.731598]]]}}]}