{"type": "FeatureCollection", "meta": {"source": "Microsoft US Building Footprints v2 (ODbL), Maine", "url": "https://minedbuildings.z5.web.core.windows.net/legacy/usbuildings-v2/Maine.geojson.zip", "note": "machine-generated from imagery; positions are good, outlines are approximate"}, "features": [{"type": "Feature", "properties": {"kind": "building", "detected": true, "source": "ms-buildings"}, "geometry": {"type": "Polygon", "coordinates": [[[-68.818638, 45.726363], [-68.818747, 45.726329], [-68.818672, 45.726212], [-68.818563, 45.726246], [-68.818638, 45.726363]]]}}, {"type": "Feature", "properties": {"kind": "building", "detected": true, "source": "ms-buildings"}, "geometry": {"type": "Polygon", "coordinates": [[[-68.83419, 45.728576], [-68.834156, 45.728518], [-68.834059, 45.728546], [-68.834093, 45.728604], [-68.83419, 45.728576]]]}}, {"type": "Feature", "properties": {"kind": "building", "detected": true, "source": "ms-buildings"}, "geometry": {"type": "Polygon", "coordinates": [[[-68.851502, 45.722186], [-68.851614, 45.722199], [-68.85163, 45.72213], [-68.851518, 45.722117], [-68.851502, 45.722186]]]}}, {"type": "Feature", "properties": {"kind": "building", "detected": true, "source": "ms-buildings"}, "geometry": {"type": "Polygon", "coordinates": [[[-68.819651, 45.725822], [-68.819548, 45.725788], [-68.819462, 45.725916], [-68.819566, 45.72595], [-68.819651, 45.725822]]]}}, {"type": "Feature", "properties": {"kind": "building", "detected": true, "source": "ms-buildings"}, "geometry": {"type": "Polygon", "coordinates": [[[-68.836663, 45.729906], [-68.83671, 45.730014], [-68.836827, 45.72999], [-68.83678, 45.729882], [-68.836663, 45.729906]]]}}, {"type": "Feature", "properties": {"kind": "building", "detected": true, "source": "ms-buildings"}, "geometry": {"type": "Polygon", "coordinates": [[[-68.821229, 45.72599], [-68.821349, 45.726095], [-68.821495, 45.726014], [-68.821419, 45.725948], [-68.821346, 45.725989], [-68.821301, 45.72595], [-68.821229, 45.72599]]]}}, {"type": "Feature", "properties": {"kind": "building", "detected": true, "source": "ms-buildings"}, "geometry": {"type": "Polygon", "coordinates": [[[-68.794648, 45.729285], [-68.794606, 45.729224], [-68.794541, 45.729246], [-68.794583, 45.729307], [-68.794648, 45.729285]]]}}, {"type": "Feature", "properties": {"kind": "building", "detected": true, "source": "ms-buildings"}, "geometry": {"type": "Polygon", "coordinates": [[[-68.858738, 45.725891], [-68.858827, 45.72592], [-68.858941, 45.725747], [-68.858853, 45.725719], [-68.858738, 45.725891]]]}}, {"type": "Feature", "properties": {"kind": "building", "detected": true, "source": "ms-buildings"}, "geometry": {"type": "Polygon", "coordinates": [[[-68.834952, 45.731357], [-68.834982, 45.731413], [-68.835102, 45.731382], [-68.835072, 45.731326], [-68.834952, 45.731357]]]}}, {"type": "Feature", "properties": {"kind": "building", "detected": true, "source": "ms-buildings"}, "geometry": {"type": "Polygon", "coordinates": [[[-68.750281, 45.748954], [-68.750353, 45.748884], [-68.750289, 45.748852], [-68.750217, 45.748922], [-68.750281, 45.748954]]]}}, {"type": "Feature", "properties": {"kind": "building", "detected": true, "source": "ms-buildings"}, "geometry": {"type": "Polygon", "coordinates": [[[-68.843004, 45.722154], [-68.842869, 45.722154], [-68.842869, 45.722233], [-68.843004, 45.722233], [-68.843004, 45.722154]]]}}, {"type": "Feature", "properties": {"kind": "building", "detected": true, "source": "ms-buildings"}, "geometry": {"type": "Polygon", "coordinates": [[[-68.815599, 45.728596], [-68.815599, 45.728656], [-68.815733, 45.728656], [-68.815733, 45.728596], [-68.815599, 45.728596]]]}}, {"type": "Feature", "properties": {"kind": "building", "detected": true, "source": "ms-buildings"}, "geometry": {"type": "Polygon", "coordinates": [[[-68.816085, 45.726823], [-68.815914, 45.726854], [-68.815939, 45.726922], [-68.81611, 45.726892], [-68.816085, 45.726823]]]}}, {"type": "Feature", "properties": {"kind": "building", "detected": true, "source": "ms-buildings"}, "geometry": {"type": "Polygon", "coordinates": [[[-68.838932, 45.731749], [-68.839128, 45.731777], [-68.83915, 45.731701], [-68.838954, 45.731674], [-68.838932, 45.731749]]]}}, {"type": "Feature", "properties": {"kind": "building", "detected": true, "source": "ms-buildings"}, "geometry": {"type": "Polygon", "coordinates": [[[-68.850396, 45.716374], [-68.850396, 45.716434], [-68.850527, 45.716434], [-68.850527, 45.716374], [-68.850396, 45.716374]]]}}, {"type": "Feature", "properties": {"kind": "building", "detected": true, "source": "ms-buildings"}, "geometry": {"type": "Polygon", "coordinates": [[[-68.818688, 45.72679], [-68.818579, 45.726836], [-68.818616, 45.726879], [-68.818724, 45.726833], [-68.818688, 45.72679]]]}}, {"type": "Feature", "properties": {"kind": "building", "detected": true, "source": "ms-buildings"}, "geometry": {"type": "Polygon", "coordinates": [[[-68.836456, 45.728747], [-68.83635, 45.728685], [-68.836284, 45.728741], [-68.83639, 45.728802], [-68.836456, 45.728747]]]}}, {"type": "Feature", "properties": {"kind": "building", "detected": true, "source": "ms-buildings"}, "geometry": {"type": "Polygon", "coordinates": [[[-68.840662, 45.722328], [-68.840551, 45.722351], [-68.840579, 45.722415], [-68.84069, 45.722392], [-68.840662, 45.722328]]]}}, {"type": "Feature", "properties": {"kind": "building", "detected": true, "source": "ms-buildings"}, "geometry": {"type": "Polygon", "coordinates": [[[-68.842016, 45.721989], [-68.841928, 45.721876], [-68.841849, 45.721906], [-68.841937, 45.722019], [-68.842016, 45.721989]]]}}, {"type": "Feature", "properties": {"kind": "building", "detected": true, "source": "ms-buildings"}, "geometry": {"type": "Polygon", "coordinates": [[[-68.85163, 45.72181], [-68.851742, 45.721841], [-68.851772, 45.721786], [-68.85166, 45.721755], [-68.85163, 45.72181]]]}}, {"type": "Feature", "properties": {"kind": "building", "detected": true, "source": "ms-buildings"}, "geometry": {"type": "Polygon", "coordinates": [[[-68.853283, 45.723607], [-68.853287, 45.723506], [-68.853071, 45.723501], [-68.853067, 45.723604], [-68.85309, 45.723605], [-68.853086, 45.72368], [-68.853209, 45.723682], [-68.853213, 45.723606], [-68.853283, 45.723607]]]}}, {"type": "Feature", "properties": {"kind": "building", "detected": true, "source": "ms-buildings"}, "geometry": {"type": "Polygon", "coordinates": [[[-68.793894, 45.730212], [-68.793831, 45.73015], [-68.793736, 45.730197], [-68.793799, 45.730259], [-68.793894, 45.730212]]]}}, {"type": "Feature", "properties": {"kind": "building", "detected": true, "source": "ms-buildings"}, "geometry": {"type": "Polygon", "coordinates": [[[-68.816562, 45.726027], [-68.816499, 45.725984], [-68.816418, 45.726042], [-68.816482, 45.726085], [-68.816562, 45.726027]]]}}, {"type": "Feature", "properties": {"kind": "building", "detected": true, "source": "ms-buildings"}, "geometry": {"type": "Polygon", "coordinates": [[[-68.81923, 45.72575], [-68.819175, 45.725814], [-68.819274, 45.725855], [-68.819329, 45.725792], [-68.81923, 45.72575]]]}}, {"type": "Feature", "properties": {"kind": "building", "detected": true, "source": "ms-buildings"}, "geometry": {"type": "Polygon", "coordinates": [[[-68.830825, 45.729508], [-68.83072, 45.729554], [-68.8308, 45.729644], [-68.830905, 45.729599], [-68.830825, 45.729508]]]}}, {"type": "Feature", "properties": {"kind": "building", "detected": true, "source": "ms-buildings"}, "geometry": {"type": "Polygon", "coordinates": [[[-68.853724, 45.723482], [-68.853724, 45.723375], [-68.853647, 45.723375], [-68.853647, 45.723396], [-68.853582, 45.723396], [-68.853582, 45.723482], [-68.853724, 45.723482]]]}}, {"type": "Feature", "properties": {"kind": "building", "detected": true, "source": "ms-buildings"}, "geometry": {"type": "Polygon", "coordinates": [[[-68.840732, 45.72261], [-68.840597, 45.72262], [-68.840612, 45.722724], [-68.840747, 45.722714], [-68.840732, 45.72261]]]}}, {"type": "Feature", "properties": {"kind": "building", "detected": true, "source": "ms-buildings"}, "geometry": {"type": "Polygon", "coordinates": [[[-68.819929, 45.726825], [-68.819895, 45.726777], [-68.819709, 45.72684], [-68.819702, 45.726831], [-68.819579, 45.726873], [-68.819544, 45.726824], [-68.81939, 45.726876], [-68.819431, 45.726934], [-68.819576, 45.726885], [-68.819655, 45.726998], [-68.819788, 45.726952], [-68.819743, 45.726888], [-68.819929, 45.726825]]]}}, {"type": "Feature", "properties": {"kind": "building", "detected": true, "source": "ms-buildings"}, "geometry": {"type": "Polygon", "coordinates": [[[-68.850887, 45.723795], [-68.851077, 45.723726], [-68.851019, 45.723649], [-68.850944, 45.723676], [-68.850885, 45.723597], [-68.85077, 45.723639], [-68.850887, 45.723795]]]}}, {"type": "Feature", "properties": {"kind": "building", "detected": true, "source": "ms-buildings"}, "geometry": {"type": "Polygon", "coordinates": [[[-68.819092, 45.727114], [-68.819147, 45.727165], [-68.819204, 45.727136], [-68.819148, 45.727084], [-68.819092, 45.727114]]]}}, {"type": "Feature", "properties": {"kind": "building", "detected": true, "source": "ms-buildings"}, "geometry": {"type": "Polygon", "coordinates": [[[-68.8195, 45.725547], [-68.81958, 45.725639], [-68.819678, 45.725597], [-68.819598, 45.725506], [-68.8195, 45.725547]]]}}, {"type": "Feature", "properties": {"kind": "building", "detected": true, "source": "ms-buildings"}, "geometry": {"type": "Polygon", "coordinates": [[[-68.831581, 45.729701], [-68.831561, 45.729772], [-68.831692, 45.729791], [-68.831713, 45.729719], [-68.831581, 45.729701]]]}}, {"type": "Feature", "properties": {"kind": "building", "detected": true, "source": "ms-buildings"}, "geometry": {"type": "Polygon", "coordinates": [[[-68.850882, 45.724874], [-68.850911, 45.724838], [-68.850873, 45.724823], [-68.850844, 45.724859], [-68.850882, 45.724874]]]}}, {"type": "Feature", "properties": {"kind": "building", "detected": true, "source": "ms-buildings"}, "geometry": {"type": "Polygon", "coordinates": [[[-68.740032, 45.744272], [-68.739938, 45.744245], [-68.739872, 45.744357], [-68.739965, 45.744384], [-68.740032, 45.744272]]]}}, {"type": "Feature", "properties": {"kind": "building", "detected": true, "source": "ms-buildings"}, "geometry": {"type": "Polygon", "coordinates": [[[-68.843904, 45.721241], [-68.844044, 45.721278], [-68.844081, 45.721207], [-68.844025, 45.721192], [-68.844055, 45.721135], [-68.843972, 45.721113], [-68.843904, 45.721241]]]}}, {"type": "Feature", "properties": {"kind": "building", "detected": true, "source": "ms-buildings"}, "geometry": {"type": "Polygon", "coordinates": [[[-68.750635, 45.795637], [-68.750697, 45.795664], [-68.750736, 45.795619], [-68.750675, 45.795592], [-68.750635, 45.795637]]]}}, {"type": "Feature", "properties": {"kind": "building", "detected": true, "source": "ms-buildings"}, "geometry": {"type": "Polygon", "coordinates": [[[-68.837804, 45.72961], [-68.837967, 45.729574], [-68.837902, 45.729428], [-68.837738, 45.729463], [-68.837804, 45.72961]]]}}, {"type": "Feature", "properties": {"kind": "building", "detected": true, "source": "ms-buildings"}, "geometry": {"type": "Polygon", "coordinates": [[[-68.815713, 45.725799], [-68.815635, 45.725755], [-68.815476, 45.725893], [-68.815553, 45.725937], [-68.815713, 45.725799]]]}}, {"type": "Feature", "properties": {"kind": "building", "detected": true, "source": "ms-buildings"}, "geometry": {"type": "Polygon", "coordinates": [[[-68.818875, 45.726678], [-68.818753, 45.726531], [-68.818608, 45.72659], [-68.818731, 45.726737], [-68.818875, 45.726678]]]}}, {"type": "Feature", "properties": {"kind": "building", "detected": true, "source": "ms-buildings"}, "geometry": {"type": "Polygon", "coordinates": [[[-68.839845, 45.7262], [-68.839767, 45.7261], [-68.839473, 45.726211], [-68.83955, 45.726311], [-68.839845, 45.7262]]]}}, {"type": "Feature", "properties": {"kind": "building", "detected": true, "source": "ms-buildings"}, "geometry": {"type": "Polygon", "coordinates": [[[-68.818875, 45.726758], [-68.818915, 45.726805], [-68.819011, 45.726766], [-68.818971, 45.726719], [-68.818875, 45.726758]]]}}, {"type": "Feature", "properties": {"kind": "building", "detected": true, "source": "ms-buildings"}, "geometry": {"type": "Polygon", "coordinates": [[[-68.843714, 45.722091], [-68.843814, 45.72216], [-68.843899, 45.7221], [-68.8438, 45.722031], [-68.843714, 45.722091]]]}}, {"type": "Feature", "properties": {"kind": "building", "detected": true, "source": "ms-buildings"}, "geometry": {"type": "Polygon", "coordinates": [[[-68.833658, 45.729618], [-68.833589, 45.729556], [-68.833484, 45.729614], [-68.833553, 45.729675], [-68.833658, 45.729618]]]}}, {"type": "Feature", "properties": {"kind": "building", "detected": true, "source": "ms-buildings"}, "geometry": {"type": "Polygon", "coordinates": [[[-68.83726, 45.728387], [-68.837253, 45.72824], [-68.83709, 45.728244], [-68.837097, 45.728391], [-68.83726, 45.728387]]]}}, {"type": "Feature", "properties": {"kind": "building", "detected": true, "source": "ms-buildings"}, "geometry": {"type": "Polygon", "coordinates": [[[-68.85157, 45.716967], [-68.85157, 45.717046], [-68.85168, 45.717046], [-68.85168, 45.716967], [-68.85157, 45.716967]]]}}, {"type": "Feature", "properties": {"kind": "building", "detected": true, "source": "ms-buildings"}, "geometry": {"type": "Polygon", "coordinates": [[[-68.852362, 45.716648], [-68.852294, 45.716517], [-68.85219, 45.716544], [-68.852257, 45.716675], [-68.852362, 45.716648]]]}}, {"type": "Feature", "properties": {"kind": "building", "detected": true, "source": "ms-buildings"}, "geometry": {"type": "Polygon", "coordinates": [[[-68.739765, 45.743488], [-68.739801, 45.743566], [-68.739933, 45.743536], [-68.739897, 45.743458], [-68.739765, 45.743488]]]}}, {"type": "Feature", "properties": {"kind": "building", "detected": true, "source": "ms-buildings"}, "geometry": {"type": "Polygon", "coordinates": [[[-68.85438, 45.72377], [-68.854346, 45.723658], [-68.854214, 45.723678], [-68.854248, 45.723789], [-68.85438, 45.72377]]]}}, {"type": "Feature", "properties": {"kind": "building", "detected": true, "source": "ms-buildings"}, "geometry": {"type": "Polygon", "coordinates": [[[-68.830346, 45.728848], [-68.830464, 45.728897], [-68.830499, 45.728857], [-68.830381, 45.728807], [-68.830346, 45.728848]]]}}, {"type": "Feature", "properties": {"kind": "building", "detected": true, "source": "ms-buildings"}, "geometry": {"type": "Polygon", "coordinates": [[[-68.840177, 45.725019], [-68.840269, 45.724976], [-68.840206, 45.72491], [-68.840113, 45.724953], [-68.840177, 45.725019]]]}}, {"type": "Feature", "properties": {"kind": "building", "detected": true, "source": "ms-buildings"}, "geometry": {"type": "Polygon", "coordinates": [[[-68.749243, 45.748591], [-68.749104, 45.748518], [-68.749028, 45.748589], [-68.749167, 45.748662], [-68.749243, 45.748591]]]}}, {"type": "Feature", "properties": {"kind": "building", "detected": true, "source": "ms-buildings"}, "geometry": {"type": "Polygon", "coordinates": [[[-68.83261, 45.730007], [-68.832498, 45.729916], [-68.83229, 45.730043], [-68.83237, 45.730106], [-68.832443, 45.730062], [-68.832478, 45.730089], [-68.832519, 45.730064], [-68.832561, 45.730098], [-68.832627, 45.730059], [-68.832583, 45.730023], [-68.83261, 45.730007]]]}}, {"type": "Feature", "properties": {"kind": "building", "detected": true, "source": "ms-buildings"}, "geometry": {"type": "Polygon", "coordinates": [[[-68.854485, 45.723497], [-68.854358, 45.723512], [-68.854403, 45.7237], [-68.85453, 45.723685], [-68.854485, 45.723497]]]}}, {"type": "Feature", "properties": {"kind": "building", "detected": true, "source": "ms-buildings"}, "geometry": {"type": "Polygon", "coordinates": [[[-68.852417, 45.716825], [-68.852321, 45.716924], [-68.852404, 45.716963], [-68.852499, 45.716864], [-68.852417, 45.716825]]]}}, {"type": "Feature", "properties": {"kind": "building", "detected": true, "source": "ms-buildings"}, "geometry": {"type": "Polygon", "coordinates": [[[-68.739003, 45.796768], [-68.738985, 45.7968], [-68.739048, 45.796817], [-68.739066, 45.796785], [-68.739003, 45.796768]]]}}, {"type": "Feature", "properties": {"kind": "building", "detected": true, "source": "ms-buildings"}, "geometry": {"type": "Polygon", "coordinates": [[[-68.818362, 45.787998], [-68.818448, 45.787998], [-68.818448, 45.787957], [-68.818408, 45.787957], [-68.818408, 45.787908], [-68.818362, 45.787908], [-68.818362, 45.787998]]]}}, {"type": "Feature", "properties": {"kind": "building", "detected": true, "source": "ms-buildings"}, "geometry": {"type": "Polygon", "coordinates": [[[-68.818483, 45.72701], [-68.818443, 45.726984], [-68.81841, 45.727009], [-68.818449, 45.727035], [-68.818483, 45.72701]]]}}, {"type": "Feature", "properties": {"kind": "building", "detected": true, "source": "ms-buildings"}, "geometry": {"type": "Polygon", "coordinates": [[[-68.853872, 45.723502], [-68.853979, 45.723491], [-68.853951, 45.723354], [-68.853843, 45.723364], [-68.853872, 45.723502]]]}}, {"type": "Feature", "properties": {"kind": "building", "detected": true, "source": "ms-buildings"}, "geometry": {"type": "Polygon", "coordinates": [[[-68.751283, 45.749334], [-68.751457, 45.749334], [-68.751457, 45.749261], [-68.751283, 45.749261], [-68.751283, 45.749334]]]}}, {"type": "Feature", "properties": {"kind": "building", "detected": true, "source": "ms-buildings"}, "geometry": {"type": "Polygon", "coordinates": [[[-68.819891, 45.725278], [-68.819953, 45.725278], [-68.819953, 45.72522], [-68.819891, 45.72522], [-68.819891, 45.725278]]]}}, {"type": "Feature", "properties": {"kind": "building", "detected": true, "source": "ms-buildings"}, "geometry": {"type": "Polygon", "coordinates": [[[-68.841135, 45.731559], [-68.841132, 45.731669], [-68.84122, 45.73167], [-68.841223, 45.731575], [-68.84118, 45.731574], [-68.841184, 45.731453], [-68.841026, 45.73145], [-68.841022, 45.731557], [-68.841135, 45.731559]]]}}, {"type": "Feature", "properties": {"kind": "building", "detected": true, "source": "ms-buildings"}, "geometry": {"type": "Polygon", "coordinates": [[[-68.837643, 45.729648], [-68.837745, 45.729611], [-68.837655, 45.72949], [-68.837553, 45.729526], [-68.837643, 45.729648]]]}}, {"type": "Feature", "properties": {"kind": "building", "detected": true, "source": "ms-buildings"}, "geometry": {"type": "Polygon", "coordinates": [[[-68.818818, 45.726992], [-68.818599, 45.726911], [-68.818558, 45.726965], [-68.818777, 45.727046], [-68.818818, 45.726992]]]}}, {"type": "Feature", "properties": {"kind": "building", "detected": true, "source": "ms-buildings"}, "geometry": {"type": "Polygon", "coordinates": [[[-68.820605, 45.725447], [-68.820535, 45.725537], [-68.820671, 45.725588], [-68.820758, 45.725476], [-68.82079, 45.725488], [-68.820823, 45.725444], [-68.820744, 45.725414], [-68.820693, 45.72548], [-68.820605, 45.725447]]]}}, {"type": "Feature", "properties": {"kind": "building", "detected": true, "source": "ms-buildings"}, "geometry": {"type": "Polygon", "coordinates": [[[-68.832663, 45.72981], [-68.832715, 45.729867], [-68.832803, 45.729828], [-68.832751, 45.729771], [-68.832663, 45.72981]]]}}, {"type": "Feature", "properties": {"kind": "building", "detected": true, "source": "ms-buildings"}, "geometry": {"type": "Polygon", "coordinates": [[[-68.834679, 45.731506], [-68.834626, 45.731426], [-68.834449, 45.731483], [-68.834503, 45.731563], [-68.834679, 45.731506]]]}}, {"type": "Feature", "properties": {"kind": "building", "detected": true, "source": "ms-buildings"}, "geometry": {"type": "Polygon", "coordinates": [[[-68.834859, 45.731759], [-68.834821, 45.731648], [-68.834726, 45.731664], [-68.834764, 45.731775], [-68.834859, 45.731759]]]}}, {"type": "Feature", "properties": {"kind": "building", "detected": true, "source": "ms-buildings"}, "geometry": {"type": "Polygon", "coordinates": [[[-68.803259, 45.787461], [-68.803115, 45.78746], [-68.803114, 45.787536], [-68.803257, 45.787538], [-68.803259, 45.787461]]]}}, {"type": "Feature", "properties": {"kind": "building", "detected": true, "source": "ms-buildings"}, "geometry": {"type": "Polygon", "coordinates": [[[-68.821512, 45.788485], [-68.821464, 45.7884], [-68.821322, 45.788438], [-68.82137, 45.788524], [-68.821512, 45.788485]]]}}, {"type": "Feature", "properties": {"kind": "building", "detected": true, "source": "ms-buildings"}, "geometry": {"type": "Polygon", "coordinates": [[[-68.837378, 45.723387], [-68.837382, 45.723243], [-68.837266, 45.723242], [-68.837263, 45.723386], [-68.837378, 45.723387]]]}}, {"type": "Feature", "properties": {"kind": "building", "detected": true, "source": "ms-buildings"}, "geometry": {"type": "Polygon", "coordinates": [[[-68.839387, 45.731403], [-68.839303, 45.731311], [-68.839213, 45.73135], [-68.839296, 45.731443], [-68.839387, 45.731403]]]}}, {"type": "Feature", "properties": {"kind": "building", "detected": true, "source": "ms-buildings"}, "geometry": {"type": "Polygon", "coordinates": [[[-68.828669, 45.727567], [-68.828588, 45.727642], [-68.828675, 45.727688], [-68.828756, 45.727613], [-68.828669, 45.727567]]]}}, {"type": "Feature", "properties": {"kind": "building", "detected": true, "source": "ms-buildings"}, "geometry": {"type": "Polygon", "coordinates": [[[-68.833477, 45.729324], [-68.833437, 45.729297], [-68.833382, 45.729336], [-68.833422, 45.729363], [-68.833477, 45.729324]]]}}, {"type": "Feature", "properties": {"kind": "building", "detected": true, "source": "ms-buildings"}, "geometry": {"type": "Polygon", "coordinates": [[[-68.840337, 45.722748], [-68.840337, 45.722864], [-68.840466, 45.722864], [-68.840466, 45.722748], [-68.840337, 45.722748]]]}}, {"type": "Feature", "properties": {"kind": "building", "detected": true, "source": "ms-buildings"}, "geometry": {"type": "Polygon", "coordinates": [[[-68.820227, 45.72525], [-68.820134, 45.725255], [-68.820145, 45.725367], [-68.820319, 45.725358], [-68.820306, 45.725239], [-68.820266, 45.725241], [-68.820263, 45.725213], [-68.820223, 45.725215], [-68.820227, 45.72525]]]}}, {"type": "Feature", "properties": {"kind": "building", "detected": true, "source": "ms-buildings"}, "geometry": {"type": "Polygon", "coordinates": [[[-68.842863, 45.731129], [-68.842794, 45.731001], [-68.842697, 45.731026], [-68.842767, 45.731154], [-68.842863, 45.731129]]]}}, {"type": "Feature", "properties": {"kind": "building", "detected": true, "source": "ms-buildings"}, "geometry": {"type": "Polygon", "coordinates": [[[-68.798495, 45.727663], [-68.798361, 45.727663], [-68.798361, 45.727729], [-68.798495, 45.727729], [-68.798495, 45.727663]]]}}, {"type": "Feature", "properties": {"kind": "building", "detected": true, "source": "ms-buildings"}, "geometry": {"type": "Polygon", "coordinates": [[[-68.830121, 45.728981], [-68.830061, 45.72906], [-68.830137, 45.729088], [-68.830118, 45.729113], [-68.830231, 45.729155], [-68.83031, 45.729051], [-68.830121, 45.728981]]]}}, {"type": "Feature", "properties": {"kind": "building", "detected": true, "source": "ms-buildings"}, "geometry": {"type": "Polygon", "coordinates": [[[-68.84144, 45.731417], [-68.841365, 45.731417], [-68.841365, 45.731479], [-68.84144, 45.731479], [-68.84144, 45.731417]]]}}, {"type": "Feature", "properties": {"kind": "building", "detected": true, "source": "ms-buildings"}, "geometry": {"type": "Polygon", "coordinates": [[[-68.831371, 45.729919], [-68.831325, 45.730016], [-68.831529, 45.730063], [-68.831574, 45.729965], [-68.831371, 45.729919]]]}}, {"type": "Feature", "properties": {"kind": "building", "detected": true, "source": "ms-buildings"}, "geometry": {"type": "Polygon", "coordinates": [[[-68.845388, 45.716487], [-68.845388, 45.716574], [-68.84545, 45.716574], [-68.84545, 45.716487], [-68.845388, 45.716487]]]}}, {"type": "Feature", "properties": {"kind": "building", "detected": true, "source": "ms-buildings"}, "geometry": {"type": "Polygon", "coordinates": [[[-68.797993, 45.725373], [-68.798114, 45.725373], [-68.798114, 45.725326], [-68.797993, 45.725326], [-68.797993, 45.725373]]]}}, {"type": "Feature", "properties": {"kind": "building", "detected": true, "source": "ms-buildings"}, "geometry": {"type": "Polygon", "coordinates": [[[-68.820144, 45.727199], [-68.820036, 45.727241], [-68.820101, 45.727322], [-68.82021, 45.727279], [-68.820144, 45.727199]]]}}, {"type": "Feature", "properties": {"kind": "building", "detected": true, "source": "ms-buildings"}, "geometry": {"type": "Polygon", "coordinates": [[[-68.842443, 45.722168], [-68.842624, 45.722158], [-68.842613, 45.722067], [-68.842432, 45.722077], [-68.842443, 45.722168]]]}}, {"type": "Feature", "properties": {"kind": "building", "detected": true, "source": "ms-buildings"}, "geometry": {"type": "Polygon", "coordinates": [[[-68.794831, 45.72934], [-68.794883, 45.729325], [-68.794836, 45.729245], [-68.794774, 45.729263], [-68.794802, 45.72931], [-68.794702, 45.72934], [-68.794749, 45.72942], [-68.794859, 45.729388], [-68.794831, 45.72934]]]}}, {"type": "Feature", "properties": {"kind": "building", "detected": true, "source": "ms-buildings"}, "geometry": {"type": "Polygon", "coordinates": [[[-68.796497, 45.728253], [-68.796497, 45.728156], [-68.796403, 45.728156], [-68.796403, 45.728253], [-68.796497, 45.728253]]]}}, {"type": "Feature", "properties": {"kind": "building", "detected": true, "source": "ms-buildings"}, "geometry": {"type": "Polygon", "coordinates": [[[-68.815927, 45.726409], [-68.816045, 45.726409], [-68.816045, 45.726345], [-68.815927, 45.726345], [-68.815927, 45.726409]]]}}, {"type": "Feature", "properties": {"kind": "building", "detected": true, "source": "ms-buildings"}, "geometry": {"type": "Polygon", "coordinates": [[[-68.829727, 45.728355], [-68.829594, 45.728199], [-68.829471, 45.72825], [-68.829604, 45.728406], [-68.829727, 45.728355]]]}}, {"type": "Feature", "properties": {"kind": "building", "detected": true, "source": "ms-buildings"}, "geometry": {"type": "Polygon", "coordinates": [[[-68.833607, 45.728582], [-68.833541, 45.728621], [-68.833594, 45.728665], [-68.83366, 45.728626], [-68.833607, 45.728582]]]}}, {"type": "Feature", "properties": {"kind": "building", "detected": true, "source": "ms-buildings"}, "geometry": {"type": "Polygon", "coordinates": [[[-68.844466, 45.720345], [-68.844428, 45.72039], [-68.844485, 45.720413], [-68.844522, 45.720368], [-68.844466, 45.720345]]]}}, {"type": "Feature", "properties": {"kind": "building", "detected": true, "source": "ms-buildings"}, "geometry": {"type": "Polygon", "coordinates": [[[-68.858458, 45.715797], [-68.858413, 45.715824], [-68.858461, 45.715863], [-68.858506, 45.715836], [-68.858458, 45.715797]]]}}, {"type": "Feature", "properties": {"kind": "building", "detected": true, "source": "ms-buildings"}, "geometry": {"type": "Polygon", "coordinates": [[[-68.815777, 45.72617], [-68.815991, 45.726083], [-68.815933, 45.726014], [-68.81572, 45.7261], [-68.815777, 45.72617]]]}}, {"type": "Feature", "properties": {"kind": "building", "detected": true, "source": "ms-buildings"}, "geometry": {"type": "Polygon", "coordinates": [[[-68.840433, 45.731659], [-68.840344, 45.731604], [-68.840155, 45.73175], [-68.840263, 45.731819], [-68.840342, 45.731758], [-68.840322, 45.731745], [-68.840433, 45.731659]]]}}, {"type": "Feature", "properties": {"kind": "building", "detected": true, "source": "ms-buildings"}, "geometry": {"type": "Polygon", "coordinates": [[[-68.85285, 45.724153], [-68.853056, 45.724146], [-68.853051, 45.724069], [-68.852845, 45.724075], [-68.85285, 45.724153]]]}}, {"type": "Feature", "properties": {"kind": "building", "detected": true, "source": "ms-buildings"}, "geometry": {"type": "Polygon", "coordinates": [[[-68.834859, 45.728378], [-68.834922, 45.72837], [-68.83494, 45.728442], [-68.835093, 45.728423], [-68.835053, 45.728268], [-68.834837, 45.728294], [-68.834859, 45.728378]]]}}, {"type": "Feature", "properties": {"kind": "building", "detected": true, "source": "ms-buildings"}, "geometry": {"type": "Polygon", "coordinates": [[[-68.839994, 45.73135], [-68.84011, 45.73143], [-68.840235, 45.731343], [-68.840119, 45.731262], [-68.839994, 45.73135]]]}}, {"type": "Feature", "properties": {"kind": "building", "detected": true, "source": "ms-buildings"}, "geometry": {"type": "Polygon", "coordinates": [[[-68.850842, 45.72305], [-68.850775, 45.7231], [-68.85083, 45.723136], [-68.850897, 45.723085], [-68.850842, 45.72305]]]}}, {"type": "Feature", "properties": {"kind": "building", "detected": true, "source": "ms-buildings"}, "geometry": {"type": "Polygon", "coordinates": [[[-68.81579, 45.726657], [-68.815829, 45.726721], [-68.81607, 45.72665], [-68.81603, 45.726585], [-68.81579, 45.726657]]]}}, {"type": "Feature", "properties": {"kind": "building", "detected": true, "source": "ms-buildings"}, "geometry": {"type": "Polygon", "coordinates": [[[-68.739549, 45.743177], [-68.73954, 45.743134], [-68.739601, 45.743128], [-68.739591, 45.743076], [-68.739409, 45.743093], [-68.739419, 45.743146], [-68.739483, 45.74314], [-68.739491, 45.743183], [-68.739549, 45.743177]]]}}, {"type": "Feature", "properties": {"kind": "building", "detected": true, "source": "ms-buildings"}, "geometry": {"type": "Polygon", "coordinates": [[[-68.798685, 45.727774], [-68.798482, 45.727774], [-68.798482, 45.727884], [-68.798685, 45.727884], [-68.798685, 45.727774]]]}}, {"type": "Feature", "properties": {"kind": "building", "detected": true, "source": "ms-buildings"}, "geometry": {"type": "Polygon", "coordinates": [[[-68.818143, 45.726297], [-68.818157, 45.726328], [-68.818045, 45.726353], [-68.818088, 45.726444], [-68.818423, 45.726369], [-68.818366, 45.726247], [-68.818143, 45.726297]]]}}, {"type": "Feature", "properties": {"kind": "building", "detected": true, "source": "ms-buildings"}, "geometry": {"type": "Polygon", "coordinates": [[[-68.819119, 45.726796], [-68.819077, 45.726752], [-68.818879, 45.726846], [-68.818921, 45.72689], [-68.819119, 45.726796]]]}}, {"type": "Feature", "properties": {"kind": "building", "detected": true, "source": "ms-buildings"}, "geometry": {"type": "Polygon", "coordinates": [[[-68.83009, 45.726978], [-68.830077, 45.726829], [-68.830109, 45.726828], [-68.830112, 45.726861], [-68.830134, 45.72686], [-68.830126, 45.726776], [-68.829934, 45.726785], [-68.829952, 45.726984], [-68.83009, 45.726978]]]}}, {"type": "Feature", "properties": {"kind": "building", "detected": true, "source": "ms-buildings"}, "geometry": {"type": "Polygon", "coordinates": [[[-68.84556, 45.716439], [-68.845485, 45.716439], [-68.845485, 45.716538], [-68.84556, 45.716538], [-68.84556, 45.716439]]]}}]}