{"type": "FeatureCollection", "meta": {"source": "NAIP 2023 aerial, 0.6 m", "note": "detections, not surveyed footprints", "rule": "NDVI < 0.2, not water, 20.0-500.0 m2, fills >= 0.72 of its MINIMUM ROTATED rectangle, aspect <= 3.2"}, "features": [{"type": "Feature", "properties": {"kind": "building", "detected": true, "source": "naip-2023", "area_m2": 22, "fill": 0.72, "dist_m": 71, "on_map": false}, "geometry": {"type": "Point", "coordinates": [-68.724572, 45.748561]}}, {"type": "Feature", "properties": {"kind": "building", "detected": true, "source": "naip-2023", "area_m2": 31, "fill": 0.78, "dist_m": 79, "on_map": false}, "geometry": {"type": "Point", "coordinates": [-68.742816, 45.745136]}}, {"type": "Feature", "properties": {"kind": "building", "detected": true, "source": "naip-2023", "area_m2": 24, "fill": 0.78, "dist_m": 64, "on_map": true}, "geometry": {"type": "Point", "coordinates": [-68.737551, 45.742799]}}, {"type": "Feature", "properties": {"kind": "building", "detected": true, "source": "naip-2023", "area_m2": 266, "fill": 0.72, "dist_m": 0, "on_map": false}, "geometry": {"type": "Point", "coordinates": [-68.732983, 45.746334]}}, {"type": "Feature", "properties": {"kind": "building", "detected": true, "source": "naip-2023", "area_m2": 42, "fill": 0.81, "dist_m": 27, "on_map": false}, "geometry": {"type": "Point", "coordinates": [-68.735266, 45.741449]}}, {"type": "Feature", "properties": {"kind": "building", "detected": true, "source": "naip-2023", "area_m2": 27, "fill": 0.79, "dist_m": 166, "on_map": false}, "geometry": {"type": "Point", "coordinates": [-68.728678, 45.746169]}}, {"type": "Feature", "properties": {"kind": "building", "detected": true, "source": "naip-2023", "area_m2": 37, "fill": 0.72, "dist_m": 246, "on_map": false}, "geometry": {"type": "Point", "coordinates": [-68.735829, 45.739567]}}, {"type": "Feature", "properties": {"kind": "building", "detected": true, "source": "naip-2023", "area_m2": 25, "fill": 0.73, "dist_m": 53, "on_map": false}, "geometry": {"type": "Point", "coordinates": [-68.844336, 45.751178]}}, {"type": "Feature", "properties": {"kind": "building", "detected": true, "source": "naip-2023", "area_m2": 27, "fill": 0.76, "dist_m": 334, "on_map": false}, "geometry": {"type": "Point", "coordinates": [-68.845027, 45.748671]}}, {"type": "Feature", "properties": {"kind": "building", "detected": true, "source": "naip-2023", "area_m2": 32, "fill": 0.77, "dist_m": 62, "on_map": false}, "geometry": {"type": "Point", "coordinates": [-68.831868, 45.748508]}}, {"type": "Feature", "properties": {"kind": "building", "detected": true, "source": "naip-2023", "area_m2": 23, "fill": 0.76, "dist_m": 0, "on_map": false}, "geometry": {"type": "Point", "coordinates": [-68.832747, 45.748138]}}, {"type": "Feature", "properties": {"kind": "building", "detected": true, "source": "naip-2023", "area_m2": 62, "fill": 0.73, "dist_m": 12, "on_map": false}, "geometry": {"type": "Point", "coordinates": [-68.832458, 45.747192]}}, {"type": "Feature", "properties": {"kind": "building", "detected": true, "source": "naip-2023", "area_m2": 72, "fill": 0.73, "dist_m": 0, "on_map": false}, "geometry": {"type": "Point", "coordinates": [-68.829142, 45.746947]}}, {"type": "Feature", "properties": {"kind": "building", "detected": true, "source": "naip-2023", "area_m2": 24, "fill": 0.75, "dist_m": 218, "on_map": false}, "geometry": {"type": "Point", "coordinates": [-68.83883, 45.745592]}}, {"type": "Feature", "properties": {"kind": "building", "detected": true, "source": "naip-2023", "area_m2": 39, "fill": 0.73, "dist_m": 16, "on_map": false}, "geometry": {"type": "Point", "coordinates": [-68.834571, 45.744285]}}, {"type": "Feature", "properties": {"kind": "building", "detected": true, "source": "naip-2023", "area_m2": 64, "fill": 0.75, "dist_m": 0, "on_map": false}, "geometry": {"type": "Point", "coordinates": [-68.829004, 45.74599]}}, {"type": "Feature", "properties": {"kind": "building", "detected": true, "source": "naip-2023", "area_m2": 23, "fill": 0.75, "dist_m": 0, "on_map": false}, "geometry": {"type": "Point", "coordinates": [-68.832275, 45.74256]}}, {"type": "Feature", "properties": {"kind": "building", "detected": true, "source": "naip-2023", "area_m2": 23, "fill": 0.74, "dist_m": 31, "on_map": false}, "geometry": {"type": "Point", "coordinates": [-68.823466, 45.742433]}}, {"type": "Feature", "properties": {"kind": "building", "detected": true, "source": "naip-2023", "area_m2": 21, "fill": 0.73, "dist_m": 262, "on_map": false}, "geometry": {"type": "Point", "coordinates": [-68.83774, 45.738457]}}, {"type": "Feature", "properties": {"kind": "building", "detected": true, "source": "naip-2023", "area_m2": 22, "fill": 0.73, "dist_m": 321, "on_map": false}, "geometry": {"type": "Point", "coordinates": [-68.840426, 45.735803]}}, {"type": "Feature", "properties": {"kind": "building", "detected": true, "source": "naip-2023", "area_m2": 21, "fill": 0.76, "dist_m": 328, "on_map": false}, "geometry": {"type": "Point", "coordinates": [-68.840559, 45.733967]}}, {"type": "Feature", "properties": {"kind": "building", "detected": true, "source": "naip-2023", "area_m2": 31, "fill": 0.75, "dist_m": 7, "on_map": false}, "geometry": {"type": "Point", "coordinates": [-68.835034, 45.731617]}}, {"type": "Feature", "properties": {"kind": "building", "detected": true, "source": "naip-2023", "area_m2": 67, "fill": 0.74, "dist_m": 9, "on_map": false}, "geometry": {"type": "Point", "coordinates": [-68.836489, 45.730411]}}, {"type": "Feature", "properties": {"kind": "building", "detected": true, "source": "naip-2023", "area_m2": 21, "fill": 0.78, "dist_m": 191, "on_map": false}, "geometry": {"type": "Point", "coordinates": [-68.838295, 45.729482]}}, {"type": "Feature", "properties": {"kind": "building", "detected": true, "source": "naip-2023", "area_m2": 53, "fill": 0.73, "dist_m": 96, "on_map": false}, "geometry": {"type": "Point", "coordinates": [-68.824631, 45.726319]}}, {"type": "Feature", "properties": {"kind": "building", "detected": true, "source": "naip-2023", "area_m2": 31, "fill": 0.72, "dist_m": 172, "on_map": false}, "geometry": {"type": "Point", "coordinates": [-68.824183, 45.725705]}}, {"type": "Feature", "properties": {"kind": "building", "detected": true, "source": "naip-2023", "area_m2": 28, "fill": 0.77, "dist_m": 172, "on_map": false}, "geometry": {"type": "Point", "coordinates": [-68.818503, 45.725004]}}, {"type": "Feature", "properties": {"kind": "building", "detected": true, "source": "naip-2023", "area_m2": 25, "fill": 0.72, "dist_m": 232, "on_map": false}, "geometry": {"type": "Point", "coordinates": [-68.811263, 45.721008]}}, {"type": "Feature", "properties": {"kind": "building", "detected": true, "source": "naip-2023", "area_m2": 21, "fill": 0.8, "dist_m": 9, "on_map": false}, "geometry": {"type": "Point", "coordinates": [-68.806624, 45.749822]}}, {"type": "Feature", "properties": {"kind": "building", "detected": true, "source": "naip-2023", "area_m2": 30, "fill": 0.75, "dist_m": 0, "on_map": false}, "geometry": {"type": "Point", "coordinates": [-68.786485, 45.747554]}}, {"type": "Feature", "properties": {"kind": "building", "detected": true, "source": "naip-2023", "area_m2": 28, "fill": 0.72, "dist_m": 226, "on_map": false}, "geometry": {"type": "Point", "coordinates": [-68.757371, 45.748651]}}, {"type": "Feature", "properties": {"kind": "building", "detected": true, "source": "naip-2023", "area_m2": 32, "fill": 0.76, "dist_m": 164, "on_map": false}, "geometry": {"type": "Point", "coordinates": [-68.775856, 45.743308]}}, {"type": "Feature", "properties": {"kind": "building", "detected": true, "source": "naip-2023", "area_m2": 22, "fill": 0.74, "dist_m": 316, "on_map": false}, "geometry": {"type": "Point", "coordinates": [-68.775812, 45.741712]}}, {"type": "Feature", "properties": {"kind": "building", "detected": true, "source": "naip-2023", "area_m2": 26, "fill": 0.73, "dist_m": 235, "on_map": false}, "geometry": {"type": "Point", "coordinates": [-68.778886, 45.741498]}}, {"type": "Feature", "properties": {"kind": "building", "detected": true, "source": "naip-2023", "area_m2": 21, "fill": 0.74, "dist_m": 7, "on_map": false}, "geometry": {"type": "Point", "coordinates": [-68.783482, 45.740781]}}, {"type": "Feature", "properties": {"kind": "building", "detected": true, "source": "naip-2023", "area_m2": 25, "fill": 0.74, "dist_m": 212, "on_map": false}, "geometry": {"type": "Point", "coordinates": [-68.781742, 45.737992]}}, {"type": "Feature", "properties": {"kind": "building", "detected": true, "source": "naip-2023", "area_m2": 20, "fill": 0.78, "dist_m": 329, "on_map": false}, "geometry": {"type": "Point", "coordinates": [-68.784006, 45.733476]}}, {"type": "Feature", "properties": {"kind": "building", "detected": true, "source": "naip-2023", "area_m2": 22, "fill": 0.8, "dist_m": 89, "on_map": false}, "geometry": {"type": "Point", "coordinates": [-68.808558, 45.725549]}}, {"type": "Feature", "properties": {"kind": "building", "detected": true, "source": "naip-2023", "area_m2": 28, "fill": 0.75, "dist_m": 189, "on_map": false}, "geometry": {"type": "Point", "coordinates": [-68.80338, 45.726704]}}, {"type": "Feature", "properties": {"kind": "building", "detected": true, "source": "naip-2023", "area_m2": 25, "fill": 0.78, "dist_m": 298, "on_map": false}, "geometry": {"type": "Point", "coordinates": [-68.803062, 45.725766]}}, {"type": "Feature", "properties": {"kind": "building", "detected": true, "source": "naip-2023", "area_m2": 39, "fill": 0.81, "dist_m": 97, "on_map": false}, "geometry": {"type": "Point", "coordinates": [-68.797568, 45.727818]}}, {"type": "Feature", "properties": {"kind": "building", "detected": true, "source": "naip-2023", "area_m2": 22, "fill": 0.73, "dist_m": 277, "on_map": false}, "geometry": {"type": "Point", "coordinates": [-68.794209, 45.726959]}}, {"type": "Feature", "properties": {"kind": "building", "detected": true, "source": "naip-2023", "area_m2": 25, "fill": 0.72, "dist_m": 232, "on_map": false}, "geometry": {"type": "Point", "coordinates": [-68.811263, 45.721008]}}, {"type": "Feature", "properties": {"kind": "building", "detected": true, "source": "naip-2023", "area_m2": 25, "fill": 0.78, "dist_m": 379, "on_map": false}, "geometry": {"type": "Point", "coordinates": [-68.807039, 45.7228]}}, {"type": "Feature", "properties": {"kind": "building", "detected": true, "source": "naip-2023", "area_m2": 30, "fill": 0.8, "dist_m": 100, "on_map": false}, "geometry": {"type": "Point", "coordinates": [-68.751161, 45.78702]}}, {"type": "Feature", "properties": {"kind": "building", "detected": true, "source": "naip-2023", "area_m2": 23, "fill": 0.8, "dist_m": 0, "on_map": false}, "geometry": {"type": "Point", "coordinates": [-68.750845, 45.781703]}}, {"type": "Feature", "properties": {"kind": "building", "detected": true, "source": "naip-2023", "area_m2": 69, "fill": 0.73, "dist_m": 316, "on_map": false}, "geometry": {"type": "Point", "coordinates": [-68.745511, 45.766469]}}, {"type": "Feature", "properties": {"kind": "building", "detected": true, "source": "naip-2023", "area_m2": 22, "fill": 0.72, "dist_m": 71, "on_map": false}, "geometry": {"type": "Point", "coordinates": [-68.724572, 45.748561]}}, {"type": "Feature", "properties": {"kind": "building", "detected": true, "source": "naip-2023", "area_m2": 29, "fill": 0.75, "dist_m": 325, "on_map": false}, "geometry": {"type": "Point", "coordinates": [-68.818904, 45.79058]}}, {"type": "Feature", "properties": {"kind": "building", "detected": true, "source": "naip-2023", "area_m2": 22, "fill": 0.72, "dist_m": 74, "on_map": false}, "geometry": {"type": "Point", "coordinates": [-68.829196, 45.78559]}}, {"type": "Feature", "properties": {"kind": "building", "detected": true, "source": "naip-2023", "area_m2": 30, "fill": 0.74, "dist_m": 104, "on_map": false}, "geometry": {"type": "Point", "coordinates": [-68.832577, 45.784134]}}, {"type": "Feature", "properties": {"kind": "building", "detected": true, "source": "naip-2023", "area_m2": 20, "fill": 0.74, "dist_m": 35, "on_map": false}, "geometry": {"type": "Point", "coordinates": [-68.8329, 45.783241]}}, {"type": "Feature", "properties": {"kind": "building", "detected": true, "source": "naip-2023", "area_m2": 21, "fill": 0.74, "dist_m": 174, "on_map": false}, "geometry": {"type": "Point", "coordinates": [-68.834478, 45.78224]}}, {"type": "Feature", "properties": {"kind": "building", "detected": true, "source": "naip-2023", "area_m2": 23, "fill": 0.72, "dist_m": 181, "on_map": false}, "geometry": {"type": "Point", "coordinates": [-68.834617, 45.782043]}}, {"type": "Feature", "properties": {"kind": "building", "detected": true, "source": "naip-2023", "area_m2": 22, "fill": 0.79, "dist_m": 274, "on_map": false}, "geometry": {"type": "Point", "coordinates": [-68.835947, 45.78198]}}, {"type": "Feature", "properties": {"kind": "building", "detected": true, "source": "naip-2023", "area_m2": 22, "fill": 0.75, "dist_m": 291, "on_map": false}, "geometry": {"type": "Point", "coordinates": [-68.836847, 45.780293]}}, {"type": "Feature", "properties": {"kind": "building", "detected": true, "source": "naip-2023", "area_m2": 29, "fill": 0.74, "dist_m": 354, "on_map": false}, "geometry": {"type": "Point", "coordinates": [-68.837451, 45.780233]}}, {"type": "Feature", "properties": {"kind": "building", "detected": true, "source": "naip-2023", "area_m2": 23, "fill": 0.73, "dist_m": 382, "on_map": false}, "geometry": {"type": "Point", "coordinates": [-68.837756, 45.779775]}}, {"type": "Feature", "properties": {"kind": "building", "detected": true, "source": "naip-2023", "area_m2": 27, "fill": 0.73, "dist_m": 382, "on_map": false}, "geometry": {"type": "Point", "coordinates": [-68.837766, 45.7797]}}, {"type": "Feature", "properties": {"kind": "building", "detected": true, "source": "naip-2023", "area_m2": 24, "fill": 0.77, "dist_m": 225, "on_map": false}, "geometry": {"type": "Point", "coordinates": [-68.836335, 45.779197]}}, {"type": "Feature", "properties": {"kind": "building", "detected": true, "source": "naip-2023", "area_m2": 21, "fill": 0.79, "dist_m": 343, "on_map": false}, "geometry": {"type": "Point", "coordinates": [-68.843713, 45.773202]}}, {"type": "Feature", "properties": {"kind": "building", "detected": true, "source": "naip-2023", "area_m2": 21, "fill": 0.75, "dist_m": 296, "on_map": false}, "geometry": {"type": "Point", "coordinates": [-68.835727, 45.776243]}}, {"type": "Feature", "properties": {"kind": "building", "detected": true, "source": "naip-2023", "area_m2": 41, "fill": 0.73, "dist_m": 265, "on_map": false}, "geometry": {"type": "Point", "coordinates": [-68.838697, 45.775929]}}, {"type": "Feature", "properties": {"kind": "building", "detected": true, "source": "naip-2023", "area_m2": 21, "fill": 0.74, "dist_m": 249, "on_map": false}, "geometry": {"type": "Point", "coordinates": [-68.836556, 45.775532]}}, {"type": "Feature", "properties": {"kind": "building", "detected": true, "source": "naip-2023", "area_m2": 22, "fill": 0.72, "dist_m": 212, "on_map": false}, "geometry": {"type": "Point", "coordinates": [-68.839903, 45.775289]}}, {"type": "Feature", "properties": {"kind": "building", "detected": true, "source": "naip-2023", "area_m2": 22, "fill": 0.81, "dist_m": 191, "on_map": false}, "geometry": {"type": "Point", "coordinates": [-68.83916, 45.775292]}}, {"type": "Feature", "properties": {"kind": "building", "detected": true, "source": "naip-2023", "area_m2": 25, "fill": 0.74, "dist_m": 220, "on_map": false}, "geometry": {"type": "Point", "coordinates": [-68.840345, 45.775143]}}, {"type": "Feature", "properties": {"kind": "building", "detected": true, "source": "naip-2023", "area_m2": 21, "fill": 0.77, "dist_m": 147, "on_map": false}, "geometry": {"type": "Point", "coordinates": [-68.840514, 45.774095]}}, {"type": "Feature", "properties": {"kind": "building", "detected": true, "source": "naip-2023", "area_m2": 31, "fill": 0.78, "dist_m": 120, "on_map": false}, "geometry": {"type": "Point", "coordinates": [-68.83863, 45.767109]}}, {"type": "Feature", "properties": {"kind": "building", "detected": true, "source": "naip-2023", "area_m2": 23, "fill": 0.72, "dist_m": 148, "on_map": false}, "geometry": {"type": "Point", "coordinates": [-68.839298, 45.766965]}}, {"type": "Feature", "properties": {"kind": "building", "detected": true, "source": "naip-2023", "area_m2": 22, "fill": 0.73, "dist_m": 337, "on_map": false}, "geometry": {"type": "Point", "coordinates": [-68.837077, 45.763187]}}, {"type": "Feature", "properties": {"kind": "building", "detected": true, "source": "naip-2023", "area_m2": 21, "fill": 0.73, "dist_m": 161, "on_map": false}, "geometry": {"type": "Point", "coordinates": [-68.834465, 45.761053]}}, {"type": "Feature", "properties": {"kind": "building", "detected": true, "source": "naip-2023", "area_m2": 25, "fill": 0.74, "dist_m": 338, "on_map": false}, "geometry": {"type": "Point", "coordinates": [-68.846722, 45.755328]}}, {"type": "Feature", "properties": {"kind": "building", "detected": true, "source": "naip-2023", "area_m2": 24, "fill": 0.82, "dist_m": 308, "on_map": false}, "geometry": {"type": "Point", "coordinates": [-68.847491, 45.755243]}}, {"type": "Feature", "properties": {"kind": "building", "detected": true, "source": "naip-2023", "area_m2": 25, "fill": 0.78, "dist_m": 319, "on_map": false}, "geometry": {"type": "Point", "coordinates": [-68.846043, 45.755099]}}, {"type": "Feature", "properties": {"kind": "building", "detected": true, "source": "naip-2023", "area_m2": 27, "fill": 0.73, "dist_m": 304, "on_map": false}, "geometry": {"type": "Point", "coordinates": [-68.834921, 45.7589]}}, {"type": "Feature", "properties": {"kind": "building", "detected": true, "source": "naip-2023", "area_m2": 42, "fill": 0.76, "dist_m": 59, "on_map": false}, "geometry": {"type": "Point", "coordinates": [-68.833191, 45.760253]}}, {"type": "Feature", "properties": {"kind": "building", "detected": true, "source": "naip-2023", "area_m2": 34, "fill": 0.75, "dist_m": 95, "on_map": false}, "geometry": {"type": "Point", "coordinates": [-68.850499, 45.754422]}}, {"type": "Feature", "properties": {"kind": "building", "detected": true, "source": "naip-2023", "area_m2": 25, "fill": 0.73, "dist_m": 53, "on_map": false}, "geometry": {"type": "Point", "coordinates": [-68.844336, 45.751178]}}, {"type": "Feature", "properties": {"kind": "building", "detected": true, "source": "naip-2023", "area_m2": 22, "fill": 0.75, "dist_m": 312, "on_map": false}, "geometry": {"type": "Point", "coordinates": [-68.833981, 45.752717]}}, {"type": "Feature", "properties": {"kind": "building", "detected": true, "source": "naip-2023", "area_m2": 32, "fill": 0.77, "dist_m": 306, "on_map": false}, "geometry": {"type": "Point", "coordinates": [-68.833973, 45.752641]}}, {"type": "Feature", "properties": {"kind": "building", "detected": true, "source": "naip-2023", "area_m2": 27, "fill": 0.76, "dist_m": 334, "on_map": false}, "geometry": {"type": "Point", "coordinates": [-68.845027, 45.748671]}}, {"type": "Feature", "properties": {"kind": "building", "detected": true, "source": "naip-2023", "area_m2": 32, "fill": 0.77, "dist_m": 62, "on_map": false}, "geometry": {"type": "Point", "coordinates": [-68.831868, 45.748508]}}, {"type": "Feature", "properties": {"kind": "building", "detected": true, "source": "naip-2023", "area_m2": 22, "fill": 0.86, "dist_m": 0, "on_map": false}, "geometry": {"type": "Point", "coordinates": [-68.832747, 45.748142]}}, {"type": "Feature", "properties": {"kind": "building", "detected": true, "source": "naip-2023", "area_m2": 24, "fill": 0.73, "dist_m": 299, "on_map": false}, "geometry": {"type": "Point", "coordinates": [-68.809599, 45.79081]}}, {"type": "Feature", "properties": {"kind": "building", "detected": true, "source": "naip-2023", "area_m2": 25, "fill": 0.8, "dist_m": 190, "on_map": false}, "geometry": {"type": "Point", "coordinates": [-68.802513, 45.788893]}}, {"type": "Feature", "properties": {"kind": "building", "detected": true, "source": "naip-2023", "area_m2": 30, "fill": 0.74, "dist_m": 88, "on_map": false}, "geometry": {"type": "Point", "coordinates": [-68.80385, 45.788519]}}, {"type": "Feature", "properties": {"kind": "building", "detected": true, "source": "naip-2023", "area_m2": 21, "fill": 0.76, "dist_m": 74, "on_map": false}, "geometry": {"type": "Point", "coordinates": [-68.803513, 45.788295]}}, {"type": "Feature", "properties": {"kind": "building", "detected": true, "source": "naip-2023", "area_m2": 21, "fill": 0.75, "dist_m": 241, "on_map": false}, "geometry": {"type": "Point", "coordinates": [-68.790417, 45.790848]}}, {"type": "Feature", "properties": {"kind": "building", "detected": true, "source": "naip-2023", "area_m2": 23, "fill": 0.72, "dist_m": 6, "on_map": false}, "geometry": {"type": "Point", "coordinates": [-68.795371, 45.783505]}}, {"type": "Feature", "properties": {"kind": "building", "detected": true, "source": "naip-2023", "area_m2": 23, "fill": 0.74, "dist_m": 389, "on_map": false}, "geometry": {"type": "Point", "coordinates": [-68.780717, 45.78364]}}, {"type": "Feature", "properties": {"kind": "building", "detected": true, "source": "naip-2023", "area_m2": 30, "fill": 0.8, "dist_m": 100, "on_map": false}, "geometry": {"type": "Point", "coordinates": [-68.751161, 45.78702]}}, {"type": "Feature", "properties": {"kind": "building", "detected": true, "source": "naip-2023", "area_m2": 22, "fill": 0.8, "dist_m": 214, "on_map": false}, "geometry": {"type": "Point", "coordinates": [-68.789174, 45.781841]}}, {"type": "Feature", "properties": {"kind": "building", "detected": true, "source": "naip-2023", "area_m2": 32, "fill": 0.74, "dist_m": 82, "on_map": false}, "geometry": {"type": "Point", "coordinates": [-68.764185, 45.777406]}}, {"type": "Feature", "properties": {"kind": "building", "detected": true, "source": "naip-2023", "area_m2": 23, "fill": 0.8, "dist_m": 0, "on_map": false}, "geometry": {"type": "Point", "coordinates": [-68.750845, 45.781703]}}, {"type": "Feature", "properties": {"kind": "building", "detected": true, "source": "naip-2023", "area_m2": 22, "fill": 0.73, "dist_m": 315, "on_map": false}, "geometry": {"type": "Point", "coordinates": [-68.775737, 45.77621]}}, {"type": "Feature", "properties": {"kind": "building", "detected": true, "source": "naip-2023", "area_m2": 23, "fill": 0.73, "dist_m": 17, "on_map": false}, "geometry": {"type": "Point", "coordinates": [-68.78011, 45.773532]}}, {"type": "Feature", "properties": {"kind": "building", "detected": true, "source": "naip-2023", "area_m2": 21, "fill": 0.8, "dist_m": 9, "on_map": false}, "geometry": {"type": "Point", "coordinates": [-68.806624, 45.749822]}}, {"type": "Feature", "properties": {"kind": "building", "detected": true, "source": "naip-2023", "area_m2": 28, "fill": 0.72, "dist_m": 226, "on_map": false}, "geometry": {"type": "Point", "coordinates": [-68.757371, 45.748651]}}]}